{"type": "FeatureCollection", "features": [{"type": "Feature", "geometry": {"type": "Polygon", "coordinates": [[[51.0, 43.949999999999996], [51.0, 44.15], [51.161054421809425, 44.091210546821124], [51.03221088436189, 43.938242109364225], [51.0, 43.949999999999996]]]}, "properties": {"zone_id": 1, "sector_deg": 0, "frequency": 0.18, "risk_level": "high", "distance_km": 24.0}}, {"type": "Feature", "geometry": {"type": "Polygon", "coordinates": [[[51.03535533905933, 43.93535533905933], [51.17677669529664, 44.07677669529664], [51.249088948093124, 43.92132360049008], [51.04981778961862, 43.90426472009801], [51.03535533905933, 43.93535533905933]]]}, "properties": {"zone_id": 2, "sector_deg": 45, "frequency": 0.11, "risk_level": "medium", "distance_km": 24.0}}, {"type": "Feature", "geometry": {"type": "Polygon", "coordinates": [[[51.05, 43.9], [51.25, 43.9], [51.191210546821125, 43.738945578190574], [51.03824210936423, 43.86778911563811], [51.05, 43.9]]]}, "properties": {"zone_id": 3, "sector_deg": 90, "frequency": 0.09, "risk_level": "low", "distance_km": 24.0}}, {"type": "Feature", "geometry": {"type": "Polygon", "coordinates": [[[51.03535533905933, 43.86464466094067], [51.17677669529664, 43.72322330470336], [51.021323600490085, 43.650911051906874], [51.004264720098014, 43.85018221038138], [51.03535533905933, 43.86464466094067]]]}, "properties": {"zone_id": 4, "sector_deg": 135, "frequency": 0.17, "risk_level": "medium", "distance_km": 24.0}}, {"type": "Feature", "geometry": {"type": "Polygon", "coordinates": [[[51.0, 43.85], [51.0, 43.65], [50.838945578190575, 43.70878945317887], [50.96778911563811, 43.86175789063577], [51.0, 43.85]]]}, "properties": {"zone_id": 5, "sector_deg": 180, "frequency": 0.18, "risk_level": "high", "distance_km": 24.0}}, {"type": "Feature", "geometry": {"type": "Polygon", "coordinates": [[[50.96464466094067, 43.86464466094067], [50.82322330470336, 43.72322330470336], [50.750911051906876, 43.878676399509914], [50.95018221038138, 43.895735279901984], [50.96464466094067, 43.86464466094067]]]}, "properties": {"zone_id": 6, "sector_deg": 225, "frequency": 0.21, "risk_level": "high", "distance_km": 24.0}}, {"type": "Feature", "geometry": {"type": "Polygon", "coordinates": [[[50.95, 43.9], [50.75, 43.9], [50.808789453178875, 44.06105442180942], [50.96175789063577, 43.932210884361886], [50.95, 43.9]]]}, "properties": {"zone_id": 7, "sector_deg": 270, "frequency": 0.08, "risk_level": "low", "distance_km": 24.0}}, {"type": "Feature", "geometry": {"type": "Polygon", "coordinates": [[[50.96464466094067, 43.93535533905933], [50.82322330470336, 44.07677669529664], [50.978676399509915, 44.14908894809312], [50.995735279901986, 43.94981778961862], [50.96464466094067, 43.93535533905933]]]}, "properties": {"zone_id": 8, "sector_deg": 315, "frequency": 0.2, "risk_level": "high", "distance_km": 24.0}}]}