{"type": "FeatureCollection", "features": [{"type": "Feature", "geometry": {"type": "Polygon", "coordinates": [[[51.07613, 42.71817], [51.09522, 42.74324], [51.11433, 42.76821], [51.13343, 42.79291], [51.15248, 42.81719], [51.17146, 42.84091], [51.19036, 42.86392], [51.20913, 42.88609], [51.22776, 42.9073], [51.24624, 42.92744], [51.26454, 42.94643], [51.28264, 42.96416], [51.30054, 42.98059], [51.31822, 42.99566], [51.33567, 43.00932], [51.35287, 43.02156], [51.36981, 43.03235], [51.38647, 43.0417], [51.40282, 43.04962], [51.41884, 43.05613], [51.43445, 43.06128], [51.44961, 43.06513], [51.46423, 43.06775], [51.47822, 43.06927], [51.4915, 43.06983], [51.50399, 43.06958], [51.51559, 43.06871], [51.52623, 43.06741], [51.53584, 43.06591], [51.5443, 43.06439], [51.55149, 43.06307], [51.55721, 43.06212], [51.56111, 43.06166], [51.56268, 43.0616], [51.56131, 43.06136], [51.55709, 43.05963], [51.55223, 43.05561], [51.54953, 43.05135], [51.54894, 43.04956], [51.54903, 43.05096], [51.5489, 43.05517], [51.54813, 43.06174], [51.5466, 43.07037], [51.54427, 43.08085], [51.54112, 43.09305], [51.53716, 43.10687], [51.5324, 43.12222], [51.52685, 43.13901], [51.52052, 43.15715], [51.51342, 43.17653], [51.50557, 43.19705], [51.49697, 43.21857], [51.48764, 43.24097], [51.4776, 43.26411], [51.46686, 43.28783], [51.45544, 43.31198], [51.44336, 43.3364], [51.43063, 43.36092], [51.41728, 43.38538], [51.40334, 43.40961], [51.38883, 43.43345], [51.37377, 43.45674], [51.35819, 43.47933], [51.34213, 43.50108], [51.32561, 43.52186], [51.30868, 43.54155], [51.29136, 43.56005], [51.27368, 43.57728], [51.25569, 43.59318], [51.2374, 43.60769], [51.21884, 43.6208], [51.20003, 43.6325], [51.18098, 43.6428], [51.16168, 43.65174], [51.14212, 43.65936], [51.12231, 43.66571], [51.10222, 43.67086], [51.08184, 43.67487], [51.06117, 43.67782], [51.04021, 43.6798], [51.01896, 43.68092], [50.99743, 43.68126], [50.97566, 43.68097], [50.95365, 43.68017], [50.93144, 43.679], [50.90905, 43.67762], [50.88652, 43.67617], [50.86386, 43.67483], [50.84111, 43.67376], [50.81829, 43.67313], [50.79544, 43.67309], [50.77259, 43.67382], [50.74978, 43.67548], [50.72705, 43.67821], [50.70445, 43.68215], [50.68205, 43.68742], [50.65992, 43.69412], [50.63813, 43.70233], [50.61676, 43.71209], [50.59588, 43.72341], [50.57556, 43.73631], [50.55584, 43.75073], [50.53677, 43.76663], [50.51838, 43.78396], [50.50068, 43.80262], [50.48368, 43.82254], [50.46741, 43.84362], [50.45185, 43.86574], [50.43701, 43.8888], [50.42291, 43.91266], [50.40954, 43.93719], [50.3969, 43.96225], [50.38501, 43.9877], [50.37387, 44.01339], [50.36348, 44.03915], [50.35386, 44.06484], [50.34499, 44.09031], [50.3369, 44.11539], [50.32958, 44.13996], [50.32304, 44.16387], [50.31729, 44.187], [50.31232, 44.20923], [50.30814, 44.23047], [50.30476, 44.25063], [50.30217, 44.26967], [50.3004, 44.28754], [50.29945, 44.30425], [50.29936, 44.31982], [50.30018, 44.33435], [50.30203, 44.34793], [50.30507, 44.36069], [50.3096, 44.37272], [50.31596, 44.38391], [50.32435, 44.39383], [50.33453, 44.4018], [50.34574, 44.4074], [50.35716, 44.41074], [50.36836, 44.41233], [50.37926, 44.41269], [50.38997, 44.41223], [50.40064, 44.41124], [50.41137, 44.40995], [50.42227, 44.40853], [50.43338, 44.40714], [50.44474, 44.40591], [50.45638, 44.40499], [50.46832, 44.4045], [50.48058, 44.40455], [50.49318, 44.40527], [50.50614, 44.40676], [50.51951, 44.40913], [50.5333, 44.41249], [50.54755, 44.41695], [50.56227, 44.42261], [50.57746, 44.42955], [50.59313, 44.43785], [50.60926, 44.44758], [50.62582, 44.45877], [50.64278, 44.47144], [50.66011, 44.48558], [50.67776, 44.50117], [50.6957, 44.51816], [50.71388, 44.53648], [50.73227, 44.55605], [50.75082, 44.57677], [50.76949, 44.59852], [50.78826, 44.62118], [50.80707, 44.6446], [50.82591, 44.66865], [50.84472, 44.69316], [50.86349, 44.71799], [50.88218, 44.74296], [50.90075, 44.76792], [50.91918, 44.7927], [50.93745, 44.81716], [50.95551, 44.84112], [50.97336, 44.86446], [50.99096, 44.88704], [51.00829, 44.90872], [51.02533, 44.92939], [51.04206, 44.94896], [51.05847, 44.96734], [51.07454, 44.98445], [51.09027, 45.00024], [51.10564, 45.01467], [51.12066, 45.02771], [51.13532, 45.03934], [51.14962, 45.04958], [51.16356, 45.05842], [51.17715, 45.06589], [51.19036, 45.07201], [51.20317, 45.07681], [51.21554, 45.08035], [51.22739, 45.08267], [51.23863, 45.08388], [51.24916, 45.08409], [51.25887, 45.08346], [51.26764, 45.0822], [51.27537, 45.08051], [51.28196, 45.07866], [51.27308, 45.05], [51.26803, 45.05142], [51.26223, 45.05269], [51.25571, 45.05363], [51.24846, 45.0541], [51.24051, 45.05394], [51.23187, 45.05301], [51.22255, 45.05118], [51.21257, 45.04833], [51.20195, 45.04434], [51.19071, 45.03913], [51.17885, 45.03261], [51.16641, 45.02472], [51.1534, 45.0154], [51.13984, 45.00464], [51.12576, 44.99241], [51.11118, 44.97873], [51.09612, 44.9636], [51.0806, 44.94709], [51.06466, 44.92923], [51.04831, 44.91012], [51.03159, 44.88982], [51.01451, 44.86846], [50.99711, 44.84614], [50.97942, 44.82299], [50.96145, 44.79916], [50.94324, 44.77478], [50.92483, 44.75002], [50.90623, 44.72503], [50.88747, 44.69997], [50.86859, 44.67499], [50.84962, 44.65028], [50.83059, 44.62597], [50.81151, 44.60223], [50.79244, 44.57919], [50.77338, 44.557], [50.75439, 44.53578], [50.73547, 44.51565], [50.71668, 44.49671], [50.69802, 44.47904], [50.67954, 44.46272], [50.66126, 44.4478], [50.64321, 44.43432], [50.62542, 44.4223], [50.60792, 44.41175], [50.59073, 44.40264], [50.57389, 44.39495], [50.55741, 44.38862], [50.54133, 44.38359], [50.52567, 44.37977], [50.51046, 44.37707], [50.49571, 44.37538], [50.48146, 44.37457], [50.46773, 44.37451], [50.45453, 44.37505], [50.4419, 44.37605], [50.42985, 44.37734], [50.41839, 44.37878], [50.40756, 44.38019], [50.39737, 44.38142], [50.38783, 44.3823], [50.37896, 44.38269], [50.37078, 44.38243], [50.3633, 44.38138], [50.35653, 44.37941], [50.35049, 44.3764], [50.34519, 44.37225], [50.34063, 44.36685], [50.33683, 44.36014], [50.3338, 44.35205], [50.33154, 44.34253], [50.33005, 44.33155], [50.32935, 44.31912], [50.32943, 44.30522], [50.3303, 44.2899], [50.33197, 44.27319], [50.33441, 44.25515], [50.33765, 44.23586], [50.34168, 44.21541], [50.34648, 44.1939], [50.35207, 44.17145], [50.35843, 44.1482], [50.36555, 44.12428], [50.37344, 44.09984], [50.38207, 44.07503], [50.39145, 44.05002], [50.40155, 44.02496], [50.41237, 44.00002], [50.4239, 43.97535], [50.43611, 43.95111], [50.449, 43.92746], [50.46255, 43.90454], [50.47675, 43.88248], [50.49156, 43.86141], [50.50698, 43.84144], [50.52299, 43.82268], [50.53957, 43.8052], [50.55669, 43.78907], [50.57433, 43.77436], [50.59247, 43.76109], [50.61108, 43.74928], [50.63015, 43.73893], [50.64965, 43.73003], [50.66955, 43.72253], [50.68982, 43.71639], [50.71044, 43.71154], [50.73138, 43.70789], [50.75262, 43.70534], [50.77412, 43.70378], [50.79587, 43.70309], [50.81782, 43.70312], [50.83995, 43.70374], [50.86223, 43.70479], [50.88464, 43.70612], [50.90713, 43.70756], [50.92969, 43.70895], [50.95228, 43.71014], [50.97488, 43.71096], [50.99744, 43.71126], [51.01995, 43.7109], [51.04237, 43.70973], [51.06468, 43.70762], [51.08684, 43.70445], [51.10882, 43.70012], [51.1306, 43.69455], [51.15215, 43.68764], [51.17343, 43.67935], [51.19442, 43.66962], [51.2151, 43.65844], [51.23543, 43.64579], [51.2554, 43.63169], [51.27496, 43.61617], [51.2941, 43.59926], [51.3128, 43.58104], [51.33102, 43.56158], [51.34874, 43.54097], [51.36595, 43.51932], [51.38262, 43.49675], [51.39872, 43.47339], [51.41424, 43.44939], [51.42916, 43.42489], [51.44346, 43.40004], [51.45712, 43.37501], [51.47012, 43.34996], [51.48245, 43.32504], [51.49409, 43.30043], [51.50503, 43.27626], [51.51525, 43.25271], [51.52475, 43.2299], [51.53351, 43.20798], [51.54152, 43.18706], [51.54877, 43.16726], [51.55526, 43.14867], [51.56097, 43.13138], [51.56591, 43.11546], [51.57006, 43.10095], [51.57343, 43.08788], [51.57601, 43.07628], [51.57781, 43.06614], [51.57881, 43.05744], [51.57902, 43.05015], [51.57845, 43.04419], [51.5771, 43.03952], [51.57496, 43.03603], [51.57206, 43.03363], [51.56839, 43.0322], [51.56396, 43.03162], [51.55878, 43.03175], [51.55286, 43.03244], [51.54621, 43.03354], [51.53885, 43.03489], [51.53079, 43.03633], [51.52203, 43.03771], [51.5126, 43.03886], [51.50252, 43.03961], [51.49179, 43.03983], [51.48044, 43.03936], [51.46848, 43.03806], [51.45594, 43.0358], [51.44284, 43.03248], [51.4292, 43.02798], [51.41503, 43.02221], [51.40037, 43.01511], [51.38523, 43.00662], [51.36964, 42.99668], [51.35363, 42.98529], [51.33722, 42.97244], [51.32043, 42.95813], [51.3033, 42.94241], [51.28585, 42.92531], [51.26811, 42.9069], [51.2501, 42.88727], [51.23186, 42.86651], [51.21341, 42.84472], [51.19478, 42.82203], [51.176, 42.79857], [51.15711, 42.77449], [51.13812, 42.74992], [51.11907, 42.72504], [51.1, 42.7], [51.07613, 42.71817]]]}, "properties": {"area_km2": 84.6, "period": "2000-2026"}}]}