{"type": "FeatureCollection", "features": [{"type": "Feature", "geometry": {"type": "Point", "coordinates": [51.185, 43.638]}, "properties": {"object_id": 1, "name_ru": "Водозаборный канал МАЭК", "name_kk": "МАЭК су қабылдау арнасы", "name_en": "MAEK Water Intake Channel", "category": "water_supply", "criticality": 10, "nearest_transect_id": 159, "distance_to_shore_2000_m": 361.6, "distance_to_shore_2010_m": 428.5, "distance_to_shore_2020_m": 495.4, "distance_to_shore_2026_m": 535.6, "speed_m_per_year": -8.51, "risk_score": 63, "risk_level": "medium", "risk_components": {"speed": {"raw": -8.51, "normalized": 17, "weight": 0.3}, "distance": {"raw": 535.6, "normalized": 54, "weight": 0.25}, "criticality": {"raw": 10, "normalized": 100, "weight": 0.25}, "years_to_threshold": {"raw": 0, "normalized": 100, "weight": 0.2}}, "forecast": {"optimistic": {"2030": 561.0, "2035": 593.0, "2040": 625.0}, "baseline": {"2030": 570.0, "2035": 612.0, "2040": 655.0}, "pessimistic": {"2030": 581.0, "2035": 644.0, "2040": 716.0}}, "description_ru": "Обеспечивает забор морской воды для опреснения. Питьевая вода Актау.", "description_kk": "Тұщыландыруға теңіз суын алуды қамтамасыз етеді.", "description_en": "Supplies seawater for desalination — Aktau's drinking water.", "recommendation_ru": "Требуется план поэтапного удлинения канала. Дноуглубление даёт временный эффект.", "recommendation_en": "Phased channel extension plan required; dredging is a temporary measure.", "source": "mock — заменяется реальными данными после расчёта на снимках"}}, {"type": "Feature", "geometry": {"type": "Point", "coordinates": [51.19, 43.645]}, "properties": {"object_id": 2, "name_ru": "Энергоблоки МАЭК", "name_kk": "МАЭК энергоблоктары", "name_en": "MAEK Power Units", "category": "energy", "criticality": 9, "nearest_transect_id": 159, "distance_to_shore_2000_m": 472.8, "distance_to_shore_2010_m": 563.7, "distance_to_shore_2020_m": 654.6, "distance_to_shore_2026_m": 709.1, "speed_m_per_year": -8.51, "risk_score": 65, "risk_level": "medium", "risk_components": {"speed": {"raw": -8.51, "normalized": 17, "weight": 0.3}, "distance": {"raw": 709.1, "normalized": 71, "weight": 0.25}, "criticality": {"raw": 9, "normalized": 90, "weight": 0.25}, "years_to_threshold": {"raw": 0, "normalized": 100, "weight": 0.2}}, "forecast": {"optimistic": {"2030": 735.0, "2035": 767.0, "2040": 798.0}, "baseline": {"2030": 743.0, "2035": 786.0, "2040": 828.0}, "pessimistic": {"2030": 754.0, "2035": 818.0, "2040": 889.0}}, "description_ru": "Тепловая и электрическая генерация, зависит от водозабора.", "description_kk": "Су қабылдауға тәуелді жылу және электр генерациясы.", "description_en": "Thermal and electric generation, dependent on the water intake.", "recommendation_ru": "Мониторинг совместно с водозаборным каналом.", "recommendation_en": "Monitor jointly with the intake channel.", "source": "mock — заменяется реальными данными после расчёта на снимках"}}, {"type": "Feature", "geometry": {"type": "Point", "coordinates": [51.152, 43.65]}, "properties": {"object_id": 3, "name_ru": "Порт Актау", "name_kk": "Ақтау порты", "name_en": "Port of Aktau", "category": "port", "criticality": 8, "nearest_transect_id": 163, "distance_to_shore_2000_m": 480.5, "distance_to_shore_2010_m": 712.5, "distance_to_shore_2020_m": 944.5, "distance_to_shore_2026_m": 1083.7, "speed_m_per_year": -28.39, "risk_score": 82, "risk_level": "high", "risk_components": {"speed": {"raw": -28.39, "normalized": 57, "weight": 0.3}, "distance": {"raw": 1083.7, "normalized": 100, "weight": 0.25}, "criticality": {"raw": 8, "normalized": 80, "weight": 0.25}, "years_to_threshold": {"raw": 0, "normalized": 100, "weight": 0.2}}, "forecast": {"optimistic": {"2030": 1169.0, "2035": 1275.0, "2040": 1382.0}, "baseline": {"2030": 1197.0, "2035": 1339.0, "2040": 1481.0}, "pessimistic": {"2030": 1234.0, "2035": 1446.0, "2040": 1685.0}}, "description_ru": "Основной морской порт региона, грузовые и паромные перевозки.", "description_kk": "Аймақтың негізгі теңіз порты.", "description_en": "The region's main seaport, cargo and ferry traffic.", "recommendation_ru": "Периодический промер глубин на подходных каналах.", "recommendation_en": "Periodic depth surveys on approach channels.", "source": "mock — заменяется реальными данными после расчёта на снимках"}}, {"type": "Feature", "geometry": {"type": "Point", "coordinates": [50.305, 44.548]}, "properties": {"object_id": 4, "name_ru": "Порт Баутино", "name_kk": "Баутино порты", "name_en": "Port of Bautino", "category": "port", "criticality": 8, "nearest_transect_id": 308, "distance_to_shore_2000_m": 392.4, "distance_to_shore_2010_m": 566.6, "distance_to_shore_2020_m": 740.7, "distance_to_shore_2026_m": 845.2, "speed_m_per_year": -18.04, "risk_score": 72, "risk_level": "high", "risk_components": {"speed": {"raw": -18.04, "normalized": 36, "weight": 0.3}, "distance": {"raw": 845.2, "normalized": 85, "weight": 0.25}, "criticality": {"raw": 8, "normalized": 80, "weight": 0.25}, "years_to_threshold": {"raw": 0, "normalized": 100, "weight": 0.2}}, "forecast": {"optimistic": {"2030": 899.0, "2035": 967.0, "2040": 1035.0}, "baseline": {"2030": 917.0, "2035": 1008.0, "2040": 1098.0}, "pessimistic": {"2030": 941.0, "2035": 1076.0, "2040": 1227.0}}, "description_ru": "Вспомогательный порт на полуострове Тюб-Караган.", "description_kk": "Түпқараған түбегіндегі қосалқы порт.", "description_en": "Auxiliary port on the Tyub-Karagan peninsula.", "recommendation_ru": "Отслеживать обмеление подходного канала.", "recommendation_en": "Track shoaling of the approach channel.", "source": "mock — заменяется реальными данными после расчёта на снимках"}}, {"type": "Feature", "geometry": {"type": "Point", "coordinates": [51.235, 43.633]}, "properties": {"object_id": 5, "name_ru": "Набережная Актау", "name_kk": "Ақтау жағалауы", "name_en": "Aktau Waterfront", "category": "recreation", "criticality": 3, "nearest_transect_id": 154, "distance_to_shore_2000_m": 133.5, "distance_to_shore_2010_m": 438.4, "distance_to_shore_2020_m": 743.2, "distance_to_shore_2026_m": 926.1, "speed_m_per_year": -37.81, "risk_score": 73, "risk_level": "high", "risk_components": {"speed": {"raw": -37.81, "normalized": 76, "weight": 0.3}, "distance": {"raw": 926.1, "normalized": 93, "weight": 0.25}, "criticality": {"raw": 3, "normalized": 30, "weight": 0.25}, "years_to_threshold": {"raw": 0, "normalized": 100, "weight": 0.2}}, "forecast": {"optimistic": {"2030": 1040.0, "2035": 1181.0, "2040": 1323.0}, "baseline": {"2030": 1077.0, "2035": 1266.0, "2040": 1455.0}, "pessimistic": {"2030": 1126.0, "2035": 1409.0, "2040": 1727.0}}, "description_ru": "Городская рекреационная зона вдоль моря.", "description_kk": "Теңіз жағалауындағы қалалық демалыс аймағы.", "description_en": "Urban recreational zone along the sea.", "recommendation_ru": "Учитывать отступление берега при благоустройстве.", "recommendation_en": "Account for shoreline retreat in landscaping plans.", "source": "mock — заменяется реальными данными после расчёта на снимках"}}, {"type": "Feature", "geometry": {"type": "Point", "coordinates": [51.24, 43.628]}, "properties": {"object_id": 6, "name_ru": "Городской пляж", "name_kk": "Қалалық жағажай", "name_en": "City Beach", "category": "recreation", "criticality": 3, "nearest_transect_id": 154, "distance_to_shore_2000_m": 198.6, "distance_to_shore_2010_m": 519.3, "distance_to_shore_2020_m": 840.1, "distance_to_shore_2026_m": 1032.5, "speed_m_per_year": -37.81, "risk_score": 75, "risk_level": "high", "risk_components": {"speed": {"raw": -37.81, "normalized": 76, "weight": 0.3}, "distance": {"raw": 1032.5, "normalized": 100, "weight": 0.25}, "criticality": {"raw": 3, "normalized": 30, "weight": 0.25}, "years_to_threshold": {"raw": 0, "normalized": 100, "weight": 0.2}}, "forecast": {"optimistic": {"2030": 1146.0, "2035": 1288.0, "2040": 1430.0}, "baseline": {"2030": 1184.0, "2035": 1373.0, "2040": 1562.0}, "pessimistic": {"2030": 1233.0, "2035": 1515.0, "2040": 1833.0}}, "description_ru": "Основной пляж города, сезонная нагрузка.", "description_kk": "Қаланың негізгі жағажайы.", "description_en": "The city's main beach, seasonal use.", "recommendation_ru": "Мониторинг ширины пляжной полосы.", "recommendation_en": "Monitor beach-strip width.", "source": "mock — заменяется реальными данными после расчёта на снимках"}}, {"type": "Feature", "geometry": {"type": "Point", "coordinates": [51.203, 43.612]}, "properties": {"object_id": 7, "name_ru": "Rixos Water World Aktau", "name_kk": "Rixos Water World Aktau", "name_en": "Rixos Water World Aktau", "category": "tourism", "criticality": 4, "nearest_transect_id": 156, "distance_to_shore_2000_m": 482.2, "distance_to_shore_2010_m": 685.1, "distance_to_shore_2020_m": 888.1, "distance_to_shore_2026_m": 1009.9, "speed_m_per_year": -19.55, "risk_score": 67, "risk_level": "high", "risk_components": {"speed": {"raw": -19.55, "normalized": 39, "weight": 0.3}, "distance": {"raw": 1009.9, "normalized": 100, "weight": 0.25}, "criticality": {"raw": 4, "normalized": 40, "weight": 0.25}, "years_to_threshold": {"raw": 0, "normalized": 100, "weight": 0.2}}, "forecast": {"optimistic": {"2030": 1069.0, "2035": 1142.0, "2040": 1215.0}, "baseline": {"2030": 1088.0, "2035": 1186.0, "2040": 1284.0}, "pessimistic": {"2030": 1114.0, "2035": 1260.0, "2040": 1424.0}}, "description_ru": "Курортный комплекс, площадка финала хакатона.", "description_kk": "Курорттық кешен, хакатон финалының алаңы.", "description_en": "Resort complex, hackathon final venue.", "recommendation_ru": "Долгосрочное планирование береговой инфраструктуры курорта.", "recommendation_en": "Long-term planning for the resort's shore infrastructure.", "source": "mock — заменяется реальными данными после расчёта на снимках"}}, {"type": "Feature", "geometry": {"type": "Point", "coordinates": [51.198, 43.601]}, "properties": {"object_id": 8, "name_ru": "Прибрежная автодорога", "name_kk": "Жағалаудағы автожол", "name_en": "Coastal Highway", "category": "transport", "criticality": 5, "nearest_transect_id": 156, "distance_to_shore_2000_m": 231.5, "distance_to_shore_2010_m": 409.8, "distance_to_shore_2020_m": 588.1, "distance_to_shore_2026_m": 695.1, "speed_m_per_year": -19.55, "risk_score": 62, "risk_level": "medium", "risk_components": {"speed": {"raw": -19.55, "normalized": 39, "weight": 0.3}, "distance": {"raw": 695.1, "normalized": 70, "weight": 0.25}, "criticality": {"raw": 5, "normalized": 50, "weight": 0.25}, "years_to_threshold": {"raw": 0, "normalized": 100, "weight": 0.2}}, "forecast": {"optimistic": {"2030": 754.0, "2035": 827.0, "2040": 900.0}, "baseline": {"2030": 773.0, "2035": 871.0, "2040": 969.0}, "pessimistic": {"2030": 799.0, "2035": 945.0, "2040": 1109.0}}, "description_ru": "Участок дороги, идущий вдоль береговой линии.", "description_kk": "Жағалау бойымен өтетін жол учаскесі.", "description_en": "Road segment running along the shoreline.", "recommendation_ru": "Оценить риск подмыва полотна на участках высокой скорости отступления.", "recommendation_en": "Assess embankment-erosion risk on high-retreat segments.", "source": "mock — заменяется реальными данными после расчёта на снимках"}}]}