{"type": "FeatureCollection", "crs": {"type": "name", "properties": {"name": "EPSG:4326"}}, "features": [{"type": "Feature", "geometry": {"type": "LineString", "coordinates": [[50.53115954011366, 44.29258050979011], [50.536982677917365, 44.2914932692282], [50.54409356421489, 44.29230443250134], [50.55045181206295, 44.29200560263058], [50.55672652147823, 44.2915834091416], [50.562875910381806, 44.29097636312023], [50.56898012877452, 44.29030262989469], [50.57465291781997, 44.288993358272144], [50.581023304553675, 44.28871143585455], [50.58746892570957, 44.28854000832749], [50.61225954578257, 44.285597035779176], [50.618387881940826, 44.28433504926676], [50.624490875073874, 44.2828809138286], [50.630548292124125, 44.2810804619062], [50.63668293367686, 44.27987216699733], [50.873435252530065, 44.06578834223635], [50.87404637395867, 44.06169246223907], [50.87069451808148, 44.05635452024872], [50.869481898528385, 44.05168692855981], [50.86966841882395, 44.04745790771401], [50.8685373345234, 44.042815781079376], [50.868350742141, 44.038469749243376], [50.86808749168989, 44.034099666287275], [50.87027116632307, 44.03049692750221], [50.872760187630625, 44.027856190732884], [50.870343955609414, 44.03034822554046], [50.872186569051806, 44.02858095026898], [50.873123740800594, 44.02662231125929], [50.87311962669595, 44.02446473795722], [50.87624250322613, 44.02220740803678], [50.88164646059864, 44.01893685610029], [50.91029983914084, 44.011750915461384], [50.919744459634224, 44.009331857123726], [50.942089618267104, 43.99412789235477], [50.94591992081464, 43.99059673397009], [50.94912097693005, 43.98663743037042], [50.951832567618666, 43.98234514511379], [50.95573048883663, 43.97886058807447], [50.95986566185713, 43.97553769248024], [50.96382799152747, 43.97209731785841], [50.967843392161306, 43.968693235020346], [50.971562570851795, 43.96508771994065], [50.96807311976149, 43.96838540744068], [50.97202106624367, 43.96485425556136], [50.97610158183665, 43.96137429035649], [50.979463687524806, 43.95761721349334], [50.98204480770219, 43.953558913065336], [50.985409396241906, 43.94980292832319], [50.98811948820327, 43.94579452726642], [50.991360142345336, 43.941990867104266], [50.99344734859871, 43.93774233092708], [50.995050221069285, 43.933315846872866], [50.99217103349407, 43.94035109846672], [50.99420236278673, 43.936050247076466], [50.99537303397053, 43.93164094297652], [50.996258810317585, 43.927195744903216], [50.997099049826566, 43.92274481475885], [50.9980164694591, 43.918303616785686], [50.998266275633185, 43.913778291597005], [50.99880804291551, 43.90928976305196], [50.99922744713223, 43.9047843658688], [51.00026188848379, 43.900350918635496], [51.00379344853691, 43.88921406394027], [51.00518815405941, 43.88482854316516], [51.00623670578797, 43.880346173786734], [51.00743948953575, 43.87590700529351], [51.008494680603064, 43.871426557696026], [51.00998380111751, 43.86706760704203], [51.011845253935185, 43.86281291842033], [51.012869710995886, 43.85832397348045], [51.01419108456721, 43.85391817767643], [51.017877193800835, 43.834715855429984], [51.02040002328336, 43.83105047886051], [51.02297027293355, 43.82734075279278], [51.02398790569872, 43.822241265623425], [51.025245150204974, 43.817293368203245], [51.03877114029241, 43.791267167528325], [51.041816983605685, 43.787452344184835], [51.04491945239934, 43.78367363748643], [51.049205693237326, 43.780646702220665], [51.052609222651796, 43.77705945414827], [51.05583851248148, 43.77336173830247], [51.06014496143033, 43.77034803522564], [51.06401827202442, 43.767059475483045], [51.06769209899229, 43.76364441828884], [51.070637513435955, 43.759767111153316], [51.04843188156386, 43.78101013265101], [51.0526013832022, 43.776913731053035], [51.05681628466752, 43.77281665788085], [51.061657981468606, 43.7687123476837], [51.06720833053958, 43.76459979152985], [51.07005501014032, 43.760517703851896], [51.07195112594597, 43.756446358247885], [51.07499581342572, 43.75236188072601], [51.076784534746274, 43.748291667749044], [51.1491230125268, 43.70712897804833], [51.16387828730708, 43.71482380697386], [51.19052686693562, 43.72871873117838], [51.180927392584415, 43.71016034293119], [51.18307671062963, 43.70920910604208], [51.16471744664233, 43.71406836321935], [51.16379762594294, 43.71386591277764], [51.2302621902784, 43.684422064526395], [51.22811744546649, 43.676497355843736], [51.23042356267089, 43.67491266301592], [51.19724803477382, 43.625964970513465], [51.21137898839584, 43.61810961243986], [51.21209544820269, 43.61778360178518], [51.212776219995305, 43.61743525435377], [51.213228818373864, 43.616944094868856], [51.213591270529456, 43.616396515816085], [51.24216398385045, 43.63349703746239], [51.24268880291101, 43.63305099644667], [51.2430520228704, 43.63250391337693], [51.21859203126783, 43.612906609928416], [51.237703769114624, 43.618988328311], [51.214710848086774, 43.61578139074186], [51.21892592381968, 43.612508612117374], [51.23882702013819, 43.60907871316503], [51.213851218427855, 43.59732347974203], [51.21499748642391, 43.593407723506736], [51.23380920180004, 43.59463889261657], [51.229153315064494, 43.594654751010985], [51.28235809138748, 43.590505776211835], [51.25138162700404, 43.58452843264549], [51.30201417820908, 43.58407521371501], [51.28565395523123, 43.57909188526664], [51.2953491770939, 43.56811018312561], [51.308472244080654, 43.56511659800265], [51.325894320300684, 43.530904348975106], [51.326883371068945, 43.53147562103231], [51.327466436380284, 43.52855222094125], [51.32828700469199, 43.52767357627256], [51.329175418087125, 43.52737901388904], [51.32948539879198, 43.522106686105325], [51.330729276436706, 43.524871621663564], [51.33227386322068, 43.53022231211507], [51.331921030823416, 43.51924997391932], [51.334925757328314, 43.515399031297605], [51.33106641410846, 43.52156146782555], [51.33153266995899, 43.520763572584684], [51.33160931039906, 43.5198931868603], [51.33348881496011, 43.5181885147102], [51.33567079551462, 43.514043659757945], [51.338393049344525, 43.509999323441114], [51.334680128463944, 43.50475774571345], [51.340241113218035, 43.50124164321872], [51.34052023350567, 43.49674284090557], [51.345107677913525, 43.48952634240784], [51.34385642306455, 43.484388600034464], [51.34381619616707, 43.47975501509462], [51.34554164715923, 43.4758566621867], [51.350251818674586, 43.47320114827717], [51.35617231802226, 43.47104948717415], [51.31477444468273, 43.449185153749724], [51.31431387942054, 43.44437531068027], [51.31510392723794, 43.44008694400504], [51.316095484478176, 43.43588264764391], [51.317220912813895, 43.42303743845261], [51.3168363967498, 43.418131998283584], [51.316402560981885, 43.41319661423235], [51.581519509914884, 43.18777788425995], [51.58403740538036, 43.18340915110843], [51.59529718304611, 43.18478666943169], [51.60713247649243, 43.186540867468665], [51.6175224297191, 43.18734408963911], [51.665351705473064, 43.16685638036615], [51.66540882016532, 43.163354090179034], [51.66573277443662, 43.15974254457829], [51.66701002430532, 43.15656989634042], [51.66873830872862, 43.15381055355175], [51.668964709187875, 43.15105741365965], [51.66947667384922, 43.146811859593996], [51.66935440025018, 43.1421568122387], [51.67181120329156, 43.138269067462396], [51.67123086669555, 43.13347777582376], [51.670431940012605, 43.128621404408555], [51.671762890873, 43.12439879746776], [51.671009653337116, 43.12002689631208], [51.663693955817365, 43.113308724218165], [51.6608841060178, 43.103271346172015], [51.6655846036471, 43.10000904566906], [51.66942545560624, 43.09667292951973], [51.673363750933646, 43.09350534920807], [51.678101104025004, 43.09056755060836], [51.68241941069646, 43.08750919003248], [51.68741891077377, 43.08464664972602], [51.69246239032765, 43.083082882534654], [51.696928839589894, 43.080070451055335], [51.70162262034013, 43.07711775325692], [51.7062465801894, 43.07414662182615], [51.71405641270577, 43.07201308504417], [51.718271274645986, 43.06893417062845], [51.723429079054554, 43.0661030673436], [51.727930923221464, 43.06309946463901], [51.73271786429776, 43.060170720702494], [51.73740608981252, 43.057215961066596], [51.76142662638054, 43.03841558843672], [51.76530470990803, 43.03473830328245], [51.76808585031826, 43.03031177800618], [51.77121175806554, 43.02648085287388], [51.77365424059083, 43.02199133342486], [51.776931002952466, 43.01830642919022], [51.77894244220108, 43.013401923260425], [51.782283093833335, 43.00977920355322], [51.78564787934401, 43.006180030894015], [51.79332110628325, 42.987392565478075], [51.7971687902337, 42.983478733422565], [51.801563408012555, 42.98009869998818], [51.802966656928625, 42.97630208590954], [51.80380253828012, 42.97200622398205], [51.804120530178544, 42.96697434607144], [51.81170763573279, 42.95351413970991], [51.83640923655184, 42.91777421987422], [51.84109219033178, 42.91480632443796], [52.010109995661146, 42.85692069882073], [52.02038173602612, 42.859184003100246], [52.031529407196125, 42.86222028132818], [52.042863723138694, 42.86541949801812], [52.03020367972039, 42.86181946314625], [52.05231396756587, 42.86745033428528], [52.07034613239493, 42.87133887236727], [52.24915547422402, 42.754894066084], [52.251465143195084, 42.74552861190346], [52.24445251752636, 42.73746143858503], [52.2536293349627, 42.73610310085077]]}, "properties": {"year": 2010, "data_quality": "good", "length_km": 302.8, "spatial_outliers_removed": 12}}]}