{"type": "FeatureCollection", "crs": {"type": "name", "properties": {"name": "EPSG:4326"}}, "features": [{"type": "Feature", "geometry": {"type": "LineString", "coordinates": [[50.241300848502924, 44.48597622043181], [50.24178833109719, 44.47772311068328], [50.242131041694506, 44.46929486017034], [50.243288780200636, 44.461853805364754], [50.24429522544312, 44.454229854957084], [50.24424015100798, 44.445320357069335], [50.32103224631837, 44.52125552114432], [50.32730934033994, 44.52102508436791], [50.241568343211064, 44.486458925371934], [50.241799330325975, 44.48113754198394], [50.241678572822764, 44.4756453421554], [50.242016658001745, 44.47037599982838], [50.24331491553338, 44.465573087456804], [50.24339167740155, 44.46017688887521], [50.24443578013624, 44.455250648987345], [50.244300234956185, 44.449751351155946], [50.24465350365775, 44.44448955459988], [50.246273319936385, 44.43984323357365], [50.32305864968599, 44.329592729217886], [50.33116926472642, 44.32764767652662], [50.33566687821659, 44.324287840882384], [50.340999620421954, 44.32125495060262], [50.349666718688304, 44.31952708384489], [50.35758130272278, 44.3175042981613], [50.364381085257605, 44.31504502683115], [50.37266563031171, 44.313166356687205], [50.379164798498, 44.31058904875335], [50.383347887693816, 44.30710586504784], [50.43542565242668, 44.297515660646255], [50.4445776329942, 44.297716149052356], [50.452628866406506, 44.297159963841146], [50.46109856766282, 44.29689062637272], [50.469051676701525, 44.29626609410536], [50.4775973114197, 44.296047784315604], [50.48508972723766, 44.29510616641692], [50.49325870728041, 44.29470794282456], [50.49949147688358, 44.29422456499728], [50.531233634327414, 44.292689777958394], [50.5368943027608, 44.2913629611878], [50.544069407321686, 44.29226882186207], [50.55048256199157, 44.29205092356549], [50.55674684144342, 44.29161335223034], [50.56289183913271, 44.29099983118225], [50.568924645016885, 44.29022089920543], [50.57464138019386, 44.28897636532835], [50.58097110249969, 44.28863456587989], [50.587500801558065, 44.28858693768018], [50.6122696101462, 44.285674122890185], [50.618376755727965, 44.28424989544502], [50.624506932643214, 44.283003713815965], [50.630539846746125, 44.28101592509008], [50.63667589039898, 44.27981838666557], [50.64294103313123, 44.27960738010125], [50.649139232058964, 44.27888601984468], [50.655344576795294, 44.2782198945897], [50.661417185668725, 44.27654418106272], [50.667611542472216, 44.275796719556716], [50.67045611886143, 44.27546312599364], [50.67652205051613, 44.274208786262086], [50.68239786003054, 44.27206148579513], [50.680405833503784, 44.27343575303724], [50.6770891763699, 44.27393845001481], [50.673882940757224, 44.27496079957675], [50.67056368462699, 44.27545173677703], [50.667215633938675, 44.27580729856651], [50.6638966538257, 44.27629982163433], [50.66060823370106, 44.27693642842667], [50.64723919995133, 44.27911344398558], [50.64710360158192, 44.27911915398849], [50.64702076097946, 44.279169450100575], [50.64693792023577, 44.279219746151696], [50.873455907350554, 44.108796357217344], [50.87432503351219, 44.10388864616571], [50.87479365527128, 44.09880212268555], [50.87550642664843, 44.093824674976005], [50.90560538188182, 44.01233400323129], [50.911923774684055, 44.01218327232117], [50.918513673218506, 44.010537803089434], [50.92544831018526, 44.00699136105205], [50.93238600854826, 44.00342306996606], [50.93997401175866, 43.996262870310645], [50.94747455942609, 43.989179845774686], [50.94572208948576, 43.99095759395622], [50.94386241938435, 43.99332631169769], [50.94227670324585, 43.99418269323604], [50.873366541272446, 44.065766810378584], [50.87407385667103, 44.06170107482767], [50.87064871850346, 44.05634016456848], [50.86935710532684, 44.05164780794433], [50.86992027785233, 44.047536865964965], [50.86891738101672, 44.04293493986515], [50.86839996130018, 44.03848518261856], [50.8681069489681, 44.03410576790446], [50.870416516614675, 44.03054250733376], [50.87277506553258, 44.02786085607094], [50.87058946146981, 44.03040011492269], [50.872254830035985, 44.02859537700311], [50.873144098734386, 44.02662661380753], [50.87324895481146, 44.02449207174074], [50.876356261016745, 44.02223144854714], [50.88162131504854, 44.01893154305418], [50.886733720161885, 44.015599268010895], [50.89472991824543, 44.012875950260415], [50.910417182922956, 44.01177568020571], [50.919721709480164, 44.00932705766039], [50.94210322900772, 43.99413715759852], [50.9459943250998, 43.99064738148601], [50.94785162458327, 43.98577336179146], [50.95194870272292, 43.982424198730484], [50.956315695892464, 43.97925892325602], [50.959431074974695, 43.975241888171105], [50.96387879883012, 43.972131898558196], [50.967533109465094, 43.96848205603085], [50.97163787235493, 43.965138968434985], [50.96783781617297, 43.96829461710788], [50.97200787207498, 43.96484916498035], [50.97618954020946, 43.961408224403186], [50.97936144025881, 43.95757776806208], [50.98151820779348, 43.953355758661864], [50.985235701987655, 43.949735922398865], [50.98668604380997, 43.945241542040044], [50.98958160813979, 43.941304771688195], [50.99365069474079, 43.937820772752865], [50.99500735630782, 43.93329931103023], [50.99215016584968, 43.94034846866594], [50.99415203835308, 43.936043905499325], [50.99541353611779, 43.93164604674553], [50.99636558096837, 43.927209199445805], [50.99722790158385, 43.922761052052394], [50.99799929047472, 43.9183014519385], [50.99832762454188, 43.91378602304501], [50.998417893104666, 43.90924059208323], [50.99952310509432, 43.90482162871623], [51.00002268066184, 43.90032076978076], [51.003821313990805, 43.88922186280802], [51.005442409600754, 43.884899704533474], [51.0065513105517, 43.88043422901895], [51.00759736142054, 43.87595119385513], [51.00858173618247, 43.87145092563091], [51.00805943740194, 43.866528920917446], [51.01199032798763, 43.862853527417855], [51.012853463855535, 43.85831942540318], [51.01422009536702, 43.85392629890834], [51.01836811170136, 43.835026197602964], [51.02059394727459, 43.83117307191735], [51.021854561646165, 43.82663541671583], [51.024041299146056, 43.82227502154212], [51.025198317144834, 43.817263758216264], [51.02427501259627, 43.81093720353092], [51.027423739799495, 43.807185518194466], [51.030590802904996, 43.8034455868968], [51.0315849084387, 43.7983317991931], [51.03517730885433, 43.79486116266731], [51.03775887810771, 43.79062440766283], [51.042225433591284, 43.78771169016088], [51.044909171405706, 43.78366710958245], [51.049211301024094, 43.78065026268676], [51.05166434260435, 43.77645953939405], [51.056131972478454, 43.773548052203964], [51.06023281190534, 43.77040380752428], [51.063879956508586, 43.76697166827618], [51.06729211382793, 43.763390501576986], [51.070338468812885, 43.75957727458668], [51.04840827262299, 43.78101039632135], [51.050993600658174, 43.776931735862014], [51.056608803167386, 43.77281899044777], [51.06278103669787, 43.768699667016456], [51.066390942068466, 43.76460905421221], [51.06993949052676, 43.760519016242895], [51.07253116867629, 43.75643975670383], [51.07421461013419, 43.75237078844049], [51.076850355011665, 43.74829091590726], [51.06329971201687, 43.65738161455234], [51.075947890357305, 43.75008149014125], [51.078004303015454, 43.74569726734057], [51.08817160062453, 43.740976812857255], [51.08721047914024, 43.74076550884851], [51.08422976691879, 43.74137259599333], [51.082567253309094, 43.74144546591328], [51.08171238452487, 43.74119106758994], [51.08445329709931, 43.74146596365348], [51.077794754590364, 43.74646066045443], [51.075948374523556, 43.749505447654116]]}, "properties": {"year": 2009, "sensor": "LANDSAT/LT05/C02/T1_L2", "scale_m": 30, "n_scenes": 6, "date_window": ["2009-07-01", "2009-08-01"], "otsu_threshold": 0.0899, "data_quality": "good", "length_km": 202.2}}]}