{"type": "FeatureCollection", "crs": {"type": "name", "properties": {"name": "EPSG:4326"}}, "features": [{"type": "Feature", "geometry": {"type": "LineString", "coordinates": [[51.5889477733652, 43.192660499463216], [51.5839705831924, 43.18336522239798], [51.595803459190186, 43.185119392830316], [51.607134307782495, 43.1865420706209], [51.61756638613308, 43.187372961254894], [51.66114499321873, 43.17970647433387], [51.663743443978085, 43.17694459896646], [51.66374464390831, 43.17342599542775], [51.66611754292157, 43.17059845367148], [51.66615061308231, 43.16708917200035], [51.6655756778294, 43.163402713798746], [51.6683708420959, 43.16052720678203], [51.66894489180277, 43.15714541357684], [51.66873261150267, 43.153808858895324], [51.66906269721298, 43.151086561553825], [51.66959858102317, 43.14684812452002], [51.66979414445552, 43.14228763729645], [51.67181234246366, 43.13826940636579], [51.67277547022008, 43.13393732735483], [51.67278397044256, 43.129321247627615], [51.67351455451846, 43.12492002200897], [51.670946720036724, 43.12000880220693], [51.664854057402486, 43.113642383147685], [51.65731330020164, 43.10685863439322], [51.660922997806885, 43.10328253515927], [51.66559947356273, 43.10001332320747], [51.66956271137554, 43.09671240986451], [51.673364894692426, 43.09350567817271], [51.67817544641358, 43.09058893023122], [51.68255894146746, 43.087549312683635], [51.68748524346619, 43.084665721572286], [51.69256298497684, 43.083109346553485], [51.697164709625085, 43.080132495351016], [51.70197410304604, 43.07721019694272], [51.70638763149947, 43.07418371541551], [51.71404600731212, 43.07201034933395], [51.71840307206671, 43.0689688180696], [51.72358052674031, 43.06614287471488], [51.728365600111864, 43.06321370342092], [51.732819594206084, 43.0601974533662], [51.73762919570088, 43.057274581474935], [51.76156859566642, 43.03855246452496], [51.765353767271094, 43.03478559916717], [51.7683006562886, 43.03051887147598], [51.77126750261073, 43.02653459541333], [51.77400653508216, 43.022330978637385], [51.77704768963897, 43.01841892457443], [51.77886292106027, 43.01332525566271], [51.78246220153118, 43.009951879455826], [51.78570213139607, 43.00623233368416], [51.790366660011664, 42.9899176878574], [51.793331237510884, 42.98740696654963], [51.797290368121075, 42.983651542222674], [51.801650655235655, 42.98022270300733], [51.80299311168857, 42.97633968653934], [51.80381210652218, 42.97201982415478], [51.804168930592255, 42.96704314689119], [51.80605135451786, 42.96415301849786], [51.80758960040573, 42.95699963530503], [51.81177291683697, 42.95360693672294], [51.83108198535912, 42.932019143659], [51.83271810859342, 42.92922576274447], [51.834103472830336, 42.92543895951575], [51.83530395088575, 42.9209199286858], [51.836901846892836, 42.91797685725862], [51.838773240166866, 42.91611834765168], [51.84091654280315, 42.9146191846313], [51.844268021648126, 42.910877022423655], [51.8475149552646, 42.90672218630024], [51.85097982711187, 42.90343224765946], [51.836598785047244, 42.917990820157726], [51.84097487867129, 42.914672279213825], [51.844543232721, 42.91043118724009], [51.847976558210625, 42.90603625763287], [51.85209205161918, 42.90242120094131], [51.85635420450552, 42.89897410354925], [51.860281830878, 42.89514521695689], [51.86431899854427, 42.89144189018896], [51.86802626731748, 42.887362112602865], [51.85838624679703, 42.89731845192907], [51.860935588684576, 42.89323034810319], [51.86548845557953, 42.89037706555488], [51.868653681678836, 42.886668791755945], [51.872111355700376, 42.8831408725031], [51.874905106567454, 42.87920398457587], [51.87814240584669, 42.875540559792604], [51.88071396253322, 42.87146705518132], [51.882950174638964, 42.86718705836676], [51.884947740376276, 42.8627601462733], [51.902710101965226, 42.85374640042998], [51.89869678444194, 42.84352048426807], [51.90214892366183, 42.83962256165912], [51.90632417136446, 42.83633785623504], [51.91128831209661, 42.83372204316624], [51.91676865132541, 42.83154386138864], [51.92442835351737, 42.831212527392], [51.929726702370004, 42.83194575609661], [51.93482644846947, 42.832978151955714], [51.94044236701589, 42.83444737406056], [51.95178389931698, 42.838156678442424], [51.96236951424284, 42.84195723572275], [51.97616075285666, 42.84734581722381], [51.9878134084698, 42.8508372864572], [51.99853008241572, 42.85349800241237], [52.01010921313252, 42.85692000645148], [52.02033164510963, 42.85913969606314], [52.0312671590467, 42.86198838765186], [52.04230153402229, 42.86492254053236], [52.03020875387894, 42.861821980389095], [52.052273363553255, 42.867430204310466], [52.07051670442332, 42.87142339079616]]}, "properties": {"year": 2006, "sensor": "LANDSAT/LT05/C02/T1_L2", "scale_m": 30, "n_scenes": 6, "date_window": ["2006-07-01", "2006-08-01"], "otsu_threshold": 0.1523, "data_quality": "good", "length_km": 79.1}}]}