{"type": "FeatureCollection", "crs": {"type": "name", "properties": {"name": "EPSG:4326"}}, "features": [{"type": "Feature", "geometry": {"type": "LineString", "coordinates": [[50.24059229782064, 44.48511840704698], [50.24072276959773, 44.476432905557076], [50.24131645646259, 44.46830841770814], [50.24215053096651, 44.4604752745395], [50.24317245189914, 44.45286993052344], [50.24062234708283, 44.485999549059194], [50.24072854596708, 44.480617523695535], [50.24086281224882, 44.475249137941226], [50.2411666343875, 44.46996312117429], [50.24169822633602, 44.464787772038854], [50.24209760789932, 44.45954823516896], [50.243112682898406, 44.45460785758585], [50.24129030704541, 44.448288874607535], [50.24165735449858, 44.44303365748367], [50.24518764630328, 44.4393156785252], [50.32165708225398, 44.329043845651924], [50.328392518418454, 44.326560437384884], [50.33272946528491, 44.323137774283786], [50.33843547222752, 44.32025113675402], [50.34632520843211, 44.318219220777166], [50.35547504746599, 44.31668009179046], [50.36235629584899, 44.314252823859725], [50.369703813733906, 44.312007762565344], [50.3755798033699, 44.309186869730404], [50.38048525067639, 44.30598630259322], [50.434897555239715, 44.297152850824084], [50.44329032137304, 44.29683193718069], [50.45180621697274, 44.29659502351737], [50.46032205021286, 44.29635747461786], [50.46773956076409, 44.29536536059575], [50.476560563889194, 44.29533623337154], [50.484230540652106, 44.294516581179664], [50.492057737776754, 44.293883975262915], [50.49914702210238, 44.29398827727801], [50.53019030321617, 44.291151115760684], [50.536606125604834, 44.29093804318074], [50.54341992720118, 44.2913113793134], [50.55010203493871, 44.29149007640183], [50.556094416071005, 44.2906519344592], [50.56204159105122, 44.28974711904805], [50.56848956977354, 44.289580000173565], [50.57410406380211, 44.28818497834214], [50.58065679405133, 44.28817172720159], [50.586920998768726, 44.287733307516625], [50.612219522636636, 44.28529048004043], [50.61831304412261, 44.28376227772794], [50.62442359808337, 44.28236640872137], [50.630471463307636, 44.28049335610074], [50.636585150623354, 44.27912551664429], [50.642867489610886, 44.27904627573319], [50.64903247480214, 44.27807215499096], [50.655284213177886, 44.27776008197003], [50.66134982870542, 44.27603148877393], [50.66745209367676, 44.27458401306677], [50.67027777619478, 44.27462386839278], [50.6763650056577, 44.273470105151404], [50.68221651797084, 44.27120889634305], [50.68019820852891, 44.272459454681716], [50.67697867242324, 44.273418703847405], [50.67389429129746, 44.27501419844812], [50.67038534046189, 44.27461247933787], [50.66715399499094, 44.275517161213116], [50.66375034718128, 44.275610963766844], [50.66041717661933, 44.2760366359102], [50.64647543555125, 44.27846797104413], [50.64639259533426, 44.27851826670766], [50.646309754976045, 44.278568562310205], [50.64614169215552, 44.278546833271164], [50.61649626859231, 44.19183498712858], [50.60030354253371, 44.17082613100952], [50.60509767813349, 44.16845270764505], [50.62870341546773, 44.18277995578396], [50.63418297530911, 44.18101370680703], [50.60021738918069, 44.169523040461605], [50.631216904885875, 44.18277763504173], [50.61339765855783, 44.16798778503975], [50.64556810515181, 44.18224079100359], [50.65617179966504, 44.183961743704174], [50.66749878652979, 44.18610106769991], [50.66616683000845, 44.18089381683382], [50.672783784858126, 44.1797072083891], [50.680915123776316, 44.17899956970333], [50.68639623695282, 44.17800887530439], [50.68283734295495, 44.174918678807636], [50.688094393399126, 44.175895933903945], [50.69086131712454, 44.17548031894015], [50.683848714181465, 44.169594924870076], [50.687134075187835, 44.16874916203941], [50.67648591920843, 44.15739544951125], [50.6853885612213, 44.156980759486565], [50.69167144675921, 44.15653328072622], [50.69611678156791, 44.155955206341986], [50.72304864170159, 44.162711623193715], [50.75247610895797, 44.17500607894809], [50.74790205965315, 44.166253392537946], [50.75490738724711, 44.164666910302174], [50.76049059298992, 44.162200269383156], [50.76123873617068, 44.157114015877426], [50.78035425539831, 44.16301753416114], [50.78563807675572, 44.160363811318085], [50.79517360233433, 44.16033904122949], [50.795936769772865, 44.15489020820514], [50.80549369744495, 44.15473365859754], [50.804729461167284, 44.148266941882206], [50.81938128901882, 44.15158313202062], [50.82431296960182, 44.14873118256481], [50.82381598881547, 44.14243540040558], [50.83236511949511, 44.14187867385936], [50.83546312589616, 44.137863958785054], [50.83432530572451, 44.13116235438998], [50.84173804231505, 44.12989369555491], [50.84619252814445, 44.12674896518342], [50.8506647927625, 44.1242727907811], [50.85805034671633, 44.12245803144427], [50.860149782015384, 44.11828224699597], [50.86505088441383, 44.115357831491934], [50.87124204520794, 44.113009495510795], [50.87179794797199, 44.10805598162547], [50.87252913788571, 44.10308662417936], [50.873210293470336, 44.09809496590709], [50.87365878881475, 44.09299943042757], [50.905752679441015, 44.01152433599765], [50.912159278271155, 44.0108879699575], [50.918808390775894, 44.00891575612609], [50.92570489379711, 44.00557819079275], [50.932528870349714, 44.00263568486839], [50.94017825453439, 43.99513623382654], [50.94766828673029, 43.988110330457744], [50.94589676905279, 43.989993426240225], [50.9442959651066, 43.9909337546676], [50.94265126512306, 43.99211599388735], [50.87310772931663, 44.06568570667655], [50.87356657289116, 44.06154209973101], [50.870713982908846, 44.056360621407265], [50.86956891039928, 44.05171420523854], [50.86926888019472, 44.04733265007645], [50.86747504398534, 44.0424827040302], [50.86834044045975, 44.03846651899937], [50.86790665364838, 44.03404295698077], [50.87014641703815, 44.03045780765675], [50.87233788508074, 44.02772376609852], [50.87020743058507, 44.03031936975334], [50.87157581435497, 44.02845186714901], [50.87224715492277, 44.02643704515426], [50.87241191661842, 44.024315158827534], [50.87480557064854, 44.021903728681885], [50.88083821302708, 44.01876607684852], [50.886156592929964, 44.01547734520712], [50.89016692484148, 44.01191219002491], [50.90802961542977, 44.01127176974517], [50.918748245805034, 44.009121686904635], [50.94106791743025, 43.99343237672457], [50.945419056237135, 43.99025578844562], [50.948688177174496, 43.986342821022376], [50.949426462773566, 43.98070722622173], [50.954564634537114, 43.97806699657455], [50.95955083543855, 43.97532340434749], [50.96125232000087, 43.97034417003271], [50.96519517283273, 43.96689077649841], [50.969670096074296, 43.963799699178516], [50.96476684022684, 43.967109631446995], [50.969555994857814, 43.96390313882747], [50.975253888152274, 43.96104724750176], [50.97874026354008, 43.95733812449182], [50.981324718958135, 43.953281112591235], [50.98417485631189, 43.94932667160818], [50.98771055810531, 43.9456367756506], [50.9911897618332, 43.941925142231504], [50.99296041919913, 43.9375544930801], [50.99457431363972, 43.93313225571554], [50.99188011414712, 43.940314435606105], [50.99385377424642, 43.93600631959923], [50.99489682742543, 43.93158093394886], [50.995572779353445, 43.927109293220354], [50.99650019686505, 43.92266934809676], [50.99730967798847, 43.918214546653694], [50.99748223797884, 43.91367948079094], [50.997524722371644, 43.90912801956574], [50.99743387852177, 43.90455829850178], [50.998975075916256, 43.9001887273578], [51.00240947347567, 43.88882671161267], [51.00446950810847, 43.88462740363083], [51.00535094163322, 43.88009824978333], [51.00711329910105, 43.87581570323529], [51.00695787111993, 43.870996371482164], [51.00888465788743, 43.86675992961783], [51.011134974216574, 43.86261409410591], [51.01240550795874, 43.85819402750397], [51.01155461594816, 43.8531800893216], [51.01729821701444, 43.83434983845486], [51.01916904602654, 43.83027227171724], [51.02156416251383, 43.82645182617875], [51.0250276836535, 43.822898613198575], [51.024477093863375, 43.81680776197245], [51.02395939538274, 43.81073762893355], [51.0273675483224, 43.80714998721382], [51.02987157789805, 43.802990807866294], [51.02874668039736, 43.79653695811203], [51.03224082069257, 43.793004234520446], [51.03698777881316, 43.79013476457623], [51.039971058039384, 43.786280224435636], [51.043833417981695, 43.782984048291645], [51.04824209842692, 43.780034891339284], [51.05149144375015, 43.776349761854746], [51.05550019461858, 43.773146942351204], [51.059659917597756, 43.77004009971145], [51.06284166849434, 43.76631251553727], [51.06664261241534, 43.76297818054119], [51.07035902807019, 43.75959032587592], [51.045674604355305, 43.7810408935963], [51.05151420423285, 43.77692590834187], [51.053984844089165, 43.772848457236016], [51.06097222184145, 43.76872008531979], [51.06574870808788, 43.76461632793336], [51.06906874574541, 43.76052890480973], [51.07116490079346, 43.75645530168034], [51.07151703508864, 43.75240150662018], [51.07528060331342, 43.74830883629783], [51.118273049511494, 43.680028794016565], [51.12199172068447, 43.67726414576736], [51.12642346254301, 43.67035400490041], [51.13079602971642, 43.66323083514947], [51.13569543467281, 43.6580390184909], [51.14002835498896, 43.65077770570515], [51.14479194495651, 43.645095326365535], [51.14868696476542, 43.63623955039825], [51.1547509927917, 43.635318744119154], [51.160053198157826, 43.63161396978788], [51.11149109473332, 43.69676820969796], [51.111463977057376, 43.69328764230351], [51.16180821533205, 43.712392917333915], [51.115391545299005, 43.68843971762455], [51.1158758421345, 43.68674244036992], [51.11573328156397, 43.68476386555479], [51.116738829390485, 43.6833005228855], [51.117831912471495, 43.68187647527541], [51.11815253157412, 43.6801057870184], [51.11886249206984, 43.67850983252667], [51.07415879164874, 43.75080616007397], [51.075549644876624, 43.74669163993998], [51.07574642919925, 43.74601116951512], [51.07658505475713, 43.74507068889084], [51.07693577551823, 43.74432784848264], [51.076440836307924, 43.74392759186967], [51.0765476161207, 43.74328357393716], [51.07688609198221, 43.74453191202279], [51.07543113842559, 43.747418135877076], [51.074436874515115, 43.750117685846234], [51.13693488658567, 43.654114444482545], [51.13874124988353, 43.652355646920704], [51.14034989431753, 43.65052746733164], [51.1420053315614, 43.64871572069408], [51.138046409636345, 43.64493347777119], [51.1450569055427, 43.64500126133635], [51.14928530800826, 43.64409243397025], [51.15826291410448, 43.64484963578395], [51.14935448428736, 43.639331481544374], [51.16204681065837, 43.628843656210265], [51.16970336020035, 43.62928217518703], [51.175867469515524, 43.629049221815976], [51.1806274927651, 43.62818483736547], [51.18437886061103, 43.62770209540679], [51.18624039403959, 43.627034626419665], [51.18766654523646, 43.62617147348381], [51.18912849456808, 43.625324409397585], [51.190976198718964, 43.62465070480318], [51.19257193380603, 43.62386375761336], [51.21053675682402, 43.61758243949003], [51.210989374564384, 43.61709128884444], [51.211552778568624, 43.61666948527058], [51.211753749472685, 43.61602082711764], [51.21222887967842, 43.6155437762839], [51.21235942134025, 43.61485103968811], [51.21204022902226, 43.613876796242195], [51.21429081086044, 43.61451106045655], [51.234332167592996, 43.622755022832], [51.18840394866235, 43.588124538178455], [51.20716071724487, 43.61358139442819], [51.23140097992734, 43.61614187840861], [51.218560605071474, 43.60778918706246], [51.21578946455688, 43.60236872531306], [51.21936637254863, 43.59893064531357], [51.2220624042443, 43.59546649455776], [51.22751441854037, 43.59280529785787], [51.231927609342705, 43.58984138409461], [51.27566897300773, 43.59832334962806], [51.27483877483027, 43.5977550610724], [51.26773936283744, 43.59339554411412], [51.282012721063424, 43.59048242833764], [51.2831057450794, 43.58667742489776], [51.2838200058348, 43.58284681544861], [51.285128596502034, 43.579056377537924], [51.28950760311635, 43.575473399070056], [51.29087856720571, 43.57168714056139], [51.29212482596509, 43.56789245241107], [51.29832861343583, 43.56443245543925], [51.32481995830064, 43.52165310625418], [51.3257241377768, 43.52149494834124], [51.32650066300474, 43.52023768824391], [51.327533420404386, 43.52118668607169], [51.32818921021744, 43.518890434087375], [51.32893834201121, 43.51739808564884], [51.32967826387078, 43.51582677682364], [51.33046547688334, 43.514662799762355], [51.331284354894194, 43.513771571138896], [51.333309421798425, 43.501493990013095], [51.32620891328101, 43.520657569200615], [51.327658211737486, 43.52004262745974], [51.327954278299536, 43.51921306827425], [51.32900794645352, 43.51735476268673], [51.33125253400012, 43.51322159026307], [51.332426496858155, 43.508889205494704], [51.33226399283806, 43.50430812599554], [51.33416154338733, 43.50011043056824], [51.33738777336391, 43.496160000015436], [51.3388992680016, 43.48694148533921], [51.33596012955625, 43.481100500499934], [51.33790293803426, 43.477292562544434], [51.31117404603871, 43.461537639339404], [51.31290537756939, 43.457641550701965], [51.31366672834542, 43.45334112724537], [51.31421558553887, 43.44895214212142], [51.31396958145971, 43.44423174562461], [51.3142116029721, 43.43971484124294], [51.31469059570861, 43.435296772994214], [51.31585028989174, 43.42220665731747], [51.31637100914276, 43.41784988959052], [51.3166219406689, 43.413329608669756], [51.315761591799635, 43.40758680719646], [51.314821262603864, 43.40117004715402], [51.31467102671933, 43.395232299590305], [51.3147249237138, 43.38941833241233], [51.31543377594551, 43.38400162654544], [51.3153556665541, 43.37810761887271], [51.31472618585665, 43.37187909296475], [51.30764245924535, 43.32167745189792], [51.30683587380876, 43.31741462658448], [51.305366493304035, 43.31305601831653], [51.304042476068716, 43.308718361807074], [51.30276823858312, 43.304387852978884], [51.301307933312366, 43.30003040442707], [51.440883671888905, 43.17141891143737], [51.43367959974902, 43.160432445791535], [51.44430186265955, 43.161536625833094], [51.433169241113816, 43.16042610120602], [51.44729630875244, 43.16094816925873], [51.47243042471826, 43.165819301658125], [51.477498417732626, 43.16275660804383], [51.51756648273579, 43.17351504770916], [51.570474513535466, 43.1805156314827], [51.58399621360933, 43.183382071771085], [51.59487605336925, 43.18450989957787], [51.606303825111915, 43.185996438010946], [51.61761583714829, 43.18740544180202], [51.59287540184828, 43.16512498068222], [51.557581296685285, 43.13588053388069], [51.56389356188519, 43.13401038289543], [51.58608298478081, 43.14583372094859], [51.56607248025515, 43.13050788237387], [51.49885928412906, 43.13797690467253], [51.65165140334151, 43.18258281106197], [51.65176174585195, 43.18049111167111], [51.65267578294543, 43.17723837488819], [51.64994934524999, 43.1729244696031], [51.65130910295817, 43.169801684006806], [51.656514498424, 43.167799921352696], [51.65249914834871, 43.16311029240559], [51.655881225306125, 43.16057714102286], [51.66309477367046, 43.158957820991716], [51.66307886724268, 43.155400457497755], [51.66294553047997, 43.15208727906669], [51.66790735590259, 43.15074288215813], [51.66843989898199, 43.146503432962604], [51.66704292563716, 43.141469105326706], [51.66920936672999, 43.137494982264606], [51.6683182806559, 43.13261114536562], [51.66798656810138, 43.127893719066854], [51.66974133909063, 43.12379722055019], [51.66980934999197, 43.11968178636058], [51.662912553205324, 43.11308397487885], [51.656757354432415, 43.10669867913933], [51.660902408034445, 43.10327661157945], [51.66555600766125, 43.1000008196282], [51.669391141691186, 43.09666305940758], [51.67317159963093, 43.09345008298664], [51.677366832721916, 43.0903563831003], [51.6815021719202, 43.08724542865875], [51.68650398124165, 43.084383585818976], [51.69198716848723, 43.08295786165407], [51.695921772330834, 43.07980554072945], [51.70108383637784, 43.0769760447043], [51.70643850250501, 43.07419709338832], [51.71288407744182, 43.07170485569101], [51.704563988040206, 43.06532969697727], [51.72169380298034, 43.06564693944905], [51.72730434391443, 43.06293478771998], [51.732295917314765, 43.060059839930425], [51.73772745490406, 43.05730039861405], [51.76084760637226, 43.03785733274493], [51.764910023873234, 43.03435778559152], [51.76794314265447, 43.03017419318403], [51.77015337347643, 43.02546045580141], [51.77323654626266, 43.02158863024682], [51.77638547978125, 43.017780493704024], [51.776106558558375, 43.0106676487072], [51.78127535310208, 43.008807627445094], [51.78598231127168, 43.00650244492522], [51.789391295519145, 42.988531155364], [51.79177840108464, 42.98519959097764], [51.79563730535226, 42.981301810592264], [51.80125720120073, 42.97966348882196], [51.80101866272116, 42.973533221337256], [51.80366182932893, 42.971806221341794], [51.80398039471017, 42.96677514357298], [51.80503609899652, 42.962709812602895], [51.80701448095728, 42.95618203950015], [51.811350281468144, 42.95300615534628], [51.83103240384907, 42.931822587597175], [51.832569803298405, 42.92863786715205], [51.83281926862115, 42.92034799952471], [51.834778852976676, 42.918838396480496], [51.836429210385525, 42.91610339575194], [51.83809997334457, 42.913449825809735], [51.840790761410666, 42.914120720987555], [51.84382449007656, 42.909119573341194], [51.84747741095965, 42.906573446116425], [51.85044586762676, 42.90131714089718], [51.83563581299608, 42.91689039638201], [51.840589145629245, 42.91423151944117], [51.84337014936928, 42.909090763532944], [51.8475848656637, 42.90558870523028], [51.85139415571429, 42.901623808944265], [51.855452159843324, 42.897943508580944], [51.85992988753313, 42.89474313863981], [51.86383117741822, 42.89088460049753], [51.8675695972019, 42.8868404252007], [51.85779397165348, 42.89695345096404], [51.860005448862715, 42.89265712426828], [51.86474415602434, 42.889918400792176], [51.86800607504244, 42.88626971912626], [51.8714299772268, 42.8827209987776], [51.874352327428376, 42.878863356621785], [51.87743104049793, 42.87510221564468], [51.880319817322984, 42.87122418230182], [51.88233646496416, 42.866808881442324], [51.884153902239426, 42.862270957397214], [51.89401448602442, 42.84637581272279], [51.89772937979382, 42.84270039347586], [51.90141014484674, 42.83899629593435], [51.90515464249318, 42.835346478670544], [51.90981153160474, 42.832470303751045], [51.91567846530682, 42.83061989932569], [51.923641317591624, 42.83054561583441], [51.928787156832506, 42.831149720836905], [51.93403285999747, 42.83230587530445], [51.93945931295419, 42.83361472400244], [51.95057940721532, 42.837089099641595], [51.96112724134245, 42.84085652126549], [51.97471402592324, 42.84606448388935], [51.98655408229778, 42.84972231287366], [51.99754667377305, 42.85262758762011], [52.008922137401726, 42.85586967583874], [52.01956541957445, 42.85846193398799], [52.03010546255953, 42.86096112569242], [52.04104094785042, 42.86380818242819], [52.02753371436033, 42.860494858020665], [52.049270769528135, 42.86594155178661], [52.06723631993909, 42.86979787463528], [52.06118055692854, 42.86289461896042], [52.07336521354443, 42.86366043130165], [52.08497547975278, 42.86414027081261], [52.091515171482804, 42.86210756588459], [52.0949912161014, 42.85855737681433], [52.09255730652326, 42.852079901659934], [52.10468837344951, 42.85281675327716], [52.108333077869105, 42.84879305006244], [52.1136050472786, 42.846440361451094], [52.116377722899, 42.841820178422395], [52.11148901869132, 42.83024762440286], [52.127028142571255, 42.837212433954896], [52.13187598704302, 42.834475714950976], [52.13613447200617, 42.83120459602785], [52.14112019804549, 42.828593351374465], [52.14535081033174, 42.825297425335926], [52.149197849794234, 42.82165388073112], [52.15311184160597, 42.817466731389466], [52.15910687913813, 42.81626569108985], [52.16232912412652, 42.811621533035215], [52.15492089703109, 42.793773407209564], [52.168227704189974, 42.80165680315672], [52.177061602169026, 42.80398192927412], [52.181308652635764, 42.800563391496034], [52.18492009121104, 42.796268938921116], [52.188452431557444, 42.791876800760974], [52.19044970507216, 42.78557956328132], [52.1877688880232, 42.7923587010259], [52.194507930477606, 42.78819985129045], [52.19417422996511, 42.78369098743273], [52.194855694794725, 42.779374145193785], [52.20652616004529, 42.778115318916015], [52.21231411502217, 42.77656537034729], [52.21865788761764, 42.77504253015756], [52.219234257672916, 42.77323539658533], [52.221110556445076, 42.77149228562965], [52.206970058873075, 42.75837648533183], [52.21079565641509, 42.75603222520034], [52.208373786312336, 42.75109697868198], [52.221345067476754, 42.752351008671724], [52.22094999069416, 42.7479403330661], [52.21961317344226, 42.7426491593398], [52.2197470285537, 42.73754240031266], [52.22050574267237, 42.73269481098932], [52.21634678167492, 42.725807309582486], [52.21576463909282, 42.7204033636614]]}, "properties": {"year": 2026, "sensor": "COPERNICUS/S2_SR_HARMONIZED", "scale_m": 30, "n_scenes": 73, "date_window": ["2026-07-01", "2026-08-01"], "otsu_threshold": 0.043, "data_quality": "good", "length_km": 505.7}}]}