{"type": "FeatureCollection", "crs": {"type": "name", "properties": {"name": "EPSG:4326"}}, "features": [{"type": "Feature", "geometry": {"type": "MultiLineString", "coordinates": [[[50.240920007944126, 44.485515155968194], [50.24139281993574, 44.477244224891706], [50.24213488112394, 44.469299509531965], [50.243078273655996, 44.46159886712658]], [[50.24115206145005, 44.48625678053703], [50.241373719873195, 44.48093084980382], [50.24141532234474, 44.47551748606975], [50.241997930301665, 44.470366903426225], [50.24291542071818, 44.465379034792676], [50.24329701381596, 44.460130902642014], [50.24405091394046, 44.45506367506866], [50.24393932686618, 44.44957599961789], [50.2437996743225, 44.444074674816775], [50.24599774000147, 44.439709324497]], [[50.32304103359283, 44.32958583055171], [50.329835929179985, 44.32712562042517], [50.33512078372047, 44.324074041078475], [50.34030820555304, 44.32098428423183], [50.347666198570764, 44.318744101383764], [50.35750202805869, 44.31747327802482], [50.36290350107133, 44.31446692464685], [50.37211509792001, 44.31295101039754], [50.37843699537197, 44.310304401682245], [50.381609373169496, 44.30642595466399], [50.4347807044256, 44.297072571821474], [50.4439670384271, 44.2972967569044], [50.452297267930106, 44.296932246314796], [50.46064370976146, 44.296578325749394], [50.468703708344144, 44.29602722701354], [50.47731909087349, 44.295856835813304], [50.48490030593235, 44.2949761845711], [50.49182842440096, 44.29372664266703], [50.48884456931618, 44.28691968667101], [50.530977324395714, 44.29231179082725], [50.5367933030582, 44.29121403762776], [50.54404689751554, 44.29223563921629], [50.55033869665926, 44.291838886261644], [50.55648213431826, 44.29122328251544], [50.5626369806338, 44.29062434191795], [50.56879939511745, 44.290036398142355], [50.57404033397668, 44.28809111222984], [50.58087713914424, 44.28849619986408], [50.58723865168511, 44.28820098394071], [50.6122525241487, 44.285543254072714], [50.61837862961425, 44.28426423714147], [50.62450470567715, 44.28298668316105], [50.63054500780831, 44.281055364255636], [50.63659947163987, 44.279234870008146], [50.64290308638386, 44.279317864600884], [50.64909596445392, 44.2785561715588], [50.655317866075336, 44.27801642975444], [50.661418834280084, 44.27655672947436], [50.66757312332914, 44.27550452276532], [50.67039181658038, 44.27516053050874], [50.67649442547651, 44.27407884960652], [50.68224529006081, 44.271344171522905], [50.68038122854894, 44.273320056814654], [50.677015380712874, 44.273591359268785], [50.67388634591717, 44.274976819238326], [50.67049919268067, 44.275148251363795], [50.66715494036905, 44.275521611172884], [50.66384542721394, 44.27605863241058], [50.66058309925604, 44.27681805812093], [50.64705008351139, 44.27895361960076], [50.646905557290694, 44.27895178400494], [50.64682271675626, 44.2790020799751], [50.646740687734685, 44.27905306182871], [50.64080550190463, 44.27415685781797], [50.62442671685607, 44.258967828122834], [50.624827654190376, 44.25301182090044], [50.6324120332107, 44.25292126826976], [50.64021866625003, 44.25301817415164], [50.64806338565894, 44.25297129688391]], [[50.69751324169875, 44.20794166224347], [50.71450818689628, 44.20390083694633]], [[50.86294977367211, 44.11953275995357], [50.859989804652585, 44.1130973669349], [50.872158716785535, 44.113418819872436], [50.8728961688349, 44.1085464060775], [50.87354655829929, 44.10354099611067], [50.87421913800468, 44.09854553782456], [50.874954253631806, 44.093578053305094], [50.90560050978791, 44.01236078384016], [50.91198934666877, 44.01182262308619], [50.91870555775289, 44.00948173192665], [50.92560197006454, 44.006145065898586], [50.93257875770466, 44.00236072492471], [50.94002013699336, 43.99600843977767], [50.94747552969708, 43.989174489271896], [50.94575864327174, 43.99075583297002], [50.944099256152526, 43.99201933311354], [50.942447564942846, 43.993239957192806], [50.873014969451674, 44.06565663839275], [50.87354939628706, 44.061536716787614], [50.87069795305072, 44.05635559692399], [50.8695311289192, 44.05170236142566], [50.869381071387345, 44.04736782284933], [50.86854191338774, 44.04281721673491], [50.86830037837669, 44.038453956930525], [50.86790550910492, 44.034042598060196], [50.87019448555049, 44.03047288137481], [50.87270639831229, 44.027839323725324], [50.87026132202619, 44.03033076021511], [50.872065615459604, 44.02855538700836], [50.873008778406344, 44.026598014448325], [50.87288013050039, 44.02441411945307], [50.87609761185786, 44.02217678785432], [50.88148361330638, 44.01890244770355], [50.88651939255218, 44.015553989965525], [50.893940872583876, 44.01270930939678], [50.90885580019978, 44.01144614761679], [50.919652261664204, 44.00931240663896], [50.941737555248146, 43.99388823081501], [50.94604423048392, 43.9906813523535], [50.9492752252572, 43.986742427013276], [50.9514732765917, 43.98210057223363], [50.95543743460027, 43.97866111056125], [50.959964555925716, 43.97560500471029], [50.96373182072315, 43.97203186147151], [50.967180188252364, 43.96824185433445], [50.971242314098056, 43.964869758917786], [50.967318831353644, 43.968094367553775], [50.97142513187311, 43.96462432946234], [50.97582781204223, 43.9612686702017], [50.97912616211762, 43.95748700080726], [50.98168421280537, 43.95341980133562], [50.9853071584374, 43.949763488159284], [50.98802714895982, 43.945758906062096], [50.991294188554164, 43.94196542524825], [50.993322043674695, 43.93769399362129], [50.995130455173815, 43.933346798535005], [50.99203355257668, 43.94033377265023], [50.99398265375256, 43.9360225605158], [50.99936805185333, 43.932144291045084], [50.99768119569678, 43.92737497596405], [50.99493189648983, 43.9224716971675], [50.9943019428385, 43.913278615579216], [50.997344796243084, 43.89998322302759], [51.00359955162151, 43.88915979663044], [51.00527871075816, 43.884853888375005], [51.005754932761256, 43.880211327377005], [51.00737100107006, 43.87588783518782], [51.00814645899472, 43.87132908529223], [51.0097737211257, 43.86700880151022], [51.011815078557014, 43.862804471725674], [51.012578423354476, 43.85824243260096], [51.01358650129066, 43.85374892952456], [51.01786501460463, 43.834708156074235], [51.02033163481879, 43.83100724548112], [51.02284099521691, 43.82725902675711], [51.023925145056836, 43.82220158758158], [51.02492387634273, 43.81709024330349], [51.02419165947807, 43.810884496971944], [51.02743685115374, 43.80719380875261], [51.030074795316196, 43.80311930709157], [51.03111388753988, 43.798033946949666], [51.03475124460665, 43.79459174700933], [51.038531859369186, 43.791115232494725], [51.041798290327016, 43.78744047476853], [51.04495029539366, 43.78369322119273], [51.050270250020134, 43.78132259239134], [51.052557819195954, 43.777026818039005], [51.05604038285706, 43.773489903360925], [51.05969543123553, 43.77006264612017], [51.06366968031709, 43.766838177266294], [51.067630418816414, 43.763605263000215], [51.070719751038766, 43.75981931607065], [51.05040012094109, 43.780988133721664], [51.052516893881325, 43.77691467777294], [51.05648828995314, 43.77282034511911], [51.06147536071605, 43.76871440865178], [51.06650646963408, 43.7646077454036], [51.0701668033098, 43.760516433684934], [51.07210886777215, 43.75644456325856], [51.07450274873694, 43.752367503545656], [51.078010281673585, 43.7482776602494], [51.118873439277905, 43.68222712386488], [51.114323503697285, 43.64917769120272], [51.11839079313716, 43.64093679571356], [51.118021359093156, 43.61644089796764]], [[51.099608923823716, 43.69143530868787], [51.096193448510654, 43.68296438499325], [51.09396972457212, 43.67882335437304], [51.098314772100665, 43.67885959019515]], [[51.07521057006199, 43.75038014539214], [51.07622078077523, 43.7464197738805], [51.07496795715979, 43.74632651299959], [51.07538050532861, 43.74555864346733], [51.07859129702237, 43.7436571595346], [51.078777195590526, 43.742981075841165], [51.07988676025557, 43.74193076280389], [51.078698822397925, 43.74379753573393], [51.075814960123104, 43.74726265925442], [51.08038836300972, 43.747706827219126], [51.1057387413342, 43.643159268577534], [51.117483386562014, 43.64249900068221], [51.11068320014125, 43.62814436007732]], [[51.30863092086318, 43.321820216929915], [51.30756900030961, 43.31752052707228], [51.30652658626454, 43.31322361983723], [51.30515046994588, 43.3088784617968], [51.30368383784024, 43.30452017396229], [51.302304495335, 43.30017444948184]], [[51.49270619356906, 43.28955374557631], [51.47595665991499, 43.276911921031626], [51.490623811301205, 43.27815515773017], [51.51733483958086, 43.28471515674263], [51.520876483871156, 43.281040696968375], [51.52690386768409, 43.27846373576395], [51.51027008690818, 43.254985011898896], [51.50798396135124, 43.24124834494757], [51.52920409179968, 43.24949840056468], [51.526674707492624, 43.241694710950796], [51.53129815606776, 43.2387255293561]], [[51.543155133321726, 43.19373540675538], [51.58151676367199, 43.1877760789129], [51.58411338140901, 43.183459097401936], [51.594280069824, 43.18411820735671], [51.60715719891439, 43.186557110021106], [51.6176057637891, 43.18739882539606]], [[51.660296784332566, 43.17945932645566], [51.65752741922006, 43.175133283326254], [51.65721923216762, 43.171524401316866], [51.66559862258074, 43.170447256451276], [51.66548657071365, 43.16689567891958], [51.66551053473757, 43.16338373063396], [51.66539547125679, 43.1596422118531], [51.66678098760155, 43.15650176755598], [51.668465981677414, 43.15372954865506], [51.668863303072996, 43.15102724888928], [51.66943793702009, 43.14680033613214], [51.66908326355721, 43.14207614723386], [51.67158222995135, 43.138200947649835], [51.67050755360145, 43.13326256562284], [51.67016997380997, 43.12854345274913], [51.671469051612895, 43.12431135923076], [51.67121218438949, 43.12008512619533], [51.66322946104906, 43.11317512569902], [51.65716115837902, 43.10681486090111], [51.66090469578674, 43.103277269755175], [51.66581222796477, 43.100074524697234], [51.66968166651687, 43.09674662602895], [51.673412932572084, 43.09351949467671], [51.678105678939744, 43.090568866278865], [51.682448003052876, 43.0875174119012], [51.68745207711489, 43.084656185654005], [51.692374514612204, 43.083059764468246], [51.697103429619716, 43.08011637604682], [51.70151625077975, 43.07708977666376], [51.706347165942496, 43.074173073829925], [51.71397779419863, 43.071992415210005], [51.71821346880599, 43.068918974334046], [51.72347647869111, 43.06611552616092], [51.72739798378477, 43.062959398328154], [51.73281265807321, 43.06019563068748], [51.73735753832767, 43.05720320423568], [51.7612868875969, 43.03828086205476], [51.76518355341093, 43.0346214966851], [51.768088823401385, 43.030314644354654], [51.77119020353421, 43.0264600724177], [51.77349444585053, 43.02183727456827], [51.777127958435734, 43.01849630986199], [51.77854929756106, 43.01302288382574], [51.782216950581144, 43.00971543519966], [51.78563673167352, 43.00616928374203], [51.790436451202005, 42.99001689699272], [51.79331378928848, 42.98738216470359], [51.79694646207608, 42.98316271696815], [51.80168048823819, 42.98026510402319], [51.803013374930934, 42.97636848701725], [51.8036730860112, 42.971822221559904], [51.80406650193819, 42.96689754513018], [51.805213371319184, 42.96296181433507], [51.807398267378545, 42.95672763704815], [51.81171270063898, 42.9535213394796], [51.83106769155714, 42.93196247885153], [51.832662493767295, 42.92900530192963], [51.834060588061156, 42.9252689660552], [51.83504686947771, 42.91990085486528], [51.83672605661778, 42.91728006448313], [51.83853533380449, 42.91517542336415], [51.840916989632426, 42.91462095537214], [51.84420210473385, 42.91061583997069], [51.847541772739184, 42.906828429277844], [51.85085376547311, 42.902932909257466]], [[51.86011745751943, 42.89495742911012], [51.864065144872356, 42.89115188781278], [51.86781880954221, 42.887125119872145], [51.858245451757156, 42.89723168494847], [51.860476617440966, 42.89294749694929], [51.865039809637, 42.89010059483043], [51.868509142663775, 42.8865797236983], [51.87169370526653, 42.88288351238066], [51.87479060852248, 42.87913343028433], [51.87792092426502, 42.87540408373761], [51.88048216723837, 42.871324222966386], [51.882841320389666, 42.86711998136084], [51.88450859432912, 42.862489531849725], [51.89531239918983, 42.84747610656213], [51.89834302902242, 42.84322060131039], [51.90211443094144, 42.839593322436265], [51.90584849426548, 42.83593464313249], [51.92275644997712, 42.843440195224595], [51.91671249672531, 42.83149626978835], [51.92426789629505, 42.831076562191214], [51.929710655275, 42.83193216034418], [51.93430808640299, 42.83253903155794], [51.94015186175662, 42.834201318389404], [51.95158770730813, 42.83798279078199], [51.96206304633474, 42.84168569514236], [51.975595349193036, 42.846845060585274], [51.98715870962926, 42.85025764051231], [51.99812560629566, 42.853140004719926], [52.00969134535345, 42.856550280470564], [52.02033164510963, 42.85913969606314], [52.030928196444606, 42.861688655488116], [52.041816085516174, 42.864493410565856], [52.029200019221314, 42.86132154798524], [52.05152117896445, 42.867057293858835], [52.06979482239686, 42.87106569494961]]]}, "properties": {"year": 2016, "data_quality": "good", "length_km": 253.0, "spatial_outliers_removed": 30, "n_segments": 12}}]}