{"type": "FeatureCollection", "crs": {"type": "name", "properties": {"name": "EPSG:4326"}}, "features": [{"type": "Feature", "geometry": {"type": "LineString", "coordinates": [[50.2406204602358, 44.485152502694206], [50.24074516830774, 44.476460027088095], [50.24148090705582, 44.468507566417145], [50.24220939358881, 44.46054656477506], [50.24322938902478, 44.452938895617045], [50.2406608526848, 44.48601824769668], [50.2407743322738, 44.48063975986107], [50.24079934154642, 44.475218310585376], [50.24120200844729, 44.46998030352], [50.24180954137858, 44.46484184532083], [50.242293172884615, 44.459643241645615], [50.24323230134037, 44.454665972213306], [50.24137142959352, 44.44832829276776], [50.2416386355358, 44.443024561040104], [50.24523028254144, 44.4393363968763], [50.32166258718068, 44.32904600155167], [50.328432154039696, 44.326575957527325], [50.33273386911596, 44.32313949857776], [50.33774628293911, 44.31998131700866], [50.34625144366228, 44.318190347580384], [50.35480343645754, 44.31641726825871], [50.36235409382398, 44.31425196228187], [50.368036880017684, 44.31135564292442], [50.375556682029504, 44.309177825829366], [50.38048304869002, 44.30598544136387], [50.43492110660516, 44.29716903107377], [50.44331206312036, 44.2968468712098], [50.45179715704481, 44.29658880167478], [50.46038366368611, 44.29639977856643], [50.467949786584796, 44.295509678024715], [50.476606781995685, 44.2953679548109], [50.484237791099865, 44.29452155660946], [50.49211030781416, 44.293920043540396], [50.4991660576892, 44.29400133531059], [50.53019743785815, 44.291161637944406], [50.53660777231969, 44.29094047128573], [50.543421574207876, 44.29131380732125], [50.55005810731602, 44.291425332057294], [50.55613121054075, 44.29070615593295], [50.56212617484271, 44.28987174315428], [50.56849835907915, 44.2895929476455], [50.57411340353489, 44.28819873457967], [50.58069306015988, 44.28822513170957], [50.58693253970376, 44.287750299236414], [50.61225790740021, 44.285584486714406], [50.618312692774694, 44.28375958865944], [50.62442336367077, 44.282364616020516], [50.63047040765489, 44.28048528899733], [50.6365844463124, 44.279120138609905], [50.64285339196749, 44.27893871577925], [50.64903494382513, 44.27809097785885], [50.655280094835945, 44.277728710736255], [50.66135135953279, 44.27604314087232], [50.66753199404557, 44.275191710833255], [50.670271535237745, 44.27459449881969], [50.676368411408625, 44.273486124744935], [50.68223336477087, 44.27128810352195], [50.68019234137658, 44.272431865568336], [50.676986808778416, 44.27345697283397], [50.67389504800085, 44.27501775837282], [50.67037909945242, 44.27458310977043], [50.66715702020141, 44.27553140108431], [50.663741841084715, 44.27557091388284], [50.660434940338995, 44.276120296162865], [50.64649329170138, 44.27848306186216], [50.64641045147827, 44.278533357538485], [50.64632761111392, 44.278583653153824], [50.646161171524845, 44.27856329603808], [50.64888070877432, 44.1519858356306], [50.64795145706107, 44.149501569722], [50.645991532652815, 44.13492323321867], [50.87129834101166, 44.113034633835774], [50.87214737991133, 44.10821202691662], [50.8724675409084, 44.1030591149401], [50.87323259407851, 44.09810492601437], [50.87380957112448, 44.0930667790931], [50.905750081062514, 44.01153861899452], [50.912153435439706, 44.01092010703463], [50.91880433588315, 44.008938073786695], [50.9256992208867, 44.00560943588124], [50.93249129255628, 44.002842797529894], [50.94015980503, 43.9952380060848], [50.94763529860028, 43.98829245163448], [50.945892563870565, 43.99001663769033], [50.944294347463604, 43.990942682124164], [50.94265514813341, 43.992094568052124], [50.87312490707938, 44.06569108968379], [50.873512752875406, 44.06152523316639], [50.870680778205745, 44.056350213546594], [50.86961012657658, 44.05172712574744], [50.869316962118134, 44.04734772413546], [50.86754258149869, 44.04250388055914], [50.86835989919192, 44.038472620570595], [50.867939845414924, 44.034053365672406], [50.870139550109805, 44.0304556542668], [50.87228981824322, 44.027708693276914], [50.870201442648444, 44.0303181041449], [50.87161892636403, 44.02846097900572], [50.87219326662529, 44.02642565562512], [50.872384374674, 44.02430933755452], [50.87481754502592, 44.02190625941783], [50.88082983122479, 44.01876430577448], [50.88642120906361, 44.01553324793336], [50.89017530595835, 44.011913960415434], [50.90802602333267, 44.01127101156747], [50.9187135221328, 44.009114361103286], [50.94109967508977, 43.99345399591034], [50.945462609451006, 43.990285435970385], [50.94872084115763, 43.986365055747804], [50.94950357946632, 43.980759724414376], [50.95458368715931, 43.97807996587055], [50.958049316958736, 43.974301355254816], [50.961228732303894, 43.97032811416392], [50.96517793589002, 43.96687904395175], [50.96966283841857, 43.963794759440724], [50.964616208315775, 43.96705150435025], [50.96954609954694, 43.963899320677825], [50.97535943705344, 43.96108796913473], [50.978868896185105, 43.9573877500755], [50.981068566870206, 43.95318229086739], [50.98446067858429, 43.949436937041895], [50.98775892606862, 43.94565543452039], [50.991224937133985, 43.94193871125836], [50.99297470828005, 43.93756000528131], [50.994566620010175, 43.93312928771285], [50.991934124462986, 43.94032124226915], [50.99386236621131, 43.936007402331526], [50.99493978416209, 43.93158634721579], [50.995496690173965, 43.927099704407794], [50.99649528824047, 43.9226687295046], [50.99734526292529, 43.91821903119197], [50.9975141393038, 43.913683501366954], [50.99754680622279, 43.90913080303636], [50.9974154767254, 43.90455597892322], [50.998972622514785, 43.90018841811368], [51.00256969785827, 43.88887155695281], [51.0045380056562, 43.88464657544558], [51.005246461417755, 43.88006900534523], [51.00718526985866, 43.87583584825358], [51.00693813881562, 43.870990847808585], [51.00905295258035, 43.866807040364044], [51.01119764576657, 43.86263163760564], [51.0122662474407, 43.85815504334271], [51.011583626032504, 43.8531882112239], [51.00404926510187, 43.82597209798742], [51.01915124674222, 43.83026101900447], [51.02158851850171, 43.82646722412335], [51.02403193187024, 43.82226909945294], [51.0259195514028, 43.81771974986953], [51.02390320262746, 43.8107020962721], [51.02739470752801, 43.8071671605246], [51.03157507251854, 43.80406793986349], [51.02876728058264, 43.796549985918084], [51.034009621025135, 43.794122782305784], [51.03660550516391, 43.789892018360504], [51.040427158507505, 43.786569844670616], [51.043725937447725, 43.782915800946185], [51.0482533137724, 43.78004201236663], [51.05150733172658, 43.776359849531524], [51.062936269225695, 43.777867473349026], [51.05967487070515, 43.770049592937525], [51.06284166849434, 43.76631251553727], [51.06674727966593, 43.76304462677292], [51.07025155932391, 43.75952210318633], [51.048462945959415, 43.781009785708946], [51.05143344234857, 43.77692681252784], [51.05476383221571, 43.7728397155704], [51.06103185312058, 43.768719412645204], [51.06571392558533, 43.76461672176495], [51.06907619862639, 43.760528820199646], [51.071227003894855, 43.756454595444794], [51.07142264475012, 43.75240258032082], [51.07525949114001, 43.748309077168834], [51.11826581326204, 43.680002297448894], [51.122011985859544, 43.67733833552633], [51.12641743032411, 43.67033192482227], [51.130715910489265, 43.66293761439083], [51.13557064476651, 43.65758241158102], [51.140021595537334, 43.65075297674123], [51.14477359433031, 43.645028205593405], [51.149947572039366, 43.64084964261819], [51.15473360033582, 43.63525515743616], [51.16005875552914, 43.63163428195306], [51.1107818413592, 43.696449947245085], [51.1127262244079, 43.69385406346778], [51.1147305960227, 43.69128513924734], [51.11542426043093, 43.688454398176795], [51.11583890662384, 43.6867258656921], [51.115707955214546, 43.68475250002622], [51.11669978526382, 43.68328300136481], [51.11786779032032, 43.68189257578199], [51.11811770991657, 43.68009016013702], [51.11879179507447, 43.678478105639435], [51.07428457212122, 43.750755214498945], [51.075499770237634, 43.74671184307593], [51.075743176547576, 43.746012487117326], [51.07659589669728, 43.74506629680268], [51.07680675820892, 43.744380114653936], [51.07633892383186, 43.743968877326346], [51.07649882880862, 43.74330333831029], [51.07682429357272, 43.744556947070244], [51.07539427409011, 43.747433068592045], [51.07445964483007, 43.750108462894396], [51.136858964379364, 43.654087798021685], [51.138760230090085, 43.65236230823061], [51.140337613267896, 43.65052315724169], [51.141983002838955, 43.64870788448614], [51.143919677668194, 43.646994845622494], [51.145087048001464, 43.64501183941418], [51.13987235769714, 43.64078889675026], [51.14875669874198, 43.641514324311686], [51.158337898898445, 43.642483453488055], [51.16203100160271, 43.62883654657093], [51.170835370883346, 43.62979114367167], [51.175644011508005, 43.62894876576524], [51.18082987471736, 43.62827580763045], [51.19194661311876, 43.63110303665516], [51.18620560891814, 43.62701899257517], [51.18754532489099, 43.62611699336152], [51.18955961774731, 43.62551816260583], [51.1910278491577, 43.624673916544246], [51.192781697822035, 43.62395802264405], [51.21055741338672, 43.61759536911358], [51.211118008310336, 43.61717180457356], [51.21161568692569, 43.6167088612874], [51.2118532752993, 43.61608312332022], [51.21226268077769, 43.61556493335612], [51.2125716153672, 43.61498385869649], [51.212842048828634, 43.61437868780185], [51.21439878712656, 43.614578643576685], [51.21848405332071, 43.61283903075258], [51.21894743403199, 43.607252317462795], [51.212459784253895, 43.61512553318868], [51.21914791956829, 43.612573282467324], [51.21865261661278, 43.60781599380945], [51.21588261663167, 43.60239586944805], [51.219704466997094, 43.599029157615846], [51.22214289923886, 43.595489948082474], [51.22752131798461, 43.59280730783441], [51.23343050698919, 43.59027915641166], [51.23592642430273, 43.586756731845206], [51.27472775047827, 43.5977475492535], [51.276095206153975, 43.59396114512874], [51.29820593656945, 43.591575986844255], [51.277477827196904, 43.58629684339538], [51.28420603246943, 43.58287290903173], [51.28532714749994, 43.57906979740955], [51.28951746846353, 43.57547406552816], [51.290819378749795, 43.571683142491814], [51.292196340963365, 43.56789728260693], [51.298365602078235, 43.5644349518217], [51.324895280823235, 43.52230179767818], [51.32574320505598, 43.52165913980482], [51.326507957132904, 43.52030049368499], [51.32757886007471, 43.52157787372889], [51.328178683579985, 43.518799814947336], [51.3289418859244, 43.5174285910852], [51.329685352252525, 43.51588778766519], [51.330487056773876, 43.51484852382115], [51.331328666047526, 43.514152888367235], [51.3333434135315, 43.50178648277975], [51.32632998941594, 43.52068010225899], [51.32824201193092, 43.52015126839655], [51.32802140836146, 43.51922556084942], [51.3289719849221, 43.51734807054556], [51.331356816066986, 43.513240995395726], [51.33254515458653, 43.50891128601437], [51.332361069029965, 43.50432619206089], [51.334476721544775, 43.50016908409701], [51.33762743920541, 43.496204596850475], [51.33957021889337, 43.48722086117182], [51.33599984504514, 43.4811170407129], [51.33672871578727, 43.4768035218272], [51.31119121184803, 43.46154479563871], [51.31291074160245, 43.45764378696695], [51.31381154784077, 43.453401505421176], [51.31422953014874, 43.44895795626466], [51.314070403747344, 43.444273786590266], [51.314230907948925, 43.43972289161739], [51.3147742448172, 43.435331657620914], [51.31583889193716, 43.42219974846478], [51.31637195890899, 43.41785046532449], [51.31663713583427, 43.41333882038987], [51.31578438219377, 43.40760062496853], [51.31495134291652, 43.401248924745566], [51.314746029031596, 43.3952777839361], [51.31470783622519, 43.389407968876], [51.31542523290383, 43.38399644482347], [51.31540407240763, 43.37813698202974], [51.31485430514047, 43.371956819756484], [51.30758075616289, 43.32166853972101], [51.30694596360101, 43.31743052943343], [51.30548625234773, 43.313073320791936], [51.304064248818705, 43.30872150798034], [51.30289644643256, 43.30440638185467], [51.30139984903205, 43.30004369050023], [51.42400044564978, 43.159966939566374], [51.433895238008354, 43.16057872218146], [51.44551376403345, 43.16235847021157], [51.433800107915616, 43.16067572324847], [51.447676164227005, 43.161098409627], [51.4725473311736, 43.16586550375175], [51.477461614541944, 43.162742064534726], [51.51765311588169, 43.17354923709945], [51.57052393422675, 43.18054813259806], [51.58406303583401, 43.18342600046622], [51.59486048995404, 43.18449967109637], [51.606354184720566, 43.186029525059375], [51.61760942682856, 43.18740123136197], [51.55192059281306, 43.13817958747225], [51.55761878716278, 43.13590521525726], [51.56387984536439, 43.134001353877], [51.56584863033004, 43.1325192952034], [51.566066079431124, 43.13050366895024], [51.65016989565938, 43.18215100814173], [51.65180061153267, 43.18050243954875], [51.65383141482094, 43.17757519829547], [51.649996206487984, 43.172938130489776], [51.65127938741776, 43.16979302133539], [51.65627906215787, 43.167731296803034], [51.64766412798781, 43.161700552190915], [51.569585611240434, 43.13537726812492], [51.663082239053296, 43.15895409213701], [51.66289655631647, 43.1553462193456], [51.665856691667706, 43.152953359789876], [51.667936979878526, 43.15075169459739], [51.66876574139879, 43.146600368068405], [51.66321412474948, 43.14032982819405], [51.669235567036736, 43.13750277764084], [51.668493694169236, 43.13266334188693], [51.66677358471577, 43.127532737741504], [51.66992014518725, 43.123850431905296], [51.669910042228246, 43.119710737921835], [51.662824459854654, 43.11305863676796], [51.6567836645585, 43.106706249099595], [51.66084635811827, 43.10326048625989], [51.665638364121, 43.10002451060638], [51.669434605985415, 43.09667556154788], [51.67315215576817, 43.09344449055324], [51.677366832721916, 43.0903563831003], [51.68157994248667, 43.08726779275383], [51.686545152904046, 43.08439542385341], [51.69201144984881, 43.082964249630514], [51.69608017384559, 43.079847209191534], [51.70118211223945, 43.077001893021574], [51.70643734634555, 43.07419678934373], [51.712885233585276, 43.0717051596707], [51.71653826782264, 43.06847857292994], [51.72190652033234, 43.06570285528829], [51.72713093694258, 43.06288921231559], [51.7322207762288, 43.060040093874896], [51.73868808740387, 43.05755279463254], [51.76087659428661, 43.037885281433944], [51.7653076830794, 43.03474116970035], [51.767554416167535, 43.02979941691695], [51.77016303553624, 43.025469771270444], [51.77773708224252, 43.025927278881504], [51.776406289758114, 43.017800556688016], [51.776112503543125, 43.01067338101588], [51.79247153671923, 43.019599768724085], [51.784974567039725, 43.00553090087467], [51.78937216013149, 42.98850395267462], [51.79146942307065, 42.98476035332133], [51.79560184778618, 42.98125140748557], [51.80147334673363, 42.97997069679608], [51.80101922553715, 42.97353402136108], [51.80367702585139, 42.97182782163597], [51.80398433424904, 42.96678074364577], [51.805054107546866, 42.96273541279244], [51.80702573559376, 42.95619803944807], [51.81128500164412, 42.952913358072124], [51.83103441390397, 42.931830556086766], [51.832593701696254, 42.92873260335802], [51.832811229072234, 42.92031612562307], [51.834751605163675, 42.91873037982758], [51.83632713728173, 42.915698777279616], [51.83811605599486, 42.9135135729141], [51.84079634668573, 42.91414285525658], [51.84382583068702, 42.90912488553357], [51.84747942225699, 42.906581414341], [51.85040563779584, 42.90115777732922], [51.83562918564092, 42.91688282289194], [51.84060240096853, 42.91424666584801], [51.843319118089845, 42.90903245102537], [51.84861282220858, 42.906763243272316], [51.85262559297569, 42.90303079006475], [51.85549126328382, 42.89798818552163], [51.86001936421881, 42.89484536204978], [51.86384178213139, 42.890896715514316], [51.86760141141488, 42.88687676923343], [51.8578878341273, 42.89701129601788], [51.86000826459808, 42.8926588595691], [51.86475260324631, 42.889923606347], [51.86809336066847, 42.88632350739587], [51.871421530444096, 42.88271579370527], [51.8741646279125, 42.87874769285554], [51.87742259426788, 42.87509701100348], [51.88041459957994, 42.87128258757405], [51.88232426591798, 42.866801364129714], [51.88414451888472, 42.86226517498896], [51.89422384961177, 42.84655330244555], [51.89792510470182, 42.84286631634727], [51.901506401825756, 42.839077894356116], [51.905160257425706, 42.83535123840056], [51.909862066832446, 42.832513139268556], [51.915759486106474, 42.8306885679605], [51.92366458344611, 42.83056533093597], [51.928818447883316, 42.83117623281542], [51.93411791516675, 42.83237792949735], [51.939408756603186, 42.83357190176116], [51.95062005130666, 42.83712512458064], [51.96137350338126, 42.84107472569422], [51.974825851866854, 42.84616352817631], [51.98662526039198, 42.849785333506915], [51.99754589143829, 42.852626895162516], [52.00887127480776, 42.85582467127218], [52.019695340187724, 42.8585768562305], [52.03015477907815, 42.86100473612146], [52.04116935330582, 42.86392169534903], [52.0275895277539, 42.860522549012266], [52.04929107056108, 42.86595161732137], [52.0672495182957, 42.86980441512853], [52.067362788659516, 42.71074568083932], [52.09706132644476, 42.72178586482359], [52.090530020909526, 42.69633025652068], [52.12234348326866, 42.709681227041024], [52.10599712051174, 42.716425986825286], [52.12493511435836, 42.7080615895882], [52.1305672253886, 42.70566468894156]]}, "properties": {"year": 2025, "sensor": "COPERNICUS/S2_SR_HARMONIZED", "scale_m": 30, "n_scenes": 94, "date_window": ["2025-07-01", "2025-08-01"], "otsu_threshold": -0.0117, "data_quality": "good", "length_km": 461.7}}]}