{
  "type": "FeatureCollection",
  "crs": {
    "type": "name",
    "properties": {
      "name": "EPSG:4326"
    }
  },
  "features": [
    {
      "type": "Feature",
      "geometry": {
        "type": "LineString",
        "coordinates": [
          [
            51.33380616339919,
            43.51473286424573
          ],
          [
            51.33423119154222,
            43.5137758257539
          ],
          [
            51.3376906676996,
            43.50986865883929
          ],
          [
            51.33669240348652,
            43.505132166702275
          ],
          [
            51.33912896534585,
            43.50103473558653
          ],
          [
            51.34033329082591,
            43.49670806016123
          ],
          [
            51.34342105953408,
            43.48882417814785
          ],
          [
            51.342390026650754,
            43.483778045651036
          ],
          [
            51.34236064654876,
            43.47914892905418
          ],
          [
            51.34424073637101,
            43.47531495918482
          ],
          [
            51.34064162500352,
            43.469199202315615
          ],
          [
            51.314813060827724,
            43.44920125425955
          ],
          [
            51.3147847443706,
            43.44457164873705
          ],
          [
            51.31508033198471,
            43.44007710483968
          ],
          [
            51.3153919642792,
            43.43558926526193
          ],
          [
            51.316877066260545,
            43.42282902506989
          ],
          [
            51.317111832265454,
            43.418298959666295
          ],
          [
            51.31696953122817,
            43.4135403262549
          ],
          [
            51.61753158730193,
            43.18735010456049
          ],
          [
            51.60715262068711,
            43.18655410214145
          ],
          [
            51.59514429422384,
            43.18468619012467
          ],
          [
            51.583984313771154,
            43.18337424884859
          ],
          [
            51.5707307695402,
            43.180684155547695
          ],
          [
            51.66529684508522,
            43.166840394468
          ],
          [
            51.665380248673785,
            43.16334576419213
          ],
          [
            51.66572821627825,
            43.15974118873733
          ],
          [
            51.666920004844194,
            43.156543119410685
          ],
          [
            51.668671081482366,
            43.15379055658785
          ],
          [
            51.66890546065932,
            43.15103978931044
          ],
          [
            51.66965896500335,
            43.14686608747221
          ],
          [
            51.66923478103387,
            43.1421212248165
          ],
          [
            51.67180095074316,
            43.138266017331425
          ],
          [
            51.67104064056018,
            43.133421177682706
          ],
          [
            51.67037954671935,
            43.128605814125095
          ],
          [
            51.6717025284767,
            43.124380835411465
          ],
          [
            51.67090667159196,
            43.11999728775817
          ],
          [
            51.662938866817534,
            43.1130915433922
          ],
          [
            51.660894400901775,
            43.10327430796407
          ],
          [
            51.6655754529308,
            43.10000641333677
          ],
          [
            51.669515815634725,
            43.09669892076538
          ],
          [
            51.673377476039796,
            43.09350929678286
          ],
          [
            51.678035911510996,
            43.09054880228359
          ],
          [
            51.6824159796142,
            43.08750820340774
          ],
          [
            51.687518409827675,
            43.08467525748089
          ],
          [
            51.6927005800954,
            43.0831455443199
          ],
          [
            51.69696583877998,
            43.08008018352629
          ],
          [
            51.701775237702556,
            43.07715789341209
          ],
          [
            51.706304388083026,
            43.07416182413807
          ],
          [
            51.71409572197894,
            43.072023419940834
          ],
          [
            51.7182943969899,
            43.068940249137995
          ],
          [
            51.72337243073331,
            43.06608817751157
          ],
          [
            51.72783843898245,
            43.06307515830036
          ],
          [
            51.7327398287024,
            43.06017649253533
          ],
          [
            51.73754480845022,
            43.057252409040466
          ],
          [
            51.761408787352735,
            43.03839838933406
          ],
          [
            51.76528389771622,
            43.034718238355026
          ],
          [
            51.76808659358901,
            43.03031249459331
          ],
          [
            51.77117979790362,
            43.02645004047181
          ],
          [
            51.773591809062005,
            43.02193114301568
          ],
          [
            51.77700829854415,
            43.01838094843953
          ],
          [
            51.7787655636721,
            43.01323139151575
          ],
          [
            51.78225559606013,
            43.009752693118955
          ],
          [
            51.78563301578422,
            43.00616570135779
          ],
          [
            51.79331772920843,
            42.98738776512068
          ],
          [
            51.797047775888544,
            42.98330672452435
          ],
          [
            51.801611253220166,
            42.98016670165276
          ],
          [
            51.803002117571715,
            42.976352486752226
          ],
          [
            51.80380141260487,
            42.972004623961666
          ],
          [
            51.80406537635128,
            42.96689594511028
          ],
          [
            51.81168512505306,
            42.95348214073054
          ],
          [
            51.83628530171892,
            42.91763259643175
          ],
          [
            51.84096096037263,
            42.914656375534705
          ],
          [
            52.03552765657717,
            42.863154805523166
          ],
          [
            52.03133448226443,
            42.86204791862595
          ],
          [
            52.020338689140424,
            42.859145926741625
          ],
          [
            52.01003565552045,
            42.85685492371696
          ]
        ]
      },
      "properties": {
        "id": "main_shoreline"
      }
    }
  ]
}