{"type": "FeatureCollection", "crs": {"type": "name", "properties": {"name": "EPSG:4326"}}, "features": [{"type": "Feature", "geometry": {"type": "MultiLineString", "coordinates": [[[50.24108514479807, 44.48571507987421], [50.241260344335124, 44.47708382109325], [50.24214959894238, 44.46931733208358], [50.24301109109987, 44.461517503777685]], [[50.24136540549197, 44.48636037995287], [50.24125092817622, 44.48087121704877], [50.24127381268332, 44.47544875685805], [50.24200729415097, 44.47037145162769], [50.242761449467615, 44.465304243291754], [50.243424965730846, 44.46019305983983], [50.24381063386308, 44.454946942051095], [50.24397364944428, 44.44959267574943], [50.24385479326768, 44.444101457746626], [50.245983181096655, 44.43970225003689]], [[50.322990387348135, 44.32956599687134], [50.32979409079463, 44.32710923856311], [50.335088854931826, 44.32406154060643], [50.340113333408794, 44.320907996939624], [50.34759463445039, 44.318716090909206], [50.35746459282984, 44.31745862960802], [50.36256328648884, 44.31433381198908], [50.372084268225755, 44.31293895092731], [50.3785371917517, 44.310343589374206], [50.38121301071779, 44.306270936580255], [50.43535771503113, 44.29746898713471], [50.44410926813547, 44.29739444943101], [50.45251923930409, 44.29708468028416], [50.46072978807795, 44.29663742660339], [50.46855962852238, 44.29592832079913], [50.47718587190205, 44.29576540420663], [50.48482508143535, 44.29492456489954], [50.49241938468071, 44.2941320996495], [50.49942349216841, 44.29417792934525], [50.5307517524095, 44.29197912929134], [50.53679659651874, 44.29121889383223], [50.543934348863324, 44.292069725919376], [50.550296964923646, 44.29177737922293], [50.55663920078078, 44.291454734745415], [50.562758367575924, 44.290803184937324], [50.56885762523673, 44.290122174969795], [50.57432876798898, 44.28851593701738], [50.58086450083171, 44.28847758922434], [50.587301303545075, 44.28829322451295], [50.612248896309424, 44.285515466857355], [50.61837324219356, 44.28422300476401], [50.62447645847956, 44.2827706627411], [50.63050770755578, 44.28077032663908], [50.63661872292403, 44.27938186960615], [50.642923880686446, 44.279476515512975], [50.64913158964871, 44.27882775860098], [50.655322925801414, 44.27805497155242], [50.661406116438826, 44.27645992744048], [50.66759091865282, 44.27563986545424], [50.670399570644456, 44.275197019966924], [50.67657484116566, 44.27445708984519], [50.68228750198118, 44.271542634433004], [50.68040488715761, 44.27343130318267], [50.677043006678964, 44.27372129581223], [50.67389088613326, 44.274998178786866], [50.67050713593489, 44.27518563080158], [50.66718292362504, 44.27565332997675], [50.6638762387427, 44.27620370194751], [50.6605800755701, 44.27680381808365], [50.64717264383417, 44.279057196813014], [50.64700295598204, 44.279034097154664], [50.64692011541415, 44.27908439319463], [50.64683808636138, 44.27913537511734]], [[50.87226175018798, 44.11346482690082], [50.87286536742176, 44.108532651570705], [50.87355717863638, 44.10354573898483], [50.87424887260255, 44.09855881770356], [50.90561333962572, 44.012290261569454], [50.912000058847845, 44.01176370513605], [50.9186974478095, 44.00952636723574], [50.92562093411273, 44.00604061805575], [50.93257470842361, 44.00238304310328], [50.93998598817339, 43.99619680764884], [50.94755282739042, 43.98874775450877], [50.94578791846992, 43.99059424561783], [50.94416412560721, 43.991661342255824], [50.94241099840714, 43.993441717024815], [50.87332531454183, 44.06575389124409], [50.873863156080176, 44.06163504481282], [50.870513609877456, 44.05629781520475], [50.869338787072586, 44.05164206545719], [50.86937649215239, 44.047366387228095], [50.86834502242149, 44.04275548338056], [50.868312969315255, 44.03845790501082], [50.868106948968105, 44.03410576790446], [50.87009377060025, 44.030441298323275], [50.87234017397837, 44.02772448385143], [50.87015114399091, 44.03030747302169], [50.87195064976563, 44.02853108913705], [50.872824359762255, 44.026559038072456], [50.87281426911825, 44.02440019927643], [50.875854529980835, 44.02212541639175], [50.88104895564934, 44.018810606508154], [50.88639007772791, 44.01552667117386], [50.891375008127916, 44.01216737283087], [50.908715707658146, 44.011416579615776], [50.91953012938128, 44.009286640947145], [50.94157241326205, 43.993775811881], [50.94579016730305, 43.990508409526676], [50.949026613515656, 43.9865731970266], [50.9514070439719, 43.98205548670463], [50.95550820293584, 43.978709281671], [50.95967513263012, 43.97540800812397], [50.963744522515384, 43.972040506659354], [50.967187446243514, 43.96824679422616], [50.9712395923793, 43.96486790655394], [50.96733422492097, 43.96810030719319], [50.97140644027903, 43.96461711770772], [50.97588608424652, 43.961291151655196], [50.97900742388848, 43.9574411928494], [50.98165672850725, 43.953409198260644], [50.98533024438144, 43.949772394010765], [50.98807551712121, 43.9457775647975], [50.99134475312236, 43.94198493067462], [50.99330445703494, 43.93768720942698], [50.994557827291636, 43.93312589570911], [50.99214280079916, 43.94034754050005], [50.9940796202844, 43.93603477977622], [50.99514965861619, 43.93161279465917], [50.99619990239293, 43.92718832166459], [50.996977561091036, 43.92272950517754], [50.99782381949155, 43.918279339422824], [50.99811658436262, 43.91375942672569], [50.99818233126576, 43.909210903306075], [50.99880052259302, 43.90473055758541], [50.99982886116777, 43.90029634111061], [51.00320943673877, 43.88905061110444], [51.0051347488628, 43.88481359595642], [51.00586173526887, 43.88024122121443], [51.007441811179426, 43.87590765512689], [51.008018778022695, 43.87129334514455], [51.009715688051585, 43.86699255681998], [51.0116908953596, 43.862769710244415], [51.01259467045302, 43.858246980717404], [51.01337530409966, 43.853689805614714], [51.017836908779174, 43.8346903883252], [51.02030821413444, 43.830992439519775], [51.022551526826255, 43.82707603096851], [51.023892359679955, 43.822180860232464], [51.02510184118684, 43.81720276158208], [51.02424504291892, 43.81091825286509], [51.027371294418806, 43.80715235594674], [51.03003358987068, 43.80309325197859], [51.03119816528939, 43.79808724073547], [51.034912305806294, 43.79469359223763], [51.03834679136152, 43.79099771989552], [51.04170669336846, 43.78738231458406], [51.04475121823927, 43.7835668171224], [51.04888791974127, 43.780444942021326], [51.052476508389056, 43.77697519360035], [51.055485241398756, 43.77313744858417], [51.06003187754858, 43.77027624312389], [51.06360893403587, 43.766799613124086], [51.06796498800845, 43.76381765037472], [51.07071694748177, 43.75981753635853], [51.052321822938886, 43.77691686334357], [51.055591273894755, 43.772830424350055], [51.06157971543338, 43.76871323099148], [51.067023238036164, 43.76460188951852], [51.070084821652664, 43.7605173651514], [51.07208651066352, 43.756444817679736], [51.0746033488449, 43.7523663564932], [51.07644922393389, 43.74829549729814], [51.11850702502249, 43.6808855160544], [51.12202211846589, 43.6773754304041], [51.12661504812549, 43.6710552679689], [51.131332510865484, 43.66519417589815], [51.135529853120104, 43.65743315319143], [51.14038250976564, 43.65207332605904], [51.14525120689351, 43.646775110769134], [51.14991327709468, 43.64072423421625], [51.11275341541423, 43.6973346301372], [51.113721474636066, 43.69430065488486], [51.11473376213677, 43.69128655996381], [51.113996418061056, 43.68781365434122], [51.11607634954706, 43.686832416982945], [51.116457197091854, 43.68508872785985], [51.11693193986443, 43.68338718318237], [51.117956429793736, 43.68193235345556], [51.11870440449753, 43.680353447986114], [51.11937636649717, 43.678740443056924], [51.07572669503911, 43.75017108721701], [51.07740148814321, 43.74594147327917], [51.078062280950704, 43.74507301319282], [51.078419488456106, 43.74432753290883], [51.07887317650098, 43.743542959939155], [51.078217777059336, 43.74320771698349], [51.079629824963106, 43.74203486245692], [51.13769522884953, 43.65438129815787], [51.139624392167256, 43.652665590400005], [51.14107671228711, 43.65078254393157], [51.14317536472823, 43.64912633186098], [51.145247107437775, 43.64746067825616], [51.14653724766236, 43.64552075306147], [51.14841787137823, 43.643788049025346], [51.14999696862177, 43.641949546221], [51.15147549922927, 43.64007576652736], [51.1623292664135, 43.628970681395415], [51.16382016321807, 43.62663668423663], [51.17783013735217, 43.62993151030858], [51.183254289253064, 43.62936552754672], [51.18686550961175, 43.62881969116746], [51.18886724978386, 43.62821518775822], [51.19045151113535, 43.62742305942368], [51.19183755410265, 43.626541853473206], [51.19399096425574, 43.62600547319591], [51.19534951541872, 43.62511190888609], [51.21096115707059, 43.61784808372398], [51.21142785742828, 43.617365746968964], [51.21184666458234, 43.616853435615695], [51.2125903361631, 43.616544465108205], [51.213010066692725, 43.616032737144586], [51.21251434166617, 43.61494800935741], [51.21316409496228, 43.61458026559562], [51.21574898032586, 43.61542371769697], [51.218561985206094, 43.612887805298556], [51.21939057562412, 43.607529683806234], [51.2138630988523, 43.61553440208905], [51.23865664118009, 43.61825420595292], [51.2445904669396, 43.615368845707096], [51.24737165073445, 43.611565884985865], [51.25467212851009, 43.609210712514354], [51.26058177636515, 43.606681163816106], [51.26765622695912, 43.6044902559554], [51.27463646380914, 43.597741372788256], [51.267759098926554, 43.59339688076811], [51.280370097155775, 43.58649246505772], [51.284952187114186, 43.582923341812716], [51.28579824400219, 43.57910163696641], [51.286305076052635, 43.57525700507907], [51.29532698262982, 43.56810868471665], [51.29962445065742, 43.564519904897885], [51.326772836224855, 43.53846700290313], [51.328365874946, 43.52041122027097], [51.32988821126965, 43.5176337739133], [51.32998199783922, 43.510501501419355], [51.33020167247668, 43.50445306147844], [51.33332349808875, 43.501615114321474], [51.312729263230366, 43.51814801027157], [51.32888934927744, 43.5202717291843], [51.32846854322497, 43.51930876931483], [51.33265974816844, 43.51348343998864], [51.33366941085676, 43.50912048723373], [51.332871618836364, 43.504421204821654], [51.33767647321885, 43.50076449074546], [51.33926316791523, 43.49650895679504], [51.33920200028031, 43.48706754020655], [51.33936715305975, 43.48251933195376], [51.33822279343716, 43.477425772624755], [51.339588989242486, 43.473377757166894], [51.344973246604, 43.47100317338703], [51.33363736739264, 43.46166441395108], [51.31514558958863, 43.44933989699453], [51.31473862306815, 43.444552417533124], [51.314970935910345, 43.44003148682707], [51.315208578268305, 43.435512788344674], [51.31671464232719, 43.42273057528956], [51.31709758556376, 43.4182903237492], [51.31697333004539, 43.41354262917343], [51.31624209146782, 43.4078781309153], [51.31533588887859, 43.401482102149444], [51.31472324350715, 43.395263965912285], [51.315828977671195, 43.39008792652012], [51.31629378291571, 43.384523249911496], [51.31629531793506, 43.3786776058535], [51.31579860180003, 43.37252969050801]], [[51.3087700559753, 43.3218403116878], [51.30772506221688, 43.31754306963755], [51.306506021475144, 43.31322064890145], [51.30541416366007, 43.308916562611735], [51.30364392392012, 43.30451440582945], [51.30252098211845, 43.30020573967236]], [[51.42650216873189, 43.16166430043087], [51.4374746224186, 43.163006604880714], [51.44748283461616, 43.16369370991484]], [[51.43894354051472, 43.16271067552897], [51.45660167812038, 43.16462804973983], [51.47293810309879, 43.166019937652], [51.48188786412894, 43.164491049609595], [51.518168585089114, 43.17375266260075], [51.570588913363544, 43.18059086551281], [51.58399895972628, 43.18338387706073], [51.59462337738802, 43.184343836904254], [51.60691363784702, 43.18639709056237], [51.617423527938996, 43.18727912844032]], [[51.65724537684455, 43.18208921030436], [51.660008714931905, 43.17937538799719], [51.65713535777642, 43.1750190237855], [51.656263714213, 43.171245909005556], [51.665763213779904, 43.17049521353598], [51.66525455688893, 43.16682807198674], [51.66532653429051, 43.16333011131728], [51.665341913082216, 43.15962628055103], [51.66677870863191, 43.15650108965531], [51.66823467516019, 43.15366074481902], [51.66873227284616, 43.1509882718045], [51.669104117296015, 43.146701030456256], [51.66902402370151, 43.14205852286077], [51.671709817024066, 43.13823890501538], [51.67129237701729, 43.133496076950784], [51.67022236699776, 43.128559043129435], [51.67137110537712, 43.124282212982514], [51.67083458442885, 43.11997656171481], [51.662885095529866, 43.113076077293165], [51.657108537948986, 43.10679972114959], [51.66061415163312, 43.103193681069506], [51.665613199640525, 43.100017271702725], [51.66945290674612, 43.09668082560198], [51.673237937542005, 43.093469163028466], [51.67789866424178, 43.09050933200367], [51.68227073056514, 43.08746643619885], [51.68741090510675, 43.08464434794884], [51.69246239032765, 43.083082882534654], [51.69688605929078, 43.08005919787076], [51.7011797998653, 43.077001284826856], [51.70627085950128, 43.07415300680074], [51.71354770564251, 43.07187933809436], [51.71820306375779, 43.06891623899792], [51.72334699680198, 43.06608149227166], [51.727862716088204, 43.063081538721555], [51.73266237529367, 43.060156139211124], [51.737048890067555, 43.05712210675323], [51.761344864251846, 43.038336759192354], [51.76516943090445, 43.034607881183426], [51.76799368487894, 43.03022292116316], [51.771019254319555, 43.02629526175259], [51.77338147516892, 43.021728358398576], [51.77707072973587, 43.01844113702411], [51.77854260894185, 43.01301643512747], [51.782128512065164, 43.009630171832924], [51.785660513375284, 43.00619221099824], [51.79026985325123, 42.98978007510955], [51.79323161397952, 42.98726535597061], [51.796808563486145, 42.98296670652733], [51.80161800784627, 42.98017630188603], [51.802976225667834, 42.97631568613811], [51.803808166657284, 42.97201422408375], [51.80410026957253, 42.966945545721714], [51.80536757128761, 42.963181015599964], [51.80750293758882, 42.956876436137485], [51.81172114215192, 42.953533339095216], [51.83106300140925, 42.93194388571104], [51.832713641524016, 42.92920805504992], [51.83406148149137, 42.92527250758586], [51.835059823848944, 42.91995220699772], [51.83674057535501, 42.917337614091736], [51.8384459812328, 42.914821273213484], [51.84084773140956, 42.91434649051332], [51.844136858725946, 42.91035731355674], [51.84753305704953, 42.90679390031111], [51.8508247090098, 42.9028178134982]], [[51.86026062135601, 42.89512098628108], [51.86392529439346, 42.890992121235016], [51.86782941437378, 42.88713723452622], [51.858274549366435, 42.8972496168057], [51.86047567885375, 42.892946918519634], [51.86509049328785, 42.89013182801535], [51.86855419374083, 42.88660748519092], [51.871879535818216, 42.88299802337008], [51.874829087344615, 42.87915714116592], [51.87775012133766, 42.8752988349537], [51.88051032045613, 42.871341571034414], [51.88279627732084, 42.867092225327276], [51.884731920259355, 42.862627152221705], [51.89487280414758, 42.84710345004565], [51.898245967477216, 42.84313832029957], [51.901933144156104, 42.83943964634258], [51.90601855012205, 42.8360787937533], [51.910728395896996, 42.83324745880684], [51.91658735249852, 42.83139020840429], [51.92420612045237, 42.83102421552635], [51.92930546846211, 42.8315888668175], [51.93427679233405, 42.83251252111494], [51.94009167449171, 42.834150339908255], [51.95144935743123, 42.83786016859462], [51.962027865241986, 42.84165452333708], [51.97571187008405, 42.84694825963401], [51.987136808327094, 42.850238249660165], [51.99823278809945, 42.85323487079212], [52.00980324578541, 42.85664928964479], [52.020299555654006, 42.859111311855415], [52.03103231162836, 42.86178072113781], [52.04209326012755, 42.86473843019859], [52.0292365525881, 42.86133967245651], [52.05206831369035, 42.86732854771229], [52.06941205568363, 42.87087602873332], [52.04996677976031, 42.85733502315598], [52.050428806087346, 42.85229039223165], [52.079347894145506, 42.86135223547197], [52.088423587182646, 42.860576194180126], [52.09551206324376, 42.85881534754403], [52.04160545154869, 42.82681752539625], [52.0317557869145, 42.81665432961451], [52.10194333050638, 42.84299413102387], [52.11393494529882, 42.84673968922531], [52.06134229094626, 42.791829473275904], [52.10182605927343, 42.82147552194021], [52.0716236231706, 42.78689521617476], [52.08241871737069, 42.789568157987325], [52.08646283200671, 42.7861043793398], [52.09161645394417, 42.78364919189386], [52.11872605785191, 42.80113702990377], [52.102584501607154, 42.77933966779355], [52.10814826743826, 42.761560984390265], [52.120042652975755, 42.75905568573806], [52.13396983725524, 42.76772965494001], [52.17170934080201, 42.80598007341702], [52.152667475912025, 42.77367904675723], [52.1589923741382, 42.77284462028813], [52.16298586986825, 42.76902565179354], [52.16527672884364, 42.763091296284976], [52.15943242572283, 42.747045127265224], [52.08277945095307, 42.787111217167], [52.09572802232365, 42.783270862523935], [52.10298823206716, 42.7791433014254], [52.10512959250995, 42.77489999460314], [52.14662209858612, 42.77514217080521], [52.16412076423937, 42.774178308597136], [52.21802250506675, 42.77501122676155], [52.222852551989995, 42.773413579481314], [52.23006888851241, 42.77193309585197], [52.23032949122047, 42.76806053424867], [52.23415264688348, 42.7657146183583], [52.23188723691255, 42.76084567166234], [52.22980057949677, 42.75585625136082], [52.242157137043336, 42.75673058551296], [52.24105261198631, 42.75153678369669], [52.23421631848107, 42.74354180163069], [52.23406789037836, 42.738318514536665], [52.2367737981822, 42.734278563447035], [52.22852212830438, 42.72569527310762]]]}, "properties": {"year": 2015, "data_quality": "good", "length_km": 390.6, "spatial_outliers_removed": 33, "n_segments": 9}}]}