{"type": "FeatureCollection", "crs": {"type": "name", "properties": {"name": "EPSG:4326"}}, "features": [{"type": "Feature", "geometry": {"type": "MultiLineString", "coordinates": [[[50.24075615232997, 44.48531678162472], [50.24120146652218, 44.47701253046701], [50.24181685044124, 44.468914386976486], [50.242785870932714, 44.46124474254931], [50.24397918024016, 44.45384706252523]], [[50.24088980542274, 44.48612942851851], [50.24126757788313, 44.48087930285372], [50.24127069115043, 44.47544724077054], [50.241856432312105, 44.47029817495601], [50.242476395626696, 44.46516577740218], [50.24296101130465, 44.45996767615311], [50.2437700671916, 44.45492723382984], [50.24294606075249, 44.44909339804714], [50.24244875598285, 44.44341823212024], [50.24572008149613, 44.43957440411895]], [[50.32226703059978, 44.32928271774066], [50.32910926581582, 44.326841091182985], [50.33316104196094, 44.32330675429054], [50.33977093217068, 44.32077395462591], [50.347169655084514, 44.31854975086524], [50.35610042182469, 44.316924815746404], [50.3624267606834, 44.31428039432859], [50.370036324106444, 44.31213783901903], [50.376983612409546, 44.30973595500342], [50.38062177395782, 44.30603969873032], [50.43486856896155, 44.297132936664006], [50.443335616692394, 44.29686304973666], [50.45217314566265, 44.296847007540585], [50.46067451671804, 44.296599477641415], [50.46801140469298, 44.29555197788772], [50.47694390380763, 44.29559933415768], [50.48453777944932, 44.294727414615146], [50.492159252389605, 44.29395362432877], [50.499171496429845, 44.29400506617645], [50.530279212012665, 44.29128223832533], [50.53664400008067, 44.29099388958966], [50.543759213434704, 44.29181154841792], [50.55021240351472, 44.29165274649148], [50.55632891332329, 44.29099749498792], [50.56214649697556, 44.28990168530015], [50.56870271151856, 44.28989397617323], [50.57410406380211, 44.28818497834214], [50.580728227357945, 44.288276917887856], [50.5869314405668, 44.28774868097743], [50.61223181040148, 44.285384598033474], [50.618355088982256, 44.284084069575215], [50.62446122148579, 44.28265413719736], [50.63050888051434, 44.28077929008653], [50.636583507231336, 44.279112967897376], [50.6428779453955, 44.27912604936337], [50.64908291372018, 44.278456679270256], [50.655307511307214, 44.27793755351526], [50.66136172207203, 44.27612201661412], [50.66756404892331, 44.27543550695488], [50.67034642712687, 44.27494693366561], [50.67640587478934, 44.27366234026449], [50.68222882180916, 44.27126674428304], [50.68021164622076, 44.272522642649506], [50.676984348949006, 44.273445403140435], [50.67389864234325, 44.275034668015046], [50.67045399197079, 44.27493554454845], [50.667165150461685, 44.27556967073756], [50.66385657983592, 44.2761111422443], [50.66049881455016, 44.276421117039725], [50.64658338423458, 44.278559201855884], [50.6465005439805, 44.27860949759676], [50.6464177035852, 44.27865979327668], [50.64622042134006, 44.27861337026692]], [[50.871671169143845, 44.1132011152487], [50.872542484503136, 44.108388465895125], [50.87299430311217, 44.103294365291106], [50.87371577576231, 44.09832072726776], [50.87420988920018, 44.09324558408986], [50.90569989963186, 44.011814459352806], [50.91208234714959, 44.01131110810101], [50.91873751081099, 44.00930586879966], [50.92568155378458, 44.005706742011036], [50.93248789110513, 44.002861544795685], [50.94006221581002, 43.99577632768615], [50.94754619729708, 43.988784357284665], [50.945812664783936, 43.99045765519461], [50.94427671512341, 43.99103999139832], [50.94259221066193, 43.99244184510487], [50.8730951322926, 44.065681759136254], [50.87354939628706, 44.061536716787614], [50.87072543280917, 44.0563642103225], [50.8697635425054, 44.051775218622026], [50.869315817310145, 44.04734736522953], [50.86838623212472, 44.042768404343285], [50.86826031631058, 44.03844139484763], [50.86782996926674, 44.03401890927699], [50.870235687151926, 44.03048580168848], [50.87254274163803, 44.02778800480184], [50.870305632782156, 44.030340125686855], [50.8721147154201, 44.02856576418901], [50.872541744648, 44.026499307464356], [50.872477777811774, 44.024329079236075], [50.87499596336984, 44.02194396723491], [50.88077954042148, 44.0187536793173], [50.886311052060556, 44.01550997628467], [50.89104933946058, 44.01209858348073], [50.908243944056345, 44.01131700747714], [50.919164930539694, 44.00920959569751], [50.94137823611997, 43.99364362667287], [50.94575296531828, 43.99048308570781], [50.94889686415318, 43.98648487605059], [50.9510867698413, 43.98183746983337], [50.95510355476574, 43.978433841139775], [50.9596152521872, 43.97536725011728], [50.96342607155062, 43.971823759019934], [50.966761041304316, 43.967956574799125], [50.97068527251952, 43.96449064042098], [50.966859224828596, 43.96791702593322], [50.970719252460746, 43.96435197754246], [50.97553755115117, 43.9611566866687], [50.9793251590034, 43.95756377127409], [50.98102129426009, 43.953164053318936], [50.98483224911856, 43.94958028103393], [50.98785895990693, 43.94569402439052], [50.99148325623937, 43.94203835846666], [50.99334622531088, 43.93770332188401], [50.994588601810904, 43.93313776771919], [50.99215139335812, 43.94034862336021], [50.99409925908049, 43.93603725455313], [50.99522329881961, 43.9316220743725], [50.99576913863926, 43.927134038308914], [50.9967848972645, 43.922705226081675], [50.99759803883727, 43.918250886558575], [50.99784296859612, 43.913724943708075], [50.99808418056867, 43.90919853283891], [50.998150322904706, 43.90464860512304], [50.99919220204634, 43.9002160952534], [51.003042245082455, 43.88900381689925], [51.00496292362882, 43.88476550476744], [51.005484444279475, 43.88013561753719], [51.00726420558406, 43.87585794273757], [51.0076287716348, 43.87118417435408], [51.00922821147334, 43.86685610025658], [51.01141351472011, 43.86269206495233], [51.01230918608108, 43.85816706347723], [51.01298192143315, 43.85357967816887], [51.01778444461628, 43.83465722184167], [51.0199072538144, 43.83073896071101], [51.02549032207006, 43.82893378881156], [51.02454057762676, 43.822590667774676], [51.02473841895316, 43.81697298711577], [51.02401184201445, 43.810770792725776], [51.027332896944735, 43.80712807642854], [51.02996054394165, 43.80304706333236], [51.030811425294644, 43.79784268095773], [51.03379893462319, 43.79398955281132], [51.03741211553388, 43.79040421730005], [51.04042715850751, 43.786569844670616], [51.0442969889994, 43.78327840089134], [51.04867108728821, 43.780307269844116], [51.05210920959083, 43.77674199282231], [51.05547683021469, 43.77313210833936], [51.059647768201486, 43.7700323864638], [51.06362014872807, 43.76680673266049], [51.06722576147596, 43.7633483797428], [51.07054219275707, 43.75970660083348], [51.05204102015547, 43.776920008867044], [51.055982631354276, 43.77282602776734], [51.06161698497426, 43.76871281037541], [51.066171067009954, 43.76461154484793], [51.069800370125016, 43.76052059660182], [51.07182567771507, 43.75644778560366], [51.07238020973348, 43.75239168429484], [51.07587050220579, 43.74830210450228], [51.12662469991063, 43.67109059607225], [51.13133588962547, 43.66520654060697], [51.13558078236693, 43.65761950537908], [51.14007542989586, 43.65094992526099], [51.14508338737887, 43.64616130969844], [51.112112753037415, 43.69704715930878], [51.11367714716444, 43.69428076446639], [51.11497649799308, 43.69139548129676], [51.11616182920503, 43.6868707753262], [51.11632845352634, 43.68503095385122], [51.117396251474254, 43.68359554539459], [51.118019743774965, 43.68196076603721], [51.118281266343686, 43.68016355903257], [51.14430030305853, 43.689920606541186], [51.07565296311963, 43.7502009528136], [51.07654170952505, 43.74628976868243], [51.07699760528599, 43.74550432498229], [51.07719003259177, 43.74482560879576], [51.077467020895604, 43.74411263329837], [51.07770172056065, 43.743416786611995], [51.077874618690366, 43.74274597498431], [51.077484558123594, 43.744289465620334], [51.136961682674496, 43.654123849103684], [51.13876357953873, 43.65236348375555], [51.14095390083178, 43.65073944375665], [51.14239385226001, 43.64885207001073], [51.14423339134967, 43.64710493866795], [51.14574348638984, 43.645242204462605], [51.14774357661607, 43.64355143119372], [51.14965201327813, 43.64182850026004], [51.150988777494256, 43.63990497620464], [51.16203521735052, 43.62883844247497], [51.1709397191974, 43.62983805919289], [51.17672230866096, 43.629433509535446], [51.18124307309642, 43.62846153746783], [51.18497126291642, 43.627968352497845], [51.187299767727474, 43.62751074294189], [51.18866372263767, 43.62661962679455], [51.19038287042585, 43.62588813667701], [51.19214308668006, 43.62517509493529], [51.19392118112552, 43.62447007867605], [51.21083346102832, 43.6177681555382], [51.21137903258665, 43.61733518640552], [51.21176403830165, 43.61680171802409], [51.211941534223044, 43.61613836704911], [51.21242229739991, 43.61566484161594], [51.21270118563039, 43.61506496037271], [51.21284298773551, 43.61437927549353], [51.21155111135849, 43.61279617768522], [51.21844180114634, 43.61281258669912], [51.21875966339879, 43.60713478882635], [51.212647275188964, 43.615180161755845], [51.21888911628026, 43.61249788953048], [51.218491596468965, 43.60776908195338], [51.21569746258967, 43.60234191621604], [51.2195469194472, 43.5989832523482], [51.22213139995011, 43.59548659758243], [51.228428598889934, 43.5930716161048], [51.232678480509854, 43.59006010526087], [51.240186662542975, 43.58799750118288], [51.230135165939565, 43.59472157684258], [51.27543650257045, 43.59391658052621], [51.283948031718175, 43.59061324635039], [51.25537507845128, 43.58479944205583], [51.296802026334646, 43.58372361108552], [51.2900775983741, 43.57939077118834], [51.289686412567164, 43.57548547849096], [51.29076265648675, 43.571679310979704], [51.292176612686866, 43.56789595014358], [51.29832984639053, 43.5644325386522], [51.32863018537829, 43.5306272155169], [51.32896262831328, 43.51760713760401], [51.32977520918545, 43.51666118970504], [51.33349074969155, 43.50305425020499], [51.328397816717676, 43.51929560777084], [51.32954737037096, 43.51745514344313], [51.33164089513711, 43.513293857169785], [51.33291670964457, 43.508980426236725], [51.332456946806744, 43.50434403500723], [51.33599389939453, 43.5004514117042], [51.33824458035754, 43.49631943138154], [51.33935444041373, 43.48713101433725], [51.33663422240534, 43.48138123520154], [51.32247318980095, 43.47086477487664], [51.31136179729777, 43.46161591122193], [51.31298047406812, 43.45767285838859], [51.313985331614624, 43.45347395898804], [51.31459959961528, 43.44911225405455], [51.31454877522315, 43.444473256333374], [51.314611646035395, 43.439881662219676], [51.3149651367317, 43.43541126589698], [51.31635465197539, 43.422512372895504], [51.31673572069738, 43.41807097085161], [51.31676819432658, 43.41341827139083], [51.31582711421067, 43.407626533278716], [51.315329242380145, 43.401478071933845], [51.31507547089542, 43.395477569015945], [51.3151710990868, 43.38968893494432], [51.31563501245895, 43.38412368469809], [51.315744812971914, 43.37834367503708], [51.31536393841776, 43.372265998219916]], [[51.30833692262048, 43.32177775527498], [51.307435924354884, 43.317501304561226], [51.305891498095505, 43.313131868640426], [51.30447430269198, 43.308780760134475], [51.30327139435926, 43.304460569249954], [51.301750580431815, 43.30009438667826]], [[51.425413230057025, 43.160925499295516], [51.43390786957007, 43.16058729066007], [51.445763728371475, 43.16252797780977], [51.42169765664875, 43.16095331784154], [51.43381417532973, 43.16068128939463], [51.45511997412756, 43.16404217900905], [51.47304202061666, 43.16606100571988], [51.48031391335747, 43.163869151037964], [51.51786861624945, 43.17363428292019], [51.570621860566085, 43.18061253289179], [51.584086835553606, 43.1834416462932], [51.59499049040525, 43.18458510893422], [51.606484204325135, 43.18611494969771], [51.61764422571774, 43.18742408803217]], [[51.65180344195158, 43.18262712307533], [51.64311219987361, 43.17796966123433], [51.657051476253926, 43.1785136441267], [51.65058597408178, 43.17311005609103], [51.65446471212493, 43.17072154876315], [51.6594152075013, 43.16864536234737], [51.67486012448262, 43.169626535395345], [51.65053896947074, 43.15901960746478], [51.66452372992857, 43.159382901344216], [51.66385597114905, 43.155631644333354], [51.66697674132921, 43.15328655214815], [51.668408685862346, 43.150892014702855], [51.66886486149718, 43.14662985513509], [51.66782898073598, 43.141702978416276], [51.67065381087207, 43.13792473571063], [51.66920560269566, 43.13287517563233], [51.66912325456125, 43.12823197899049], [51.670931487360555, 43.12415139273308], [51.67052678422696, 43.119888064283984], [51.66290340064606, 43.11308134235102], [51.65692093488574, 43.1067457444455], [51.660944731459836, 43.10328878782279], [51.66568983694028, 43.100039317437364], [51.66959931294352, 43.09672293792839], [51.673202481067214, 43.0934589650799], [51.67771566815429, 43.09045670470546], [51.68205914765435, 43.087405593868844], [51.687398324774065, 43.084640730869275], [51.69226004502821, 43.08302965004285], [51.696928839589894, 43.080070451055335], [51.70123992160796, 43.07701709787433], [51.706411910840295, 43.074190100359914], [51.713286416046245, 43.07181063991094], [51.71746315156334, 43.06872172376082], [51.720799006998675, 43.06541172388897], [51.727431509188435, 43.062968209514764], [51.732650815087744, 43.060153101397], [51.7370870375618, 43.05713213008306], [51.76109957912546, 43.03810027109265], [51.76509733189004, 43.03453837043593], [51.7677922597262, 43.03002872569563], [51.770507898667034, 43.02580226129853], [51.77350782398409, 43.021850172528026], [51.77697782622119, 43.018351570665075], [51.778417011797345, 43.01289534282857], [51.78174503360806, 43.00926045758327], [51.78548661009063, 43.00602455531781], [51.78997493301305, 42.98936083572689], [51.793183209492256, 42.987196550796625], [51.796726387603485, 42.98284990021992], [51.8016455892582, 42.980215502834], [51.80346817716379, 42.97701489672164], [51.80363312481577, 42.97176542078018], [51.80377216296688, 42.966479139517226], [51.80505129370988, 42.96273141276302], [51.8072997878062, 42.95658763781027], [51.811654735672725, 42.95343894210081], [51.83105585452281, 42.93191555330595], [51.83263524488517, 42.92889728497005], [51.83385175164142, 42.924441132987816], [51.8348373691032, 42.919070366638095], [51.83661638520967, 42.91684534350808], [51.83839058316779, 42.91460170006977], [51.84079724033012, 42.91414639673959], [51.844132836730154, 42.91034137699521], [51.8475437840536, 42.906836397500804], [51.850766596417415, 42.90258762194785]], [[51.855901521446235, 42.898456913925166], [51.86009889930002, 42.89493622724069], [51.86389149178001, 42.89095350464158], [51.86768691229839, 42.8869744437748], [51.857978880894215, 42.89706740564454], [51.860146235824296, 42.89274388922234], [51.86479014647223, 42.889946742138534], [51.868223820112135, 42.88640390048852], [51.87161674533994, 42.88283608854679], [51.87462543147373, 42.8790316468367], [51.877748244385636, 42.875297678372206], [51.88046809063539, 42.87131554892968], [51.88277281740511, 42.86707776905258], [51.88442039024284, 42.862435177461784], [51.894756488827014, 42.84700484538094], [51.898226715631154, 42.84312200008888], [51.90197646038579, 42.83947636543645], [51.905573358401305, 42.835701417749284], [51.91042838702433, 42.832993167444556], [51.91634588952915, 42.8311855639201], [51.92402320038796, 42.83086921480816], [51.92926053713193, 42.831550798532234], [51.93428401403989, 42.832518638910265], [51.94014544177697, 42.83419588068634], [51.95109996781111, 42.8375504948335], [51.9616064766874, 42.8412811535001], [51.97487746396166, 42.84620924088552], [51.986692527735265, 42.84984489142537], [51.99762256032737, 42.852694755982384], [52.009433897469194, 42.85632248969694], [52.01984717573366, 42.85871116275157], [52.03079120325446, 42.86156751632391], [52.041342388232884, 42.864074660692175], [52.028678406246684, 42.8610627695098], [52.05040459226463, 42.86650370625365], [52.06839778592771, 42.870373432072434], [52.06266362926793, 42.86362974192614], [52.08018979306226, 42.86704180326747], [52.084665812395016, 42.863986868338806]], [[52.09611401390076, 42.74657764524387], [52.09150441104438, 42.732177985345004], [52.09591621379963, 42.72901656092121], [52.11255164879866, 42.74107815383908], [52.09913100531769, 42.715707460748845], [52.111716503945125, 42.72272911575865], [52.10999815442484, 42.71188533702143], [52.10013016619774, 42.68200410864914], [52.10891105054272, 42.68415688769855]], [[52.11037547406774, 42.71824807877574], [52.10062375309596, 42.71025563575826], [52.10840443199258, 42.705432556219044], [52.09599388952559, 42.6960150956075], [52.100241083907164, 42.68787630522967], [52.10947353587114, 42.68655434492316], [52.10914980170149, 42.68125327226687], [52.109783697210815, 42.67635095625543]]]}, "properties": {"year": 2022, "data_quality": "good", "length_km": 338.9, "spatial_outliers_removed": 28, "n_segments": 10}}]}