{"type": "FeatureCollection", "crs": {"type": "name", "properties": {"name": "EPSG:4326"}}, "features": [{"type": "Feature", "geometry": {"type": "LineString", "coordinates": [[50.530732543233384, 44.29195080042911], [50.53679385196825, 44.29121484699517], [50.54405458378798, 44.292246969876324], [50.55034803140146, 44.29185264441292], [50.556505749127524, 44.29125808129136], [50.56265565550023, 44.29065185623719], [50.56880763521841, 44.290048536374485], [50.574409530254364, 44.28863488782463], [50.58085515947538, 44.2884638335332], [50.58729635733851, 44.2882859423638], [50.61225240712158, 44.28554235771094], [50.61837570166731, 44.284241828240745], [50.62448888253331, 44.28286567587366], [50.63052670952728, 44.28091553448463], [50.63659125465685, 44.279172126275235], [50.606222444145715, 44.23726702479926], [50.633201595339436, 44.21991456832266], [50.63210756617235, 44.21231565608613], [50.63887657234052, 44.211690411665536], [50.643476941448114, 44.209141991461046], [50.64786716352175, 44.206407405014176], [50.66285993259086, 44.21307136796415], [50.66460002561323, 44.20798794784421], [50.66856366972252, 44.2092133395102], [50.67167434248832, 44.20626020488211], [50.67807948227627, 44.20554109312095], [50.69056719813515, 44.208348307835756], [50.701846508065294, 44.21045316088414], [50.7115415808473, 44.21163856661394], [50.711995733795476, 44.20746936430357], [50.71768385547618, 44.20574079271718], [50.723411465811495, 44.20363578009232], [50.727868666261855, 44.202049047751785], [50.733469140236195, 44.20321544557307], [50.75924042870558, 44.198247941888084], [50.764415677860356, 44.19717621101733], [50.77033484806984, 44.19741630639663], [50.775961200023495, 44.19545234744357], [50.77940994923889, 44.191664000161666], [50.783311920109924, 44.18815598482092], [50.78624538106919, 44.18404943635597], [50.78976208441267, 44.18030359307449], [50.84164357506483, 44.10489993630818], [50.87206736771718, 44.11337803005805], [51.765109967787986, 43.03455055273532], [51.76807024163639, 43.030296729675314], [51.77106607944799, 43.02634040557004], [51.773421609444135, 43.02176705231433], [51.77713018812742, 43.018498459452466], [51.778548554381075, 43.013022167303724], [51.782201343766374, 43.00970038872836], [51.785605518216876, 43.00613919171041], [51.79328677271394, 42.98734376183951], [51.79689805675617, 42.98309391332371], [51.80167598514082, 42.980258703870376], [51.8029857944113, 42.9763292863658], [51.80362299382025, 42.97175102058009], [51.81166993035754, 42.953460541416774], [51.83605333966153, 42.9173675254346], [51.84091589164535, 42.91460487789471], [52.00975394694952, 42.856605670232526], [52.020370778632, 42.85917431093784], [52.03100178157992, 42.86175372445384], [52.041892034272934, 42.86456054878391], [52.02962725797863, 42.86153350286107], [52.05149681686109, 42.867045215702866]]}, "properties": {"year": 2017, "data_quality": "good", "length_km": 220.1, "spatial_outliers_removed": 17}}]}