{"type": "FeatureCollection", "crs": {"type": "name", "properties": {"name": "EPSG:4326"}}, "features": [{"type": "Feature", "geometry": {"type": "MultiLineString", "coordinates": [[[50.241369976504856, 44.48605990930799], [50.2414094594342, 44.47726437221788], [50.2422986973446, 44.4694978821739], [50.24324847029568, 44.461804987434185]], [[50.24157458745945, 44.486461957532995], [50.2415256489306, 44.481004632522954], [50.24149960399273, 44.47555842029704], [50.24228404857869, 44.470505875904756], [50.24239420882165, 44.465125854624155], [50.243871239176926, 44.460409850905066], [50.24428287354163, 44.45517636490876], [50.24357426065812, 44.44939862558591], [50.244893742844326, 44.44460628577297], [50.246029977588954, 44.439724989366454]], [[50.32336032592585, 44.32971086845761], [50.33020586960645, 44.327270469911106], [50.336241602941854, 44.324512845131885], [50.34066161904244, 44.321122634918744], [50.34949275829343, 44.319458999796], [50.35780261160447, 44.31759089575286], [50.364506604185294, 44.31509413448678], [50.372470741382244, 44.313090124402336], [50.37904257992983, 44.310541249037854], [50.38361103558621, 44.307208775093024], [50.43552076496137, 44.29758100349486], [50.44456585586541, 44.297708059917035], [50.45289976433249, 44.29734599466068], [50.460986211876076, 44.296813484553894], [50.46899005709927, 44.29622379480147], [50.47764171812334, 44.29607826137563], [50.48510694739778, 44.29511798293283], [50.49330674675938, 44.29474090126517], [50.499532267764344, 44.29425254636913], [50.53114142823634, 44.29255379978597], [50.53749317556582, 44.292245978905235], [50.54405677986635, 44.29225020720768], [50.55045730311818, 44.29201369565528], [50.55679022738381, 44.29167728475876], [50.56294511814995, 44.29107832778702], [50.56899825716418, 44.29032933397532], [50.57477598624397, 44.289174616265285], [50.58103814095165, 44.28873328310607], [50.58750025197404, 44.288586128553476], [50.6122528752301, 44.28554594315806], [50.61838917024118, 44.284344909182806], [50.624501189417494, 44.28295979265313], [50.63055931806142, 44.28116471830311], [50.63668375539343, 44.27987844136931], [50.64294373523547, 44.279627995755064], [50.649149813882126, 44.27896668925726], [50.65534504747039, 44.278223479873006], [50.661426959588916, 44.276618575216666], [50.66761448874089, 44.27581912728502], [50.67048202908223, 44.27558505416011], [50.67652924061463, 44.2742426053901], [50.68239312765633, 44.2720392365974], [50.68039901981444, 44.27340371408403], [50.67708917636989, 44.2739384500148], [50.67386345571046, 44.27486913151059], [50.670589595065486, 44.27557366492002], [50.66722036087654, 44.27582954836165], [50.66389457450869, 44.276290031666456], [50.660635258065, 44.277063698746815], [50.647259491475715, 44.27913059250605], [50.647171781024134, 44.27917677308341], [50.64708894039825, 44.27922706924437], [50.64700609963114, 44.279277365344335]], [[50.87343254056286, 44.10878592287936], [50.874114748720935, 44.10379473848922], [50.87472993776918, 44.09877366609692], [50.87540554854286, 44.09377961929344], [50.90562081015012, 44.01224919796772], [50.91195299002335, 44.01202258702601], [50.91856136113764, 44.01027534758305], [50.925461439523495, 44.00691905103622], [50.93239507925155, 44.00337307727008], [50.93984356421809, 43.99698241754908], [50.947491700854485, 43.98908521422387], [50.945905017669915, 43.98994789608737], [50.94412465401223, 43.99187917211152], [50.94232605306208, 43.99391040682674], [50.87342036508668, 44.06578367700402], [50.8740223265919, 44.06168492621863], [50.87072428781907, 44.05636385143102], [50.869354815544874, 44.05164709013359], [50.8701068829283, 44.04759536649265], [50.86842057355778, 44.04277917180086], [50.868397672036394, 44.03848446478764], [50.86826375188558, 44.03415493963958], [50.87021966430479, 44.03048077712381], [50.87275675426897, 44.02785511411614], [50.87028886654853, 44.030336581996856], [50.87233027642556, 44.02861132229339], [50.87338120900428, 44.02667672557264], [50.87312082417795, 44.024464991048475], [50.875212700052366, 44.02198977300036], [50.88156862914864, 44.018920410939636], [50.8866989966722, 44.015591932488924], [50.894496436897924, 44.01282664131607], [50.909842438801626, 44.011654382348176], [50.92035632041916, 44.009460935728], [50.94196530703212, 43.99404326971946], [50.945943512403545, 43.990612792943836], [50.94906018509168, 43.98659604928293], [50.95191241046973, 43.98239949448805], [50.95576587322704, 43.97888467354337], [50.95997635064605, 43.975613032768656], [50.96372546982841, 43.97202753887705], [50.96774631517498, 43.96862716449215], [50.971893716983466, 43.9653130894514], [50.967980757519754, 43.9683497701717], [50.97246527123793, 43.96502563756392], [50.976077393301686, 43.96136495848174], [50.97940981529252, 43.9575964304281], [50.9821624411575, 43.95360429377911], [50.98544017754286, 43.949814802763186], [50.98818874270824, 43.945821243120555], [50.991252417848855, 43.94194931205303], [50.99337920028152, 43.937716042234], [50.99480951925509, 43.933222991547524], [50.99222013384106, 43.94035728621822], [50.994120125303134, 43.93603988399988], [50.99542090014531, 43.93164697470198], [50.99634717223205, 43.9272068797042], [50.99712727449121, 43.922748371511766], [50.99789008124615, 43.918287689635235], [50.99833375943363, 43.91378679618796], [50.99861296792979, 43.90926517773415], [50.99925443664044, 43.904787767488266], [51.00031463690779, 43.90035756677708], [51.0038236361123, 43.88922251271336], [51.00551903467713, 43.88492115031419], [51.006349313290656, 43.880377691810864], [51.00481838601207, 43.87517331328286], [51.00544778001154, 43.87057363812768], [51.0080327426122, 43.8665214479625], [51.00676314401657, 43.86139018759601], [51.01262484364257, 43.85825542721324], [51.01142697167053, 43.85314435286379], [51.00468895893819, 43.82637668650495], [51.00703991611213, 43.822602603719204], [51.02258337763054, 43.827096166463654], [51.01767759868716, 43.818251375729034], [51.019598353473924, 43.8137228564403], [51.02361568407219, 43.81052028705163], [51.024786558274315, 43.80551790080114], [51.03032015575606, 43.803274453135934], [51.030537057187004, 43.797669178910574], [51.034904814575576, 43.79468885525536], [51.03811872875355, 43.79085290597355], [51.042006720802775, 43.78757281858574], [51.04492225630708, 43.78367541782372], [51.04910008004419, 43.78057964672393], [51.05204939529855, 43.77670401599246], [51.05648992137437, 43.773775306665655], [51.06024309229075, 43.77041033406541], [51.063848181379676, 43.7669514963264], [51.06954441084849, 43.76482024781286], [51.07207856122133, 43.76068187503276], [51.04857602035613, 43.781008522768495], [51.05168442542697, 43.77692400240918], [51.056970342776694, 43.772814925671334], [51.061925079825016, 43.76870933281718], [51.06405927170829, 43.764635444667974], [51.069225256241424, 43.760527127895855], [51.07192007440424, 43.756446711566596], [51.077723404786056, 43.74828093977857]], [[51.05435374902906, 43.67110405990819], [51.04735174910062, 43.66448544000024], [51.052859499235936, 43.663492341445384], [51.04733951380396, 43.65403505420133], [51.067422718616555, 43.75353418081104], [51.07414663678731, 43.747259954615316], [51.0688857925456, 43.74818925045237], [51.065902357595256, 43.748796737502175], [51.064094312523224, 43.74892817905658], [51.067202628372875, 43.74845410021394]], [[51.58188476166067, 43.18801799481547], [51.58386073870793, 43.18329301073243], [51.596171497015135, 43.18536126265043], [51.60773131217489, 43.1869342966455], [51.617512356380054, 43.187337473224716], [51.61245478388979, 43.17197112827874]], [[51.6611427069323, 43.17970580817561], [51.66365085248736, 43.176917621590086], [51.66576212772209, 43.174013818123925], [51.66611182792603, 43.1705967885168], [51.66537913567761, 43.16686437330527], [51.665649963860076, 43.16342436122168], [51.668379958644394, 43.16052991825124], [51.66928560541156, 43.157246752709696], [51.66859587817361, 43.153768187055576], [51.66921993400422, 43.151133333579125], [51.66974441409175, 43.146891506689215], [51.67019971329691, 43.14240829309163], [51.67238420843452, 43.13843953441936], [51.67234261441404, 43.13380854659974], [51.6728557281383, 43.12934259800963], [51.673016842150645, 43.12477192650103], [51.6714009848656, 43.12013940796415], [51.66610455563419, 43.11400202391273], [51.65760042557977, 43.10694124396149], [51.66121011115448, 43.103365135799606], [51.665646371002396, 43.100026813892725], [51.6697560135468, 43.09676801106839], [51.674533822501544, 43.09384187399422], [51.6778654961779, 43.09049979332778], [51.682012256362675, 43.087392109839556], [51.68699461123949, 43.08452465475697], [51.69278383100121, 43.083167445408506], [51.69703405606707, 43.08009812773799], [51.70196716587728, 43.07720837240681], [51.70634254130829, 43.07417185764781], [51.71414428051086, 43.07203618655907], [51.718292084755305, 43.06893964128725], [51.72350075656108, 43.066121907498726], [51.72834479107545, 43.06320823458101], [51.732797629786674, 43.06019168154881], [51.73773785882447, 43.05730313218852], [51.761543323600634, 43.03852809916148], [51.76535748374107, 43.034789182187815], [51.76814679857786, 43.030370538133894], [51.77123479913239, 43.02650306646031], [51.773868292475576, 43.02219770027156], [51.77699343399273, 43.018366617818906], [51.77888075756058, 43.013342452138254], [51.7821314847844, 43.009633037829616], [51.78576158580574, 43.00628965177941], [51.79040662106877, 42.989974493093726], [51.79327157590566, 42.98732216022544], [51.79741701248367, 42.983831551240776], [51.801002782675745, 42.979301878869435], [51.80316647560044, 42.976586090502586], [51.80380478963081, 42.972009424022765], [51.80409407883561, 42.96693674561407], [51.805911782186335, 42.963954618265724], [51.807576094489264, 42.95698043543944], [51.811691878254514, 42.95349174042485], [51.831107222919144, 42.932119192453385], [51.832714534937686, 42.92921159658886], [51.8341092801615, 42.92546197946176], [51.83531958600534, 42.92098190534665], [51.83699342921202, 42.918339862235804], [51.83882573694349, 42.91632641066172], [51.84131177359653, 42.91618540391755], [51.84425617890601, 42.91083009812256], [51.84748791440717, 42.90661505795534], [51.850931100910664, 42.90323924099583]], [[51.85642843729992, 42.89905891337926], [51.86025067939834, 42.89510962815036], [51.864179146747674, 42.89128212394086], [51.86799180137837, 42.88732274003631], [51.85845195128381, 42.89735894312579], [51.860837036224105, 42.89316961335225], [51.865472499483694, 42.89036723294504], [51.868650865979774, 42.886667056665694], [51.872004361775964, 42.88307494219397], [51.87496610973052, 42.879241574929026], [51.87798661785288, 42.87544456396935], [51.88001576455405, 42.87103682227028], [51.88316600703574, 42.86732005556385], [51.88496932243882, 42.86277344565545], [51.90282965203946, 42.85384771656071], [51.898838768873794, 42.84364084513456], [51.902159351699986, 42.83963140142203], [51.92567817323258, 42.852737293720224], [51.92248522954345, 42.84321041086922], [51.91719703354488, 42.831906916365014], [51.92429276711836, 42.831097636812714], [51.929812554447984, 42.83201849333216], [51.93493557826265, 42.83307059804301], [51.940524222506006, 42.834516704525036], [51.95177139302055, 42.83814559398055], [51.96222878884883, 42.841832548828265], [51.97610679277562, 42.847298027297484], [51.98756310399869, 42.850615677957286], [51.99854729426944, 42.85351323632349], [52.00989088833214, 42.856726835211624], [52.020522617113826, 42.85930861651882], [52.03112859887895, 42.86186586446975], [52.04254269481965, 42.86513572042172], [52.03022194669306, 42.86182852521937], [52.053109811509714, 42.86784487881278], [52.070715705708, 42.871521995300675]]]}, "properties": {"year": 2007, "data_quality": "good", "length_km": 211.1, "spatial_outliers_removed": 7, "n_segments": 8}}]}