{"type": "FeatureCollection", "crs": {"type": "name", "properties": {"name": "EPSG:4326"}}, "features": [{"type": "Feature", "geometry": {"type": "MultiLineString", "coordinates": [[[50.50272920154261, 44.250620347515756], [50.52921348132975, 44.25100956930237], [50.53599903585945, 44.25134852590807], [50.54067091463773, 44.24856866112395], [50.55553571413217, 44.25115310465942], [50.55154621447494, 44.2355995407905], [50.63138640725245, 44.23940221345478], [50.640382006089375, 44.212051611747064], [50.65404662430531, 44.22039044278824], [50.65983748411918, 44.21661287953007], [50.66954411276838, 44.24136922655994], [50.67650972692598, 44.24436547368396], [50.668649466252546, 44.21810364037073], [50.66432147573366, 44.2138257967622], [50.659244579328536, 44.206013542509], [50.655848888271635, 44.2061258136819], [50.65123206978267, 44.216611192966916], [50.54936342135843, 44.19636014778202], [50.54919861721537, 44.19646128655662], [50.55666417142273, 44.202914167720394], [50.52031612041296, 44.17072438449771], [50.53821293896609, 44.1796161531406], [50.600872185919684, 44.21112218260466], [50.596730188749945, 44.20081306806], [50.59346630906868, 44.19128238420748], [50.58639128951272, 44.17836493521616], [50.585126073992726, 44.1706074356769], [50.62609904996166, 44.200356582441906], [50.64271764314471, 44.20184102090361], [50.6078660345064, 44.17396947034714], [50.63012963465752, 44.17771020910982], [50.642263537943485, 44.18032194308172], [50.6324883726649, 44.1702087620922], [50.627494681627496, 44.16287146745954], [50.632836768331465, 44.16153959795459], [50.62317794898136, 44.15089794360078], [50.648045630600485, 44.155747492774786], [50.65659632239464, 44.16023376718363], [50.65419278836745, 44.15692433684461], [50.627060341658904, 44.139760580051], [50.633697657812355, 44.141516143198395], [50.67846068409612, 44.1585005257338], [50.705934280261474, 44.168471944734044], [50.73364960519924, 44.17999937434095], [50.74757897993923, 44.18471530384136], [50.76882422967839, 44.191039749139016], [50.77129005589642, 44.18664370327179], [50.761815064516206, 44.17486245933297], [50.76254668564235, 44.16939377611169], [50.72711111056068, 44.141533599972256], [50.72676882072815, 44.12984540059242]], [[50.84657526701592, 44.12699172618153], [50.85908122759534, 44.11780498454979], [50.8617720254143, 44.11389341763923], [50.87229998942959, 44.113481901650545], [50.873002380714, 44.10859383534752], [50.87373029037073, 44.103623047694214], [50.874379492600966, 44.098617154223014], [50.87505937852521, 44.093625006483144], [50.905600022578284, 44.012363461901025], [50.91198106906125, 44.011868150591994], [50.91869906979916, 44.009517440173994], [50.92559921459899, 44.006160242080455], [50.93252822245894, 44.00263925577653], [50.94001366330006, 43.99604414932798], [50.94748830491547, 43.98910396198427], [50.945805871689466, 43.99049515060577], [50.9441814347809, 43.991565818500646], [50.94244805033766, 43.99323727896483], [50.873076809351545, 44.065676017256976], [50.87361008696882, 44.061555736509355], [50.87068993812268, 44.05635308468152], [50.869778426153516, 44.05177988433769], [50.869537910318314, 44.047416992765484], [50.868546492252285, 44.04281865239029], [50.868310680053575, 44.03845718717815], [50.8678917745844, 44.03403829101242], [50.87020478594916, 44.03047611145462], [50.87255647505437, 44.02779231129393], [50.870272100316896, 44.03033303830441], [50.872040466706, 44.028550071858916], [50.87328181424642, 44.026655719185534], [50.872947189393955, 44.02442829268481], [50.87600061854612, 44.02215628994357], [50.881089667328716, 44.01881920878396], [50.88656369488046, 44.01556334914753], [50.89404743539637, 44.01273181508208], [50.90945448784659, 44.01157250465969], [50.91968818294405, 44.00931998475877], [50.941736647872894, 43.9938876131292], [50.945782001011004, 43.99050285064067], [50.949142753131504, 43.98665225343862], [50.95125098942846, 43.98194925763394], [50.95541293789539, 43.97864443593605], [50.95970235104035, 43.9754265344802], [50.96381256789368, 43.972086820141485], [50.96720740572538, 43.968260378926], [50.97122689102738, 43.96485926218847], [50.96738700288938, 43.96812067165543], [50.97145811705016, 43.96463705608064], [50.97620273397403, 43.96141331450433], [50.979410914725456, 43.95759685457253], [50.982440584525754, 43.95371159535764], [50.98546216419391, 43.94982328450094], [50.98819753693553, 43.94582463560697], [50.99159647722566, 43.942082033441466], [50.99351110030464, 43.93776692353855], [50.994836996593264, 43.93323359149622], [50.99218821861435, 43.94035326418216], [50.99418763368308, 43.9360483910074], [50.99526625561552, 43.931627487516664], [50.99606858686363, 43.927171773919156], [50.99740952132269, 43.92278393865743], [50.99789498952501, 43.91828830816796], [50.99838897346647, 43.91379375446], [50.998414212449134, 43.90924012819983], [50.99957463058604, 43.90482812257814], [50.99981414070634, 43.90029448575513], [51.00348576796683, 43.88912795098982], [51.00541454595026, 43.884891906055], [51.005806012208105, 43.880225624442176], [51.00741162981559, 43.875899207289386], [51.00831592670235, 43.87137652199484], [51.009741222600304, 43.866999704487334], [51.01182552387926, 43.862807395582415], [51.012672424458785, 43.85826874667123], [51.01352499876891, 43.85373171216259], [51.01784252994293, 43.834693941875564], [51.02039252865229, 43.83104574095793], [51.022740758389546, 43.827195659367085], [51.02399258933204, 43.82224422666992], [51.025016605309695, 43.817148871283514], [51.02424597947105, 43.81091884507352], [51.027375977039725, 43.807155316862705], [51.02993713180872, 43.80303225926912], [51.03113823442991, 43.79804934293867], [51.034770909026136, 43.79460418161343], [51.04200017812812, 43.78756866430133], [51.044963380306434, 43.78370152942923], [51.04896455903595, 43.78049360191571], [51.052535388614565, 43.77701257682039], [51.05560206355456, 43.77321161858654], [51.05984776635287, 43.77015935822072], [51.063687436937116, 43.766849449855584], [51.06747061146225, 43.76350381505059], [51.070731899787674, 43.75982702815565], [51.05232555040926, 43.77691682158419], [51.05625099072117, 43.77282301219329], [51.061753639952904, 43.76871126801255], [51.066664233075514, 43.76460595791722], [51.07007736877461, 43.76051744982725], [51.07199708222704, 43.7564458353207], [51.073881760328476, 43.75237458215619], [51.076631782048324, 43.74829341244339], [51.118746796552514, 43.68176343470013]], [[51.11275235995224, 43.69733415654737], [51.11433889603499, 43.6945776982016], [51.11511475228626, 43.69145751886767], [51.11558572567046, 43.68852685366766], [51.11624308774625, 43.68690723937066], [51.11692890718344, 43.68530040679275], [51.11749227995797, 43.68363863825169], [51.11856319123642, 43.68220463924537], [51.11882997468725, 43.6804097987689], [51.120015813268466, 43.679027400759054], [51.075221413060675, 43.750375753437694], [51.07780372666894, 43.74577852326735], [51.07803626054657, 43.7450835545363], [51.078182055447385, 43.74442372319998], [51.07837338176743, 43.74374544412901], [51.07810285722574, 43.7432542747079], [51.07977726473354, 43.741975126017934], [51.07848199095122, 43.74388538130462], [51.07751611201791, 43.746573539691056], [51.07569465285925, 43.74960822074396]], [[51.30870593282539, 43.321831050646544], [51.30759077638284, 43.31752367255932], [51.30623505031779, 43.313181502107525], [51.305114181845596, 43.30887321851771], [51.303720123228665, 43.304525417707296], [51.30233714975194, 43.30017916925754]], [[51.42621978194994, 43.161472715070474], [51.43398817029497, 43.16064176166937], [51.44603083980472, 43.162709111667006], [51.42274831485996, 43.16136917278877], [51.43390182619802, 43.16071597072758], [51.4551459497034, 43.16405245010181], [51.47358434241279, 43.166275328152075], [51.48150682223572, 43.16434049570349], [51.51839924783333, 43.17384369047871], [51.570702398270335, 43.180665497555104], [51.58412070440626, 43.18346391149978], [51.59484126456595, 43.18448703591033], [51.60721580026319, 43.1865956108643], [51.61777517966485, 43.187510101193915]], [[51.66010816737472, 43.179404366833424], [51.65758457115495, 43.175149939122804], [51.65725580718848, 43.171535061149655], [51.665622625448066, 43.17045425020767], [51.66530370263215, 43.16684239270672], [51.66542596306393, 43.16335908576771], [51.66532709912391, 43.1596218740162], [51.66678782451078, 43.156503801257735], [51.6684409139512, 43.15372209210452], [51.669096879103904, 43.15109672940395], [51.669494902950255, 43.146817282395006], [51.67054376450795, 43.142510646027624], [51.671584508290564, 43.1382016254612], [51.67152019334024, 43.133563858612], [51.67005038076269, 43.12850786592074], [51.67128910394825, 43.12425781140729], [51.67099020122217, 43.1200213035924], [51.663258062885845, 43.11318335226377], [51.656942669370245, 43.10675199786004], [51.66097218450141, 43.10329668591816], [51.665785919601994, 43.100066956792716], [51.66969996731948, 43.096751890043194], [51.67356276514361, 43.093562588879955], [51.67805306743192, 43.090553736056904], [51.682435422415125, 43.08751379427984], [51.68750926048556, 43.08467262688639], [51.692394171016566, 43.083064935620584], [51.69697971347926, 43.08008383319978], [51.70125842061185, 43.077021963421], [51.70631479350688, 43.07416456055108], [51.713887614210606, 43.07196870562726], [51.71820190764138, 43.06891593507163], [51.723349308977326, 43.06608210002097], [51.727374862822245, 43.06295332164196], [51.73300224585154, 43.06024545041986], [51.73742227364522, 43.05722021333896], [51.76131215945915, 43.03830522747749], [51.76515159195785, 43.034590682652386], [51.768099229194526, 43.030324676573706], [51.771109931614816, 43.02638268309518], [51.77354424226503, 43.02188528363235], [51.777150255359615, 43.018517805764745], [51.7785619316234, 43.013035064699125], [51.782212491490434, 43.00971113620809], [51.785713279089435, 43.006243080829464], [51.79049160891573, 42.990095304179995], [51.79335994268174, 42.987447769580406], [51.796923385107675, 42.98312991523344], [51.80176266993058, 42.98038190677798], [51.80303138671792, 42.9763940874388], [51.80365732665767, 42.97179982125421], [51.80386277166728, 42.96660794133245], [51.80505298201203, 42.96273381278067], [51.80740614576378, 42.956738836983206], [51.81170200806066, 42.953506139965526], [51.83113849080934, 42.93224314670086], [51.832659813545035, 42.928994677311074], [51.83405120705028, 42.92523177998262], [51.835024087706195, 42.91981054593763], [51.836708410805386, 42.91721011957067], [51.838519250263786, 42.915111676344424], [51.84088213702821, 42.91448283757975], [51.84421037224758, 42.91064859845083], [51.84756255634728, 42.90691076757927], [51.85083476700372, 42.902857654339144]], [[51.856181879164424, 42.89877722338951], [51.86024272583484, 42.895100541645114], [51.86409364529596, 42.8911844468561], [51.86788707821845, 42.88720310793947], [51.85826797893706, 42.897245567677324], [51.860408100620575, 42.892905271563706], [51.86502854661041, 42.89009365411954], [51.86857765785943, 42.886621944294454], [51.87181946930224, 42.882961009750844], [51.87486099663405, 42.87917680383815], [51.877923739702744, 42.875405818605465], [51.880516889542534, 42.871345618915925], [51.88286759553175, 42.86713617237201], [51.88456583323369, 42.86252480434069], [51.895103831538854, 42.84729929894529], [51.89836629174515, 42.8432403215399], [51.902267643041576, 42.83972319890143], [51.90594475220022, 42.83601623785589], [51.91080379958413, 42.833311371480164], [51.916717309973365, 42.83150034906949], [51.924275116854915, 42.831082680630296], [51.92977323898536, 42.83198518376533], [51.93444369434478, 42.83265391004106], [51.940261804083114, 42.834294438996366], [51.951717459668544, 42.83809779222235], [51.96256574893404, 42.84213110436748], [51.975537479901796, 42.846793807320246], [51.98726821634613, 42.85035459470716], [51.998308676144866, 42.85330203867741], [52.00997540099619, 42.856801611227255], [52.020369995961126, 42.85917361864049], [52.03109650309927, 42.86183748336854], [52.04195467254705, 42.864615920470314], [52.02976324432116, 42.861600965590604], [52.05159934077648, 42.867096044573344], [52.069183615121716, 42.87076283209068]]]}, "properties": {"year": 2018, "data_quality": "good", "length_km": 290.5, "spatial_outliers_removed": 23, "n_segments": 7}}]}