{"type": "FeatureCollection", "crs": {"type": "name", "properties": {"name": "EPSG:4326"}}, "features": [{"type": "Feature", "geometry": {"type": "MultiLineString", "coordinates": [[[50.24069982721778, 44.48524859039005], [50.24080788480557, 44.47653596735166], [50.24174646191888, 44.46882914846466], [50.24267902004901, 44.46111533578899], [50.24374950624269, 44.45356887881431]], [[50.24071600940092, 44.486045032209006], [50.24117496394706, 44.48083432553306], [50.24095437665902, 44.47529361013069], [50.24164418595289, 44.470195081924714], [50.24219654481435, 44.465029837576104], [50.242709270716716, 44.45984538198041], [50.243722219357885, 44.454903988217175], [50.2423636296224, 44.44881040256609], [50.24209933170322, 44.44324843373956], [50.245521457659606, 44.439477887632556]], [[50.321845350977476, 44.32911757727369], [50.32896613598601, 44.32678504700285], [50.332857176490705, 44.323187778740305], [50.33907512483851, 44.320501556813554], [50.34675128397394, 44.318385994882696], [50.355546612928826, 44.31670809734519], [50.3624267606834, 44.31428039432859], [50.3697797845167, 44.31203748210481], [50.37605874702628, 44.3093742066339], [50.380637187892326, 44.30604572731627], [50.434902990169064, 44.297156584728306], [50.44362641378238, 44.29706279191998], [50.45208979368467, 44.29678976682847], [50.46065911323699, 44.296588901696445], [50.467982407925156, 44.295532072073975], [50.47691581022214, 44.29558005258332], [50.48445530510196, 44.29467081929004], [50.49218100555216, 44.293968549116904], [50.49918781265591, 44.29401625877252], [50.53029018843461, 44.29129842629139], [50.536612712465065, 44.29094775560059], [50.543715292563654, 44.291746801666164], [50.55018000670564, 44.291604997570964], [50.556197660425546, 44.290804078265374], [50.562181648821436, 44.28995347711131], [50.5686692019707, 44.289844613993985], [50.574116699912196, 44.288203589722144], [50.58070185195363, 44.288238078255155], [50.58693308927225, 44.28775110836589], [50.61222607610647, 44.285340676303726], [50.61833307100556, 44.28391555462856], [50.62443731124467, 44.28247128172026], [50.63054008133971, 44.281017717779434], [50.63658538539371, 44.279127309322405], [50.642871718913696, 44.27907854371867], [50.649072096928414, 44.27837421719094], [50.655306569966, 44.27793038294796], [50.661358778166075, 44.276099608733126], [50.66755756721757, 44.27538620994649], [50.670400705386335, 44.27520235988759], [50.6764060639989, 44.273663230241816], [50.68223166115985, 44.271280093807384], [50.68018401381486, 44.27239270682605], [50.676983592078614, 44.27344184323472], [50.673892210363555, 44.27500440865515], [50.6705082706863, 44.27519097072121], [50.66716212524734, 44.27555543086668], [50.66382350008209, 44.275955392733096], [50.660488798729, 44.2763739469055], [50.64653630882787, 44.27851941700319], [50.64645346858997, 44.27856971271035], [50.64637062821084, 44.278620008356526], [50.64618065090506, 44.27857975880165]], [[50.581213100706364, 44.187031480355], [50.57795876690678, 44.17750594011076], [50.58933454067492, 44.174346725208835], [50.59394907569568, 44.17181357173638], [50.59399233920881, 44.1652194874141], [50.59889729031301, 44.16294495639152], [50.60048311514712, 44.15772188196998], [50.60151048217336, 44.15200284256818], [50.59425983332595, 44.16605888339661], [50.60046292864313, 44.16490513421534], [50.5999107739078, 44.160146871203914], [50.58876701838145, 44.14922772645718], [50.63643160043675, 44.172499381614365], [50.605457668639765, 44.15006122311719], [50.61056658793192, 44.14859518880165], [50.719784506181966, 44.20695778059485], [50.61328585222581, 44.139718142038234], [50.6155769598635, 44.136877226645964], [50.713768786835985, 44.19221133026959], [50.726925768859196, 44.18559790097698], [50.745908855840725, 44.190806277154984], [50.758098286785746, 44.19365067456562], [50.75557049833348, 44.189176843951586], [50.76758391014349, 44.19027277987542], [50.76391355930286, 44.17616059772353], [50.78121286869121, 44.16947012499395], [50.79497296091375, 44.166135716782584], [50.801662648469296, 44.1643505812857], [50.80650914343018, 44.161426082298675], [50.813630669522105, 44.15989671117927], [50.813879650063704, 44.154073540890316], [50.821151713813, 44.15270630175597], [50.79932015373718, 44.13286922905661], [50.812360327965585, 44.13516581519465], [50.832259105102814, 44.141811425686456], [50.8225297152978, 44.12965810793013], [50.83819297151908, 44.13361588977105], [50.83528257726001, 44.12579844515912], [50.84326299108752, 44.124890729882736], [50.841173465853046, 44.12003227548882], [50.83786433906857, 44.11343922429669], [50.85631432524263, 44.11656908447375], [50.85284440880339, 44.10990529397715], [50.871453420265155, 44.11310388266271], [50.872305633887436, 44.10828269753204], [50.87267782048027, 44.10315302565429], [50.87355542276957, 44.09824910993595], [50.874048487457436, 44.09317349311966], [50.90573562755921, 44.01161806816289], [50.91212162435736, 44.01109507555725], [50.918750811012806, 44.00923266688467], [50.925675232513775, 44.00574155796467], [50.932502468737766, 44.00278119936974], [50.94015219863698, 43.99527996482143], [50.94755687012624, 43.98872543574267], [50.94589531341317, 43.99000146097299], [50.944282538654996, 43.99100785255597], [50.942645278809934, 43.99214902538288], [50.87306306714808, 44.06567171084559], [50.87354023543282, 44.061533845883396], [50.870641848568674, 44.05633801121485], [50.869704007936335, 44.05175655573993], [50.86927803865443, 44.04733552132733], [50.86772115549498, 44.04255987254496], [50.86828435354821, 44.03844893209905], [50.86791580999662, 44.03404582834493], [50.87009377060025, 44.030441298323275], [50.87243516327894, 44.02775427055652], [50.87014994640405, 44.030307219899434], [50.87182251103019, 44.02850400699832], [50.87246151079977, 44.02648234991856], [50.87238317719828, 44.02430908445553], [50.87498279153804, 44.021941183445854], [50.88077115862268, 44.01875190823895], [50.886282315465266, 44.01550390540233], [50.890614716642446, 44.01200677860046], [50.908157733619824, 44.01129881134279], [50.919107456709895, 44.00919747043714], [50.94125029744607, 43.99355653249886], [50.94549436703012, 43.99030705394663], [50.94880250122214, 43.9864206425202], [50.95091347801707, 43.98171950565324], [50.95484498110059, 43.97825783017828], [50.95957533193743, 43.97534007809525], [50.96249885714649, 43.971192653959115], [50.96616135968233, 43.96754841242149], [50.97067347855618, 43.96448261345252], [50.965357276171595, 43.96733747077545], [50.97070166053287, 43.96434518989983], [50.975507865439695, 43.9611452337657], [50.97921961362999, 43.957523053279715], [50.98080801819259, 43.953081772042594], [50.98469813173746, 43.94952854162625], [50.987797400606496, 43.945670276788526], [50.99139092080047, 43.94200273995734], [50.99299339400525, 43.93756721354174], [50.99452265642746, 43.93311232768743], [50.99202618752979, 43.940332844476835], [50.99391023573571, 43.93601343468534], [50.99495573952343, 43.93158835785368], [50.995642732330346, 43.92711810869685], [50.99655173742923, 43.9226758433018], [50.99736121479527, 43.91822104149864], [50.99769205061798, 43.913705923646624], [50.99778359431175, 43.90916064775859], [50.99776388431262, 43.90459989577418], [50.99898611622315, 43.900190118955656], [51.002843705330584, 43.88894824846237], [51.004677322838, 43.884685568840226], [51.00520931292133, 43.88005860729975], [51.00722241607511, 43.87584624566462], [51.00722832012859, 43.871072077958786], [51.00910982463995, 43.86682296049114], [51.01119068225921, 43.862629688329605], [51.012253481902285, 43.858151469786094], [51.0116219193559, 43.853198932123675], [51.02105232339275, 43.83672297359974], [51.01933767115722, 43.83037887622586], [51.021870486811366, 43.826645484562476], [51.02336967016369, 43.82185040578547], [51.024718749272594, 43.81696055083564], [51.02398187250351, 43.810751841990346], [51.02731416648086, 43.8071162327564], [51.03000081283732, 43.80307252630982], [51.029973343395106, 43.797312698216885], [51.03268652594004, 43.79328609458503], [51.03669990497053, 43.789951963144986], [51.040189761402814, 43.78641909994142], [51.04391659873669, 43.78303686573249], [51.04851967901009, 43.78021113643973], [51.0518017275503, 43.776546767845176], [51.05540673707226, 43.77308760627488], [51.05964683363267, 43.770031793136994], [51.063121097499746, 43.76648991221536], [51.06692016804258, 43.76315438149734], [51.070435658107996, 43.759638971557486], [51.05534403534246, 43.77283320118305], [51.06142939494638, 43.768714927352896], [51.06589653371847, 43.764614654030986], [51.0694351790346, 43.76052474423835], [51.07147790040915, 43.75645174190967], [51.07341229299152, 43.75237993134636], [51.075649445373685, 43.74830462751076], [51.118260989099284, 43.679984633070084], [51.1221876194769, 43.67798131324403], [51.12642780574337, 43.6703699025564], [51.13079482309575, 43.663226419174734], [51.135559541694725, 43.657541785038966], [51.14006215233065, 43.650901350516996], [51.144790496221376, 43.64509002735734], [51.111794007313144, 43.696904132938236], [51.114016991861824, 43.69443325723281], [51.1144846949533, 43.691174796665806], [51.115510797308396, 43.68849323055991], [51.11594021550169, 43.68677132763686], [51.11576071845331, 43.68477617820438], [51.11666496214298, 43.68326737405127], [51.117872011244984, 43.68189446995849], [51.118183132439604, 43.68011951972349], [51.11899227928497, 43.678568077294734], [51.074428785676055, 43.750696802591335], [51.07588358724673, 43.74655636620694], [51.076125904247924, 43.745857448619965], [51.076834418979104, 43.74496967060241], [51.07716020005045, 43.74423693134951], [51.07725938355831, 43.74359598729226], [51.07762201300636, 43.74284831322966], [51.077255797180094, 43.74438214025001], [51.13688464394165, 43.65409681080087], [51.13875911360723, 43.65236191638894], [51.140452608619476, 43.65056351530476], [51.14215270127496, 43.6487674395565], [51.14421776145945, 43.64709945362565], [51.14504239251076, 43.64499616818491], [51.14765315007138, 43.643519699028424], [51.14890963834585, 43.64156799327047], [51.150955287567854, 43.639893224500405], [51.16203310947658, 43.628837494522955], [51.17093234102845, 43.62983474193697], [51.17636498246665, 43.629272877103965], [51.18097112081613, 43.628339297080785], [51.184472674862896, 43.62774426088168], [51.18696034468765, 43.627358197232084], [51.18830954376888, 43.62646045283747], [51.19242154466847, 43.62680428236265], [51.191539085233075, 43.62490366414239], [51.192963001921136, 43.62403949763461], [51.210759284806095, 43.61772172659928], [51.211145237395456, 43.617188848030274], [51.21159690830305, 43.6166971072562], [51.211893649042246, 43.61610839439625], [51.212252352661515, 43.61555846869623], [51.212671140320964, 43.615046154200165], [51.212862704784314, 43.61439161701736], [51.21427954378573, 43.61450400829893], [51.21831973951714, 43.61273619267809], [51.21874651948183, 43.6071265618101], [51.21256905807061, 43.61515737196167], [51.21885345898888, 43.612487502013074], [51.21825696756324, 43.607700724269776], [51.21567676215827, 43.602335884158975], [51.21946182086994, 43.59895845671149], [51.22212565030621, 43.59548492233196], [51.22934048742123, 43.59333725705592], [51.232194380713906, 43.58991909264122], [51.23760635166889, 43.58724602591786], [51.23027934727398, 43.59085226274514], [51.28017609541495, 43.59035825013727], [51.276275289655466, 43.586215486610065], [51.28100313127556, 43.582656367831895], [51.279571670096935, 43.57868064785283], [51.28962722046535, 43.57548147981709], [51.29079225071007, 43.571681310033014], [51.29838779526513, 43.56443644964542], [51.32825143268511, 43.519426073903446], [51.3289825369553, 43.517778506364166], [51.32966658892102, 43.51572628837624], [51.33329878641737, 43.50140247386603], [51.32811850724965, 43.519243630397135], [51.32923929916084, 43.517397815190414], [51.33152342778265, 43.51327199880054], [51.33337096681018, 43.50906495408908], [51.33289438987411, 43.504425442426744], [51.334578585337226, 43.50018804037436], [51.33030940051197, 43.49484260529971], [51.33613079897243, 43.481171578613846], [51.31120623193451, 43.46155105739849], [51.31290966879581, 43.45764333971397], [51.313872693936226, 43.45342699837321], [51.31436897639403, 43.44901609760262], [51.31420018583328, 43.44432790302048], [51.3142995479079, 43.439751515144366], [51.314740999647185, 43.43531779322539], [51.316114343231405, 43.42236671208233], [51.31657805860618, 43.41797539940958], [51.31671406142955, 43.413385454691515], [51.315772986995405, 43.40759371608306], [51.314973181250245, 43.40126216695425], [51.31497863185222, 43.39541884266587], [51.3148777620651, 43.38951102837212], [51.31563121553613, 43.38412138171739], [51.31548664720668, 43.378187072073125], [51.31502987654196, 43.37206333401238]], [[51.307869913899616, 43.321710304340385], [51.307027018759115, 43.317442238056536], [51.305619318030715, 43.313092545617266], [51.30423964049688, 43.308746852002365], [51.30297869301809, 43.30441826822746], [51.301518371992245, 43.30006082243266]], [[51.42537714306034, 43.16090101523269], [51.433921403390116, 43.16059647117129], [51.44560941809348, 43.16242333600089], [51.420441429989424, 43.16045607787672], [51.43382932485546, 43.160687283703936], [51.45506261142832, 43.164019496991436], [51.47041922817588, 43.16502443563591], [51.47887963239972, 43.16330240873876], [51.517709427478124, 43.17357146016758], [51.57053491660971, 43.18055535506518], [51.58403923612658, 43.18341035463418], [51.59500056087786, 43.18459172735198], [51.60640271312215, 43.18606140892095], [51.61755906006121, 43.18736814932014], [51.55190504833955, 43.13816935296012]], [[51.65031393022058, 43.18219298983049], [51.652983735391096, 43.18084726709689], [51.65542257247658, 43.17803893588412], [51.6502819461919, 43.1730214281602], [51.65183712664062, 43.16995561171624], [51.65872602476186, 43.16844450188052], [51.662804156111385, 43.16611400722142], [51.664628566407764, 43.15941408675345], [51.663394493789056, 43.15549435660559], [51.66668390927709, 43.15319944188778], [51.66815232364937, 43.15081575401945], [51.66856294425027, 43.146540037937775], [51.66745190138975, 43.1415907878027], [51.669834758460546, 43.13768105285319], [51.66880123805536, 43.13275485461338], [51.6681505782072, 43.1279425268135], [51.67035975893408, 43.12398125607626], [51.67014346550121, 43.11977785256096], [51.662291325008695, 43.11290529037713], [51.65680425509645, 43.106712173412056], [51.66086923563156, 43.10326706802632], [51.6656486586829, 43.100027471974435], [51.66947807029716, 43.09668806367152], [51.67318074968521, 43.09345271471886], [51.67756355289271, 43.090412958039074], [51.68181211083452, 43.087334555838055], [51.686847078907896, 43.08448223564913], [51.692081981451246, 43.082982805151666], [51.696581972745825, 43.07997920855355], [51.70124801492181, 43.07701922655137], [51.70641537931796, 43.0741910124944], [51.71303322004084, 43.071744068973416], [51.717260832627694, 43.0686685351607], [51.72244872009345, 43.065845378096704], [51.72732630881565, 43.06294056058562], [51.73253058901305, 43.060121508060334], [51.73695294339386, 43.05709689650333], [51.761074307431926, 43.03807590562083], [51.76508766914794, 43.034529054558945], [51.76797807624224, 43.030207872819155], [51.77043877709381, 43.025735620065376], [51.77333613836328, 43.021684648587126], [51.776883436527704, 43.01826057116347], [51.783018110671556, 43.01048781773312], [51.786282559813635, 43.00679190020613], [51.78963668023306, 42.988879989544486], [51.79444570165522, 42.98899107849314], [51.79901504689983, 42.98610285199414], [51.80158592339113, 42.980130700774204], [51.803634250482226, 42.97176702080234], [51.804044553004246, 42.96686634473992], [51.80509856621999, 42.96279861324721], [51.80703248837847, 42.95620763941626], [51.811512919131054, 42.95323734837976], [51.831045357545584, 42.93187394008478], [51.83262162048088, 42.92884327648677], [51.83298028471803, 42.920986362772865], [51.83480319741713, 42.91893490315433], [51.83652681768197, 42.91649030651017], [51.838195576267694, 42.91382876688239], [51.84079746374124, 42.914147282110356], [51.8440903824603, 42.91017315772241], [51.84752210658188, 42.90675051776182], [51.85050330725552, 42.90154467662285], [51.83577034865878, 42.9170441381422], [51.84061167970992, 42.91425726833184], [51.84429270554328, 42.91014492833423], [51.84781152969168, 42.90584769511905], [51.85171294542699, 42.90198805029388], [51.85564834038803, 42.89816765037769], [51.86005250380744, 42.89488322255312], [51.863958434251735, 42.891029980630066], [51.86762858608488, 42.88690781308728], [51.85794133581573, 42.89704426766318], [51.86005613212351, 42.892688359672235], [51.86481267242122, 42.88996062360739], [51.868159059626606, 42.88636399314508], [51.871471272629336, 42.882746445788705], [51.87450530305136, 42.87895762235731], [51.877627181127636, 42.875223078798776], [51.880457767795704, 42.87130918796832], [51.882616105448314, 42.8669812010108], [51.884316234552564, 42.86237099293499], [51.89470354542455, 42.846959963216875], [51.89816174072566, 42.84306691935288], [51.901718168072954, 42.83925741058685], [51.90535116564521, 42.8355130690501], [51.910131589227944, 42.832741594968894], [51.91601217589347, 42.83090273213038], [51.923830653941245, 42.830706055827896], [51.929000578377696, 42.83133054594907], [51.93418932956557, 42.832438427778186], [51.93954517866302, 42.8336874537874], [51.95086548009503, 42.83734265946828], [51.96147826299763, 42.84116754899725], [51.9748446198925, 42.84618015098248], [51.98662213168149, 42.84978256337016], [51.99760378425734, 42.85267813701107], [52.009185841576475, 42.856103006826864], [52.01976890990591, 42.85864193261246], [52.030365353567824, 42.861190945480274], [52.0413087207365, 42.86404489822611], [52.02764737077774, 42.860551246919584], [52.05023710597093, 42.86642066715056], [52.06777542429855, 42.87006502736003], [52.06071665989675, 42.86266466885714], [52.07630328597405, 42.865116253092594], [52.05751744861859, 42.834711526073356]], [[52.07263169450546, 42.69999271235165], [52.079943459851954, 42.70044989274189], [52.084104394363564, 42.69697813709929], [52.10642300582374, 42.71613580410401], [52.11885820745956, 42.7229197467378], [52.12411741455484, 42.72067883676184], [52.13989051408099, 42.73152347279006], [52.14183737743837, 42.72516035985916]], [[52.08423988503838, 42.76466927367399], [52.182906718330536, 42.74839240029186], [52.162839017421874, 42.73612767483543], [52.17053544277478, 42.735392454530334], [52.17524079712432, 42.73322031154543], [52.19513435545014, 42.737231144474], [52.205741572370485, 42.73689522152773], [52.19172023943824, 42.72591307659118], [52.19553831926831, 42.7223348489105], [52.218422338599005, 42.726668334576296], [52.2161413938447, 42.720559678158764]]]}, "properties": {"year": 2023, "data_quality": "good", "length_km": 432.8, "spatial_outliers_removed": 30, "n_segments": 9}}]}