{"type": "FeatureCollection", "crs": {"type": "name", "properties": {"name": "EPSG:4326"}}, "features": [{"type": "Feature", "geometry": {"type": "MultiLineString", "coordinates": [[[50.24118051504273, 44.485830539696046], [50.2415092966642, 44.47738525612421], [50.242166236486995, 44.469337479313566], [50.24334764557872, 44.46192509501566], [50.24430034361787, 44.454236054017635]], [[50.24141535932841, 44.48638463731997], [50.24131752703155, 44.4809035602542], [50.2415266573863, 44.47557155966555], [50.24210405401264, 44.47041844966483], [50.243067311662934, 44.46545281539595], [50.24347905930529, 44.460219337636794], [50.24431095839718, 44.455190008938416], [50.244252391107786, 44.44972810577212], [50.24415326843396, 44.44424648938034], [50.24627539978975, 44.43984424420569]], [[50.436000860024116, 44.29791082809864], [50.444472544882444, 44.297643969032904], [50.45305922344354, 44.29745549745259], [50.46089741476895, 44.29675251755466], [50.46884235164832, 44.29612240074701], [50.47735896602019, 44.29588420306682], [50.484985500100194, 44.29503464534434], [50.49243207410108, 44.294140805747595], [50.49951776433563, 44.29424259743858], [50.530890059020145, 44.29218309700222], [50.53694590063104, 44.29143904166706], [50.5440101132525, 44.29218141390728], [50.55090647652043, 44.292675704165006], [50.55671169340851, 44.291561558777246], [50.56296818745899, 44.29111231599978], [50.56692952893752, 44.28728181297149], [50.57182420008336, 44.28482681467604], [50.58014962487534, 44.28742487201724], [50.61226212038478, 44.285616755737976], [50.61840615242145, 44.28447488080074], [50.62449075786557, 44.28288001747832], [50.63054055052693, 44.281021303158134], [50.63663903078258, 44.279536936248], [50.64294209047615, 44.27961544709623], [50.649146874483975, 44.27894428108729], [50.655339870047435, 44.27818404175623], [50.661428137171285, 44.276627538367634], [50.66761743501175, 44.275841535013164], [50.67044004323014, 44.27538747712713], [50.67609368670019, 44.272193877080035], [50.682373630311766, 44.27194756989985], [50.67974304715924, 44.27031907222253], [50.67674045213107, 44.2722982231629], [50.67391774914486, 44.27512455611062], [50.670547419734206, 44.27537519793857], [50.667225276895664, 44.2758526881483], [50.66390043440383, 44.27631762157578], [50.660643006330424, 44.277100188836975], [50.647244881576974, 44.27911824557168], [50.647090615036596, 44.279108178918165], [50.64700858609726, 44.27915916096347], [50.64692574535775, 44.27920945700585], [50.632508719122406, 44.26714234118819], [50.62944846622191, 44.25692044529604], [50.64536543614337, 44.25736999391466], [50.65120910644621, 44.25575811777442], [50.61851945504788, 44.20026072687325], [50.649587667330316, 44.22118684231905], [50.65008064890711, 44.21499688478957]], [[50.63073610302765, 44.17806250274714], [50.63501059980419, 44.17610964086693], [50.642672667571496, 44.17612417445349], [50.64785984242998, 44.174701148164], [50.64632640867289, 44.16937550753932], [50.63634736164086, 44.1531234257364], [50.678626859053836, 44.16863681367553], [50.687809633946564, 44.16912703882122]], [[50.69050923360137, 44.11884397646753], [50.69987834832334, 44.11910193779747], [50.70893645098761, 44.11879241483214], [50.71502278073783, 44.11663997299279], [50.7218267266758, 44.11493230883124], [50.72746666761945, 44.10514882189806], [50.73909475536263, 44.10656097633786], [50.74103296560762, 44.10180811990897], [50.75701784248176, 44.105989743468825], [50.75988672539329, 44.10182931694583], [50.75773525531764, 44.09447640484571], [50.75720737482792, 44.08815586483946], [50.773419419135756, 44.08053135542314], [50.77452569934744, 44.07998269370903], [50.77571830568567, 44.07540023178682], [50.81251332121371, 44.08675800969798]], [[50.9118190850838, 44.012759061195844], [50.92255461810615, 43.988289674315595], [50.93219143988147, 43.969829939322], [50.93347308827091, 43.99743107993554], [50.94229386371988, 43.983463637930804], [50.94828564491153, 43.98470180479913], [50.94631371272687, 43.987691920440845], [50.94621851357887, 43.98032166077827], [50.94482660633162, 43.980110350674785], [50.873388299831966, 44.0657736288047], [50.87395934542216, 44.06166518899826], [50.87065673342802, 44.05634267681385], [50.86963416935497, 44.051734662704085], [50.86967872213469, 44.047461137835164], [50.86889334188609, 44.0429274027505], [50.86833929582858, 44.038466160083324], [50.86609371414728, 44.03347441241181], [50.862091852453766, 44.0279315974506], [50.86319990236625, 44.02485777193264], [50.86503754123987, 44.02922652661819], [50.90280674725859, 44.035047626680296], [50.90683932539202, 44.033742106959636], [50.90790479808861, 44.03181047911717], [50.90797611541793, 44.02890854828072], [50.92457698480729, 44.01476299028589], [50.92518304926721, 44.01047905145832], [50.945378353319036, 43.984089653380025], [50.95138345429591, 43.98203942883564], [50.95564520350038, 43.978802535873264], [50.960035324295426, 43.975653173042126], [50.96381075334889, 43.97208558511583], [50.96729631625514, 43.96832089254613], [50.9724426085523, 43.96568664500174], [50.96749475802024, 43.9681622490233], [50.973503225540085, 43.96542608777125], [50.97898227061436, 43.962485595089724], [50.95828270315439, 43.94944283990892], [50.9604219838014, 43.945214009190416], [50.97320337810845, 43.94509320932363], [50.97753197373358, 43.94170947492651], [50.98583121151464, 43.939857858968395], [50.98531394135845, 43.934604360346526], [50.9838732148069, 43.92900326179983], [50.98398123822187, 43.93931868619129], [50.984385618529934, 43.9348127558896], [50.984873392923795, 43.930317345153746], [50.99626985555509, 43.92719713675709], [50.997056099256376, 43.922739402295385], [50.9979060331528, 43.918289699865824], [50.99866995174407, 43.913829163919836], [50.9983823134369, 43.909236107872005], [50.99917714851149, 43.90477802647005], [51.000226313971915, 43.900346434991356], [51.00375513354967, 43.889203340486006], [51.005246203216444, 43.88484479010281], [51.00599639945242, 43.880278913301716], [51.00614285942672, 43.875544065974665], [51.0084726265342, 43.8714203844753], [51.00994085655521, 43.867055586053176], [51.01184757511847, 43.86281356816574], [51.0127049186869, 43.85827784287504], [51.01365844768177, 43.853769070547436], [51.01869601771349, 43.83523348603774], [51.020476843320196, 43.83109904233334], [51.022606797353234, 43.82711097196909], [51.024258620464806, 43.82241241379364], [51.025273250063265, 43.81731113418614], [51.02431153816618, 43.81096029964418], [51.0274799313432, 43.80722104914724], [51.03055334299987, 43.80342190060166], [51.03185460044363, 43.79850233796583], [51.03501531034867, 43.794758725693846], [51.03704198901882, 43.79016918814054], [51.03929906557884, 43.78585350603005], [51.04405492211422, 43.78312469684717], [51.04896736291494, 43.78049538215477], [51.05239706693121, 43.77692475587401], [51.05303391187724, 43.77158103745634], [51.06017954085315, 43.770369988159835], [51.06232673843202, 43.765985605471144], [51.0673883716308, 43.763451607830696], [51.07073844142298, 43.759831180816256], [51.04916375862561, 43.781001956452], [51.052137934393855, 43.77691892332185], [51.05638517039425, 43.77282150416998], [51.06269655910907, 43.76870062125577], [51.0628543053803, 43.76464906414109], [51.070241332086745, 43.7605155868462], [51.07214240343473, 43.7564441816186]], [[51.595375916407534, 43.18483841318489], [51.60720939073709, 43.18659139983608], [51.61756547037404, 43.1873723597631]], [[51.661109555784584, 43.17969614887565], [51.65864988885393, 43.175460397898135], [51.6577324265812, 43.171673971017384], [51.66595066517853, 43.17054983103592], [51.665339133298346, 43.1668527169335], [51.66540996302514, 43.16335442321836], [51.66568719286192, 43.15972898616054], [51.667056743296854, 43.156583793199836], [51.66873830872862, 43.15381055355175], [51.668972684953914, 43.151059786165824], [51.669289825747576, 43.14675627571466], [51.669175541091924, 43.14210360052258], [51.671845378460155, 43.13827923455894], [51.67062373898804, 43.13329713513156], [51.67043080102769, 43.12862106548962], [51.671543080805726, 43.12433338831572], [51.67100736485283, 43.12002623834525], [51.66478770017051, 43.11362329844008], [51.66571271375674, 43.10004589824364], [51.66966565331713, 43.096742020014084], [51.67342780144393, 43.093523771209554], [51.67823949528174, 43.09060734955954], [51.682441140886645, 43.08751543865338], [51.68756758755483, 43.084689396913696], [51.69261270420289, 43.0831224264379], [51.69700515043214, 43.080090524263454], [51.7016052774705, 43.07711319186267], [51.706350634418264, 43.0741739859664], [51.71404369500255, 43.07200974139821], [51.71831520710327, 43.06894571979254], [51.723481103046915, 43.066116741654234], [51.72791820663432, 43.06309612252191], [51.732827686361645, 43.06019957982417], [51.73720032413222, 43.05716189625964], [51.76138648858203, 43.038376890451666], [51.76524004349946, 43.03467595867357], [51.76810071573667, 43.03032610974777], [51.771240745216865, 43.026508798997945], [51.77375977988204, 43.02209308379746], [51.77709971568789, 43.01846908171196], [51.77860800883438, 43.013079489048486], [51.78231579391883, 43.00981072946605], [51.78572814268665, 43.00625741035481], [51.79033289016207, 42.98986968342052], [51.793315477825516, 42.987384564882355], [51.79694533636973, 42.98316111688365], [51.801723267710166, 42.98032590546515], [51.80305108712719, 42.97642208789635], [51.80383011734229, 42.972045424477585], [51.804212828735935, 42.96710554761552], [51.80553921853582, 42.96342501674336], [51.80757384350401, 42.956977235461686], [51.81177291683697, 42.95360693672293], [51.831074391773456, 42.931989040480346], [51.83273128646349, 42.92927800044188], [51.83410213267762, 42.92543364722046], [51.835071661483425, 42.91999913222034], [51.83679127947111, 42.917538595011806], [51.838546279567005, 42.915218806750715], [51.840881913614595, 42.91448195220923], [51.84422556662064, 42.9107088032229], [51.84755160583698, 42.90686738503403], [51.85087209345343, 42.903005508115555]], [[51.86032424997206, 42.89519367829598], [51.86410756411844, 42.891200347781506], [51.86784399602399, 42.88715389217387], [51.85831678786145, 42.89727564690753], [51.86072440507704, 42.893100202101564], [51.86529604417293, 42.8902584956956], [51.86860206055438, 42.88663698175688], [51.87193584824204, 42.8830327236087], [51.87485724259895, 42.87917449058306], [51.877787660392904, 42.87532196657702], [51.88054785810429, 42.871364701780735], [51.88292483785303, 42.86717144562488], [51.8847816526391, 42.86265779871416], [51.89510543590085, 42.847300659005384], [51.898577261252306, 42.84341916339627], [51.90209838782678, 42.83957972279402], [51.90620144126682, 42.83623382337218], [51.91093214664367, 42.83342015889005], [51.91673094751297, 42.831511907031604], [51.92447167708823, 42.831249237955966], [51.92939934302673, 42.83166840228265], [51.93472373837364, 42.83289114377433], [51.94036131421126, 42.8343787232463], [51.951641640459584, 42.83803059260423], [51.9623398055013, 42.841930912948975], [51.975995744755345, 42.84719967693045], [51.98728777115314, 42.8503719079447], [51.998392387891414, 42.85337613102576], [52.009907321334126, 42.856741374997576], [52.020387214724465, 42.85918884918104], [52.031327436805334, 42.86204168864223], [52.042274129491545, 42.86489831551118], [52.029864726858186, 42.861651310803374], [52.05233426958201, 42.86746039926714], [52.069635420591204, 42.8709867094433]], [[52.15160715928022, 42.80695057019198], [52.154046992642215, 42.801334505159076], [52.15616031899361, 42.79531328234949], [52.15883683571171, 42.789992229943145], [52.164267341315444, 42.788093059907915], [52.170666489862654, 42.78734859580905], [52.17801086257113, 42.78769045971786], [52.18755974591137, 42.79076862834349], [52.19478043582152, 42.790955303491366], [52.201366826491395, 42.79303122591834], [52.18725024157954, 42.78784063265308], [52.19071151869786, 42.783519633045856]], [[52.13215832698726, 42.71106629544512], [52.117599746822215, 42.70026922357652], [52.1095447542595, 42.68658399734999], [52.10752363252258, 42.68057611562194], [52.12029964515751, 42.68072928789101]]]}, "properties": {"year": 2014, "data_quality": "good", "length_km": 230.6, "spatial_outliers_removed": 43, "n_segments": 11}}]}