{"type": "FeatureCollection", "crs": {"type": "name", "properties": {"name": "EPSG:4326"}}, "features": [{"type": "Feature", "geometry": {"type": "LineString", "coordinates": [[50.24133221210906, 44.486014190390065], [50.2413550611161, 44.47719850595026], [50.24213040178966, 44.46929408527673], [50.24302452759625, 44.46153377645063], [50.244308660654106, 44.45424612749055], [50.244313074109144, 44.44540869375588], [50.2416297450151, 44.48648874160775], [50.2412946336667, 44.480892442281686], [50.24131751416081, 44.475469982074344], [50.24189284720403, 44.47031586244658], [50.24279474051538, 44.46532041444454], [50.24303799004219, 44.46000507178202], [50.24425062798292, 44.45516069953294], [50.244251351024545, 44.44972760043746], [50.24439038565079, 44.44436170559726], [50.24578975598176, 44.43960826060631], [50.3236476901921, 44.329823401814686], [50.330353405882484, 44.32732823693352], [50.33567458522391, 44.32429085819976], [50.34078602979599, 44.32117133754992], [50.3497206685132, 44.319548198464794], [50.35751524049688, 44.31747844805136], [50.364237949895156, 44.314989026705625], [50.37249936910281, 44.31310132238579], [50.37901505325279, 44.31053048331823], [50.38336770633135, 44.30711361561616], [50.435451015748626, 44.2975330854136], [50.44453414822706, 44.29768628146977], [50.452590813992096, 44.297133832370434], [50.46088925994179, 44.29674691854109], [50.46882422831513, 44.29610995974562], [50.47768159356982, 44.296105628516905], [50.48508882091363, 44.29510554449496], [50.49343636298026, 44.294829826768634], [50.499448873116144, 44.294195339993394], [50.53119741045541, 44.292636357971126], [50.53751513274508, 44.29227835346286], [50.543986505477385, 44.29214661258322], [50.550476521823306, 44.29204202123965], [50.556708947470874, 44.29155751241326], [50.562924245940785, 44.291047576542816], [50.56892189830019, 44.290216853130985], [50.574776535658266, 44.28917542545244], [50.58101011665355, 44.28869201607378], [50.587514541163515, 44.28860716584664], [50.61225720523656, 44.28557910854378], [50.618734566998384, 44.2869882619573], [50.624489468574545, 44.28287015762512], [50.630543248354535, 44.281041919085624], [50.63667952942432, 44.27984617317043], [50.64294021075204, 44.27960110577178], [50.64913688054655, 44.27886809330827], [50.65533763434415, 44.278167011660194], [50.66141789221636, 44.27654955895342], [50.66759009370227, 44.275633591289974], [50.67047087065301, 44.27553254495074], [50.67651713097973, 44.274185646858356], [50.68238896316994, 44.27201965730316], [50.68038861002539, 44.273354765682214], [50.67705303531281, 44.27376846455517], [50.67384718668808, 44.27479259312174], [50.67057824741518, 44.2755202657343], [50.66718141101345, 44.27564621004165], [50.663875671658, 44.27620103195613], [50.660600296497144, 44.27689904833096], [50.64722459006108, 44.279101097048596], [50.64703055232732, 44.2790574191986], [50.646948523407225, 44.279108401201306], [50.64686568268834, 44.279158697200636], [50.87339536614486, 44.108769322786365], [50.87406801885781, 44.10377387006402], [50.874433652187896, 44.09864134249207], [50.87513477122803, 44.09365867991478], [50.905612365208725, 44.01229561769135], [50.911966461487545, 44.011948493246926], [50.91859477487021, 44.01009145016818], [50.925637304733094, 44.005950453674494], [50.93264759501648, 44.001981315853456], [50.94029396708885, 43.99449792525449], [50.94752064710489, 43.98892541187864], [50.94572354517225, 43.99094955922705], [50.94404619526902, 43.992312153521304], [50.942334628557774, 43.99386309147995], [50.87329439450565, 44.06574420188345], [50.873747499977, 44.06159879991115], [50.87074031768165, 44.0563688759106], [50.86935825021785, 44.05164816684967], [50.86909372482312, 44.04727773726165], [50.86853504509131, 44.04281506325153], [50.86831411394611, 44.03845826392713], [50.86810008169298, 44.03410361439289], [50.87040850517547, 44.03053999506439], [50.87274874309225, 44.02785260201001], [50.870494851843475, 44.03038011858907], [50.872222495881445, 44.028588543292024], [50.873063864541834, 44.026609656684684], [50.87307052994256, 44.024454361204775], [50.87603055474629, 44.022162616468016], [50.88164526319139, 44.01893660309822], [50.88662954971857, 44.015577261413355], [50.894771825195, 44.01288480053325], [50.91085183472338, 44.011867409790185], [50.92040421570041, 44.009471039590025], [50.94192084543531, 43.994013003196365], [50.9459689187443, 43.99063008721777], [50.94906290711249, 43.98659790216813], [50.9496242446818, 43.98084186853996], [50.95654887359715, 43.97941763891282], [50.95986021815343, 43.975533987217375], [50.962448051445264, 43.97115807264066], [50.967870610046575, 43.96871175945258], [50.97168867826152, 43.965173545704076], [50.9681577852468, 43.968418074871494], [50.972033160900274, 43.96485892192594], [50.97570467092495, 43.96122116212646], [50.979444997154246, 43.95761000304503], [50.9809267491266, 43.953127578163205], [50.97759793810749, 43.94678909629644], [50.97929609238433, 43.942390243907795], [50.99048296152426, 43.941652487296786], [50.992395453038355, 43.937336547688155], [50.994649051795115, 43.93316108771478], [50.99072748784523, 43.94016916914178], [50.99269754410142, 43.93586060887278], [50.99490664610741, 43.93158217126844], [50.99583909167417, 43.92714285366519], [50.99716040779748, 43.92275254682152], [50.99792566627015, 43.918292173992704], [50.998311673824084, 43.913784012871695], [50.998826446224335, 43.90929208240437], [50.999097406817555, 43.90476797615835], [51.000463068582484, 43.90037627420761], [51.00395135287182, 43.889258257434186], [51.003302734594044, 43.8843008265718], [51.005867539756046, 43.88024284587666], [51.00531868911421, 43.875313362776254], [51.00623009971972, 43.870792643144625], [51.01002326370349, 43.86707865334188], [51.007591770248304, 43.86162218061891], [50.99895726084853, 43.85442834773157], [51.014264191797814, 43.85393864316671], [51.01803739736558, 43.83481713144919], [51.02018736358722, 43.830916040682375], [51.022774482905916, 43.82721697924653], [51.024068464256395, 43.82229219559634], [51.025175837292416, 43.81724954541565], [51.02361006483441, 43.81051673376969], [51.024898935175884, 43.805588965294305], [51.029761072939536, 43.802920932558564], [51.031598954859426, 43.7983406814367], [51.034740944199704, 43.79458523364392], [51.03801217528958, 43.790785246852614], [51.038475677558274, 43.78533063701321], [51.04495309930324, 43.78369500152924], [51.04579721665314, 43.778482480866025], [51.049257834342306, 43.77493153099229], [51.054122649097806, 43.77227232077537], [51.057308600307834, 43.76854726533928], [51.0625117761755, 43.76610307977536], [51.04850270838519, 43.78100934161076], [51.04820544992415, 43.776962905422046], [51.05051107603291, 43.77288737458326], [51.058873945334945, 43.76874373524963], [51.064564860505435, 43.764629726322305], [51.58892671548632, 43.19264665986604], [51.58388362295418, 43.183308054838314], [51.595830009085354, 43.185136841191216], [51.60714804246028, 43.186551094261574], [51.61764239419661, 43.18742288504978], [51.66108783607273, 43.17968982036352], [51.66361884557107, 43.17690829605971], [51.662451874148786, 43.173049303771606], [51.666100397935885, 43.17059345820656], [51.66633348262209, 43.167142456847465], [51.66600882326306, 43.163528934240986], [51.66848024073053, 43.16055974436424], [51.669342581040304, 43.157263698953045], [51.668665384260095, 43.15378886192805], [51.67014171098643, 43.151407521717736], [51.67050662306413, 43.147118243255505], [51.67347394209594, 43.143382298256164], [51.67288089138838, 43.13858729269891], [51.672462219127894, 43.13384413092098], [51.673295387480714, 43.12947341046962], [51.67337218803763, 43.124877660816765], [51.67178659656193, 43.120250273388244], [51.66523275204235, 43.1137512968567], [51.65748832075945, 43.10690899011296], [51.661056831423586, 43.10332103833702], [51.66563950796117, 43.10002483964732], [51.669712549123076, 43.09675550905125], [51.67340378249812, 43.09351686296325], [51.67828981941909, 43.09062182186356], [51.6823759503292, 43.08749669277818], [51.68750926048556, 43.08467262688639], [51.69272833039082, 43.08315284468955], [51.697227145889634, 43.080148918759], [51.70202266323885, 43.07722296868214], [51.70645006410023, 43.0742001338335], [51.71398588727783, 43.071994542989565], [51.71830248981132, 43.06894237661519], [51.723571278021126, 43.066140443736174], [51.72833323050124, 43.06320519633498], [51.7328288423839, 43.06019988360383], [51.737625727730496, 43.05727367028024], [51.76152251132622, 43.03850803356363], [51.76535525385903, 43.03478703237544], [51.768168353478075, 43.03039131914654], [51.77127419196271, 43.02654104451615], [51.773968629791625, 43.02229443458672], [51.777058094841955, 43.01842895600392], [51.77892980798788, 43.013389742430995], [51.78237747826234, 43.00987019877498], [51.785740033569425, 43.006268873973625], [51.79047978939375, 42.99007850264228], [51.79337964233094, 42.98747577165584], [51.79730443968014, 42.98367154323218], [51.80157016262366, 42.98010830022448], [51.803013374930934, 42.97636848701725], [51.80383462004966, 42.972051824557795], [51.80495967368142, 42.96816715714434], [51.80608061979881, 42.96419461852315], [51.80775279756552, 42.957231633544495], [51.811727332596845, 42.95354213881293], [51.83105898128479, 42.931927948733254], [51.832725925971204, 42.92925675120931], [51.83409520855904, 42.92540620036109], [51.8352950165462, 42.92088451344965], [51.83699610968683, 42.91835048677013], [51.83881009956772, 42.91626443444958], [51.84131512499162, 42.9161986844571], [51.844311147261756, 42.91104789769387], [51.84752881094795, 42.90677707850647], [51.85098183875076, 42.903440215823835], [51.836760498804885, 42.91817561174451], [51.841172386732865, 42.91489795980018], [51.844606196267165, 42.91050313052434], [51.847982523115796, 42.90604307314068], [51.85212320219043, 42.90245679193169], [51.85636812313889, 42.89899000539629], [51.86008696902287, 42.89492259746581], [51.86420367046994, 42.891310139836364], [51.86818799269745, 42.88754686065243], [51.85833086736767, 42.897284323604595], [51.8610097378059, 42.89327604371549], [51.865521306381005, 42.89039730915619], [51.86877006404456, 42.886740508756986], [51.87190018369964, 42.88301074679422], [51.875066530483004, 42.87930345436071], [51.87803166493409, 42.875472321820155], [51.8806557789986, 42.87143120260591], [51.882947359439896, 42.86718532361795], [51.884957123880596, 42.8627659286139], [51.902801569772066, 42.8538239174813], [51.898673521508584, 42.84350076410858], [51.90223154589201, 42.83969259975351], [51.90616935503481, 42.83620662521549], [51.92216426121827, 42.842938475854524], [51.91669565036211, 42.83148199230265], [51.924151565249595, 42.83097798727389], [51.92929022389746, 42.83157595079421], [51.934701270578664, 42.83287211072184], [51.940502554858426, 42.83449835234921], [51.95217394168672, 42.838502374378876], [51.962261624723354, 42.84186164245318], [51.976321851565906, 42.84748849423656], [51.98743951682784, 42.85050625854887], [51.998436982081316, 42.853415600755206], [52.009894018427154, 42.85672960469486], [52.020627495625824, 42.85940138416783], [52.03134465904118, 42.8620569174905], [52.04213240926115, 42.86477303743455], [52.03038837935544, 42.86191109063704], [52.052281484353685, 42.8674342303066], [52.07048726040918, 42.87140880132405]]}, "properties": {"year": 2000, "sensor": "LANDSAT/LT05/C02/T1_L2", "scale_m": 30, "n_scenes": 11, "date_window": ["2000-07-01", "2000-08-01"], "otsu_threshold": 0.121, "data_quality": "good", "length_km": 320.1}}]}