{"type": "FeatureCollection", "crs": {"type": "name", "properties": {"name": "EPSG:4326"}}, "features": [{"type": "Feature", "geometry": {"type": "LineString", "coordinates": [[50.323556306033566, 44.3297876154227], [50.33033358755982, 44.32732047719525], [50.3363517039682, 44.32455594906623], [50.34021902671215, 44.32094937313911], [50.34968103190336, 44.319532685685296], [50.35756148404889, 44.317496543132314], [50.36423244469437, 44.31498687285109], [50.37247954991048, 44.31309356993645], [50.37921875090236, 44.310610149487275], [50.38345468819142, 44.30714763195896], [50.43551261245011, 44.29757540268235], [50.444528712634266, 44.2976825480208], [50.452586283945, 44.29713072148023], [50.460910100058705, 44.2967612271302], [50.46882332214867, 44.296109337695476], [50.47753568586632, 44.29600548959156], [50.4849918443535, 44.29503899880362], [50.49327320975897, 44.2947178925446], [50.499472441152484, 44.29421150701878], [50.53120070353198, 44.29264121433408], [50.53750964344801, 44.29227025982386], [50.54404250536119, 44.292229164553156], [50.55046938344497, 44.2920315003087], [50.55678912900442, 44.291675666213955], [50.56289128986522, 44.29099902193877], [50.56887959891051, 44.29015454357609], [50.57470346368861, 44.28906780353571], [50.580909009706794, 44.28854313103617], [50.58742935576109, 44.288481751187376], [50.61224796009337, 44.285508295963034], [50.6183766386101, 44.284248999088994], [50.62448688999376, 44.28285043791863], [50.630543834839045, 44.281046400808975], [50.63668199457241, 44.27986499628648], [50.64294068068298, 44.27960469110291], [50.649149813882126, 44.27896668925726], [50.65534528280796, 44.27822527251468], [50.66142154271451, 44.276577344721915], [50.66761389948697, 44.27581464573937], [50.67047824656165, 44.275567254428296], [50.67652053681221, 44.27420166644558], [50.68239293836143, 44.27203834662947], [50.68040204811991, 44.27341795361886], [50.67707706625457, 44.273881491537956], [50.67385078100339, 44.27480950276607], [50.67058581251313, 44.27555586519162], [50.66721960456625, 44.27582598839443], [50.66389627576801, 44.27629804164017], [50.660605776946404, 44.27692485839713], [50.64720754519685, 44.27908669228641], [50.64710522490043, 44.27912052587216], [50.647023195956415, 44.27917150792784], [50.64694035521188, 44.2792218039807], [50.68317416314457, 44.16921757724403], [50.7240999131105, 44.09701932115239], [50.873429354183365, 44.10878450001473], [50.874143423880504, 44.103807544104306], [50.874653476847385, 44.09873951814357], [50.87528449501853, 44.09372555235658], [50.90561869891601, 44.01226080289872], [50.91196029383342, 44.0119824157003], [50.918646679286375, 44.009805784249494], [50.92545544217543, 44.006952081537584], [50.932393459484224, 44.00338200453729], [50.94000476195906, 43.99609324995868], [50.94750334405773, 43.989020936187], [50.945726618286876, 43.9909325970209], [50.94405897522477, 43.992241626658455], [50.94235938415733, 43.9937265018881], [50.873329895288784, 44.06575532670421], [50.87431891120912, 44.06177787011677], [50.87075520255649, 44.05637354149676], [50.869817352628885, 44.051792086969506], [50.86975885903429, 44.04748626096805], [50.86834960127651, 44.042756919043825], [50.86833471730398, 44.03846472441896], [50.868108093514, 44.034106126823005], [50.87036272553588, 44.030525639228685], [50.87425714517222, 44.02832558580076], [50.87044455308075, 44.03036948759501], [50.872220100759186, 44.02858803709084], [50.87312134574975, 44.026621805076914], [50.87304538283162, 44.02444904627462], [50.87619700013569, 44.02219779180093], [50.88154827323806, 44.018916109888856], [50.88669660194909, 44.01559142659048], [50.89473351026919, 44.01287670885583], [50.909644871051995, 44.01161268554181], [50.9199037108155, 44.00936545324034], [50.941847347792766, 43.9939629707424], [50.94593625345176, 43.99060785172166], [50.949141845789555, 43.98665163581085], [50.95217643729874, 43.98257921758652], [50.95658425864924, 43.97944172412621], [50.959934615496046, 43.97558462578736], [50.96375087341288, 43.972044829252766], [50.967836134061436, 43.96868829517065], [50.97157617954759, 43.96509698172045], [50.96803023727838, 43.968368861575115], [50.97204195701536, 43.96486231564483], [50.97583440889334, 43.9612712152734], [50.979347147641015, 43.95757225417727], [50.98203711206181, 43.953555944229336], [50.98535552899472, 43.9497821480332], [50.9881040983217, 43.94578859040422], [50.99117986878274, 43.94192132594073], [50.993287969563795, 43.937680849242376], [50.99461607907059, 43.93314836772117], [50.99201145743669, 43.94033098812859], [50.99404893466877, 43.93603091293056], [50.995274846975626, 43.93162857014357], [50.99623671984413, 43.9271929611923], [50.997043827666324, 43.92273785587427], [50.99788885417644, 43.91828753500201], [50.99819142998608, 43.91376885918589], [50.99874792544996, 43.9092821864801], [50.99946912601977, 43.90481482559785], [51.00040050646033, 43.90036838928107], [51.0039559971205, 43.88925955723951], [51.00518234914543, 43.88482691846976], [51.00646772543183, 43.88041083435553], [51.0074243988531, 43.87590278137545], [51.00853066356728, 43.87143662978384], [51.01024146885372, 43.867139732635756], [51.011834808611006, 43.86280999456538], [51.013047269190594, 43.85837367731707], [51.01412726083534, 43.853900310940254], [51.01789218358509, 43.83472533155835], [51.02032414019853, 43.83100250757403], [51.0229571577868, 43.82733246175239], [51.02403567878034, 43.82227146828869], [51.02524140355846, 43.817290999404996], [51.024312474719615, 43.810960891852055], [51.02747712176443, 43.807219272600264], [51.03014315897526, 43.803162534859624], [51.031466918668926, 43.79825718827817], [51.03516232631035, 43.7948516887373], [51.03874123011071, 43.791248175676756], [51.041706693368454, 43.78738231458406], [51.04492879875914, 43.78367957194377], [51.04918886988103, 43.7806360208207], [51.05265314928564, 43.77708734316861], [51.056275899384914, 43.7736394288076], [51.060175802535944, 43.77036761487017], [51.06386874175477, 43.76696454876551], [51.06727809571765, 43.76338160260117], [51.070293612282505, 43.759548799033524], [51.04856235202272, 43.78100867543757], [51.052639900391696, 43.77691329943942], [51.05734927599033, 43.77281066411121], [51.06172630895775, 43.76871157649819], [51.06628038342557, 43.76461030661864], [51.06989228896272, 43.76051955245509], [51.07196354656255, 43.75644621691803], [51.07409165442743, 43.75237218996328], [51.07672989150578, 43.748292291890806], [51.11894990830978, 43.68250710371133], [51.12216856015221, 43.67791153957988], [51.12660346599832, 43.671012874243495], [51.13148431509938, 43.66574970447397], [51.13559164409558, 43.657659248732855], [51.14023403810974, 43.65153017250391], [51.145245894568475, 43.6467556810998], [51.1500340345785, 43.64116581303748], [51.15474543686428, 43.63529843170689], [51.160124477770935, 43.63187449535849], [51.11320832107905, 43.69753874644032], [51.114435995301804, 43.69462126710168], [51.11511053077691, 43.69145562459318], [51.115546678485416, 43.688509331772586], [51.116240977133536, 43.68690629225337], [51.11704709904563, 43.68535344460785], [51.11774870834042, 43.68375370998896], [51.11905599108726, 43.68242578027643], [51.11985037308873, 43.680867702925525], [51.119987322936154, 43.679014615591505], [51.07587524294817, 43.75011091667914], [51.077780958508804, 43.74578774689081], [51.07803083962789, 43.74508575064876], [51.07873389629228, 43.744200156876815], [51.07946186749212, 43.74330445622969], [51.07956861381776, 43.74266043542991], [51.08015345164209, 43.74182270938732], [51.07902732083084, 43.74366444890903], [51.07739901677203, 43.746620975120436], [51.07589307628615, 43.7495278469654], [51.13745741182409, 43.65429783345723], [51.139719294216604, 43.6526988961816], [51.14078531448327, 43.6506802787553], [51.14277232669712, 43.64898489177685], [51.144234507770506, 43.64710533045661], [51.145711110909716, 43.64523084300987], [51.14813096054376, 43.64368736940976], [51.149523632192675, 43.64178345052543], [51.1946472748467, 43.65521259222018], [51.23057924306741, 43.65962761562894], [51.17151205677332, 43.63009538201288], [51.17739164160353, 43.62973439616675], [51.18185022634602, 43.628734443887986], [51.18625411641642, 43.628544916420665], [51.18854363078898, 43.6280697527065], [51.19001088431765, 43.62722504621367], [51.191579292745146, 43.62642579641766], [51.19345230216878, 43.62576342080286], [51.205073536453725, 43.6294806133142], [51.21158368011911, 43.618237731561], [51.211994041413796, 43.61772013042183], [51.21256777267755, 43.61730478657526], [51.212712398285134, 43.6166208651946], [51.213249495534725, 43.61618259786445], [51.2135255611102, 43.61558095161209], [51.21561472053326, 43.61611410734067], [51.21654615664407, 43.61592264469571], [51.23454255918419, 43.62288662567621], [51.23416773521645, 43.61677638690412], [51.235811334909215, 43.621926257892866], [51.218862660869355, 43.61249018266379], [51.22120136869229, 43.6085585111454], [51.21344573983837, 43.6016857403932], [51.21957451900072, 43.59899129416266], [51.22188531547568, 43.59541489660309], [51.232562634269186, 43.59427581891656], [51.23753340162769, 43.59147413698187], [51.27561836082003, 43.598308631156556], [51.27497323769284, 43.59776415857525], [51.267772667488316, 43.593397799715746], [51.283532352446336, 43.59058515117369], [51.301093840222265, 43.587891958409024], [51.28823404872436, 43.58314510482859], [51.28850644170512, 43.579284635057604], [51.29400252399374, 43.575776965804614], [51.29995175489333, 43.5722996486369], [51.30579795711649, 43.56881512188484], [51.31244492929038, 43.56538428828144], [51.32616434434888, 43.53322904372009], [51.32677508016097, 43.53054341098254], [51.32750437670416, 43.528878808392065], [51.32835674306458, 43.52827381484033], [51.32920752855538, 43.52765535667278], [51.33019269912332, 43.528193403481794], [51.33092030944873, 43.526515320569565], [51.331971703952675, 43.52762308377045], [51.332394912890464, 43.523326918868605], [51.334969466741065, 43.51577496364817], [51.18379439813329, 43.49405271248965], [51.32935207716888, 43.52035783408716], [51.331513408221184, 43.51987534333049], [51.33353196998699, 43.51819654356842], [51.33555931865266, 43.51402292055523], [51.33830195530969, 43.50998237742299], [51.33158326263651, 43.50418143817813], [51.341664865237846, 43.50150650482573], [51.28976952429103, 43.487287944824615], [51.34563482125011, 43.489745791526154], [51.34403999306499, 43.48446502973766], [51.343939640131886, 43.479806415337116], [51.34336059535309, 43.47494845198666], [51.34255197153782, 43.46999482938461], [51.333579423822, 43.46164027283265], [51.2723015556087, 43.431463501912674], [51.266279104473526, 43.42432916482131], [51.25757456932046, 43.41607329294358], [51.281263295096174, 43.42134827028753], [51.298914837385944, 43.411938255247996], [51.30042791823342, 43.40818276430269], [51.30494866530905, 43.4062515237911], [51.306133576432764, 43.40174838638832], [51.30960598453738, 43.398007335117015], [51.31040652268726, 43.392645943068445], [51.31714096330953, 43.39088359522772], [51.323425953768364, 43.3888485559846], [51.31606467460358, 43.37853770068347], [51.3157653850332, 43.37250953940978], [51.308756747395435, 43.321838389587874], [51.31635340673599, 43.31878904441035], [51.30654594136225, 43.31322641600869], [51.30516135637716, 43.30888003477828], [51.30379511305096, 43.30453625474379], [51.30267457901991, 43.30022793972614], [51.308449034756684, 43.29276973915915], [51.48145877976492, 43.279344108632905], [51.42400678299233, 43.248683104583996], [51.51539076777553, 43.28385675132151], [51.491286693066655, 43.26796953725022], [51.37590648473727, 43.2116297219742], [51.44359123008693, 43.23638994056382], [51.42696048713594, 43.16197524256972], [51.43794473655669, 43.16332545872894], [51.44787359071405, 43.16395867316808], [51.42374055609314, 43.161761891949034], [51.44063500660552, 43.1633798082839], [51.45505719985509, 43.16401735717696], [51.473778107004016, 43.16635190180465], [51.48175471575557, 43.164438441430164], [51.51849129653667, 43.17388001602652], [51.58887727528634, 43.19261416688318], [51.58392206851319, 43.18333332892566], [51.595770500720654, 43.18509773278731], [51.60710592279455, 43.18652342175812], [51.61754898671426, 43.187361532909044], [51.661084406644946, 43.17968882112439], [51.663585695560805, 43.17689863746512], [51.66633823211868, 43.17418166572201], [51.66587294138773, 43.17052718479306], [51.666206616845415, 43.167105490516114], [51.66563853523659, 43.16342103085209], [51.66828423492506, 43.1605014477879], [51.66921723469825, 43.15722641717987], [51.66933765864023, 43.15398882980684], [51.66967455475877, 43.151268564512456], [51.669238556510045, 43.14674102398662], [51.67109629946154, 43.142675018591014], [51.67201739364576, 43.138330408788434], [51.67273104546239, 43.13392411045869], [51.67270993477656, 43.12929921940811], [51.67299634146338, 43.12476582641035], [51.670958162452244, 43.12001209204682], [51.66364361638618, 43.11329424565282], [51.65726296754483, 43.10684415295978], [51.66084635811827, 43.10326048625989], [51.66567153549062, 43.10003405278903], [51.66955012958941, 43.09670879083982], [51.67336946972767, 43.09350699403112], [51.6782177644115, 43.09060110014863], [51.682434278720855, 43.08751346540512], [51.68740289944033, 43.0846420461711], [51.6925051719496, 43.08309413735816], [51.69701440023455, 43.08009295737611], [51.701953291540946, 43.07720472333376], [51.706370289116215, 43.074179154737735], [51.714095721978936, 43.072023419940834], [51.71831173875078, 43.06894480801702], [51.72342907905456, 43.0661030673436], [51.72827542764712, 43.063190005087094], [51.73273751665961, 43.06017588497418], [51.73765462748683, 43.05728126356616], [51.76137013616012, 43.03836112460167], [51.76522666425891, 43.034663059784215], [51.76810591863476, 43.03033112585687], [51.77119317657215, 43.02646293868777], [51.773924035389925, 43.022251441569125], [51.777006068861, 43.018378798846584], [51.7778789562603, 43.01237657892128], [51.782446594596315, 43.00993683301955], [51.78566794516073, 43.00619937576475], [51.790348649418625, 42.98989208549241], [51.7933379916653, 42.987416567263466], [51.79729543388128, 42.983658742586314], [51.80162025938878, 42.98017950196367], [51.80290868171727, 42.976219684506205], [51.80379859841698, 42.97200062391066], [51.80405862283112, 42.96688634499062], [51.80597594032322, 42.964045818395334], [51.8074787395918, 42.9568420363572], [51.811662614396845, 42.953450141746394], [51.83107014830243, 42.93197221811551], [51.832662270415405, 42.92900441654477], [51.83408448735568, 42.92536370199701], [51.83521349118474, 42.92056134937349], [51.836894475681156, 42.91794763978029], [51.83872990267655, 42.91594658497054], [51.84105841242218, 42.91518139471941], [51.84428455682848, 42.910942539369394], [51.84749037266295, 42.90662479689617], [51.85098317984367, 42.90344552793338], [51.83648942998314, 42.91786585849637], [51.84102127305218, 42.91472529146461], [51.844593603546144, 42.910488741870424], [51.84796860500579, 42.90602717028861], [51.852052284984836, 42.90237576562134], [51.85629322772033, 42.89890443829348], [51.86038125073488, 42.89525879819409], [51.86425802042047, 42.89137222909836], [51.86801831363531, 42.88735302662695], [51.858199458796186, 42.89720334102959], [51.8608210801296, 42.89315978009866], [51.86547062229628, 42.89036607616727], [51.86858235068446, 42.88662483611456], [51.87195555760526, 42.88304486868549], [51.875070284533706, 42.87930576760874], [51.87799694113877, 42.8754509251451], [51.880555365637285, 42.871369327928484], [51.882902316276244, 42.86715756762727], [51.88496275398402, 42.86276939801785], [51.84419204607522, 42.80409810573068], [51.89869036707953, 42.84351504422457], [51.90218822935966, 42.83965588076032], [51.906122027894064, 42.83616650791722], [51.91124900537835, 42.83368872716547], [51.91669885919259, 42.83148471182393], [51.92440027345259, 42.831188733498806], [51.92933836464961, 42.83161673822896], [51.93471972626638, 42.8328877450153], [51.94053305006982, 42.834524181336164], [51.951997288690535, 42.838345806852615], [51.96221237092316, 42.84181800201211], [51.97629995461031, 42.847469101258476], [51.98738241657388, 42.85045570396484], [51.99865447736758, 42.85360810198162], [52.010200769100145, 42.85700101361562], [52.02085525526987, 42.85960284192404], [52.03134387621209, 42.862056225270194], [52.04236417303044, 42.86497791198348], [52.029677999116785, 42.86155867554069], [52.05230787696231, 42.86744731478999], [52.07044969392841, 42.87139018715874], [52.1592810346357, 42.746856905362854], [52.14080979124612, 42.704759546188015]]}, "properties": {"year": 2002, "sensor": "LANDSAT/LT05/C02/T1_L2", "scale_m": 30, "n_scenes": 9, "date_window": ["2002-07-01", "2002-08-01"], "otsu_threshold": 0.1679, "data_quality": "good", "length_km": 501.9}}]}