{
  "type": "FeatureCollection",
  "crs": {
    "type": "name",
    "properties": {
      "name": "EPSG:4326"
    }
  },
  "features": [
    {
      "type": "Feature",
      "geometry": {
        "type": "LineString",
        "coordinates": [
          [
            51.33341163809158,
            43.5036252274368
          ],
          [
            51.335158610960285,
            43.50029597791304
          ],
          [
            51.33493361528113,
            43.49570329942853
          ],
          [
            51.34064804731848,
            43.48766964219564
          ],
          [
            51.33684460934641,
            43.481468852217624
          ],
          [
            51.338241040264144,
            43.477433371830315
          ],
          [
            51.336076225739,
            43.47191467215036
          ],
          [
            51.31286031970725,
            43.4576227660661
          ],
          [
            51.31391989446601,
            43.453446677120674
          ],
          [
            51.31433036048404,
            43.44899999694159
          ],
          [
            51.31420018583328,
            43.44432790302048
          ],
          [
            51.31425772042522,
            43.43973407268756
          ],
          [
            51.3147174063099,
            43.43530795397103
          ],
          [
            51.31603835651638,
            43.42232065322058
          ],
          [
            51.316372908675234,
            43.41785104105847
          ],
          [
            51.316718809926954,
            43.41338833335039
          ],
          [
            51.606391725555106,
            43.18605418993528
          ],
          [
            51.59509577272632,
            43.18465430143862
          ],
          [
            51.58405662821929,
            43.18342178812733
          ],
          [
            51.57056694857478,
            43.1805764205881
          ],
          [
            51.66462023596529,
            43.16664323287539
          ],
          [
            51.66131060394256,
            43.1621597370802
          ],
          [
            51.66328279310928,
            43.159013753646
          ],
          [
            51.66335233423106,
            43.15548181417632
          ],
          [
            51.66619054040727,
            43.15305267464118
          ],
          [
            51.66805205771121,
            43.15078592746112
          ],
          [
            51.668502560905985,
            43.14652207440184
          ],
          [
            51.667283298377825,
            43.14154062361807
          ],
          [
            51.66969806049365,
            43.137640381980894
          ],
          [
            51.668558620025095,
            43.13268266130975
          ],
          [
            51.6680503497785,
            43.127912699885414
          ],
          [
            51.67064334495246,
            43.12406564692976
          ],
          [
            51.67007252308049,
            43.119757455025365
          ],
          [
            51.66228903688199,
            43.11290463223271
          ],
          [
            51.66088982539766,
            43.10327299161215
          ],
          [
            51.66566238476694,
            43.10003142046374
          ],
          [
            51.66945405054378,
            43.09668115460525
          ],
          [
            51.67318074968521,
            43.09345271471886
          ],
          [
            51.6775143728164,
            43.09039881433636
          ],
          [
            51.68159709776623,
            43.087272726002915
          ],
          [
            51.686541721931576,
            43.084394437351115
          ],
          [
            51.69204151249389,
            43.08297215854653
          ],
          [
            51.69616689009318,
            43.07987002029977
          ],
          [
            51.70123529685744,
            43.0770158814872
          ],
          [
            51.706469718814695,
            43.07420530258761
          ],
          [
            51.71290141959484,
            43.07170941538508
          ],
          [
            51.717246959341914,
            43.068664887929195
          ],
          [
            51.722119238066405,
            43.06575877072879
          ],
          [
            51.727718209579656,
            43.06304355994743
          ],
          [
            51.73261844651718,
            43.06014459551121
          ],
          [
            51.73775519869382,
            43.05730768814381
          ],
          [
            51.76099105964216,
            43.03799564284884
          ],
          [
            51.76501408374656,
            43.03445811054466
          ],
          [
            51.76731508787944,
            43.029568674436405
          ],
          [
            51.77026411572228,
            43.02556722535682
          ],
          [
            51.773302693220145,
            43.021652403632224
          ],
          [
            51.77663445718171,
            43.018020532717166
          ],
          [
            51.77635847825944,
            43.01091055500467
          ],
          [
            51.78137567984402,
            43.00890435557127
          ],
          [
            51.78512171354739,
            43.00567276408066
          ],
          [
            51.79598569311442,
            42.98179704048423
          ],
          [
            51.80155946782373,
            42.98009309985013
          ],
          [
            51.80367477451405,
            42.97182462159252
          ],
          [
            51.80404792976186,
            42.96687114480026
          ],
          [
            51.81148703208528,
            42.95320054950537
          ],
          [
            51.83573853720984,
            42.91700778542589
          ],
          [
            51.840624935060305,
            42.9142724147359
          ],
          [
            52.027696178790066,
            42.860433522348
          ],
          [
            52.01971490658701,
            42.85859416378373
          ],
          [
            52.00934077848904,
            42.85624009713991
          ]
        ]
      },
      "properties": {
        "id": "main_shoreline"
      }
    }
  ]
}