{"type": "FeatureCollection", "crs": {"type": "name", "properties": {"name": "EPSG:4326"}}, "features": [{"type": "Feature", "geometry": {"type": "MultiLineString", "coordinates": [[[50.321032246318374, 44.52125552114431], [50.32730934033994, 44.52102508436791]], [[50.53123363432741, 44.292689777958394], [50.5368943027608, 44.291362961187794], [50.544069407321686, 44.29226882186207], [50.55048256199157, 44.29205092356549], [50.55674684144341, 44.29161335223033], [50.56289183913271, 44.29099983118224], [50.568924645016885, 44.29022089920542], [50.57464138019386, 44.28897636532835], [50.58097110249969, 44.28863456587989], [50.587500801558065, 44.28858693768017], [50.6122696101462, 44.285674122890185], [50.618376755727965, 44.28424989544502], [50.624506932643214, 44.28300371381595], [50.630539846746125, 44.281015925090074], [50.63667589039899, 44.27981838666557]], [[50.873366541272446, 44.065766810378584], [50.87407385667104, 44.06170107482765], [50.87064871850346, 44.05634016456848], [50.869357105326856, 44.05164780794433], [50.86992027785232, 44.04753686596495], [50.86891738101673, 44.04293493986515], [50.868399961300184, 44.038485182618565], [50.868106948968105, 44.03410576790446], [50.870416516614675, 44.03054250733376], [50.872775065532586, 44.02786085607094], [50.87058946146982, 44.03040011492269], [50.872254830035985, 44.02859537700311], [50.88162131504854, 44.01893154305418], [50.91041718292297, 44.01177568020572], [50.919721709480164, 44.00932705766039], [50.94210322900772, 43.99413715759852], [50.94599432509979, 43.99064738148602], [50.94785162458327, 43.98577336179146], [50.95194870272292, 43.982424198730484], [50.956315695892464, 43.97925892325602], [50.95943107497469, 43.975241888171105], [50.96387879883013, 43.97213189855818], [50.96753310946509, 43.96848205603085], [50.97163787235493, 43.96513896843497], [50.96783781617296, 43.96829461710787], [50.97200787207498, 43.96484916498035], [50.97618954020946, 43.96140822440317], [50.97936144025881, 43.95757776806208], [50.98151820779348, 43.95335575866187], [50.985235701987655, 43.949735922398865], [50.98668604380997, 43.94524154204006], [50.98958160813979, 43.941304771688195], [50.9936506947408, 43.937820772752865], [50.99500735630782, 43.93329931103023], [50.99215016584968, 43.94034846866594], [50.99415203835308, 43.936043905499325], [50.99541353611779, 43.93164604674552], [50.99636558096837, 43.9272091994458], [50.99722790158385, 43.922761052052394], [50.99799929047474, 43.9183014519385], [50.99832762454188, 43.91378602304499], [50.998417893104666, 43.90924059208323], [50.999523105094326, 43.90482162871623], [51.00002268066184, 43.90032076978075], [51.00382131399081, 43.88922186280802], [51.00544240960076, 43.88489970453348], [51.00655131055169, 43.880434229018945], [51.00759736142054, 43.87595119385512], [51.00858173618247, 43.87145092563091], [51.00805943740194, 43.866528920917446], [51.01199032798763, 43.862853527417855], [51.01285346385554, 43.85831942540318], [51.01422009536702, 43.85392629890834], [51.01836811170136, 43.83502619760296], [51.0205939472746, 43.83117307191735], [51.02185456164617, 43.82663541671583], [51.024041299146056, 43.822275021542104], [51.025198317144834, 43.81726375821626], [51.030590802904996, 43.8034455868968], [51.04222543359129, 43.7877116901609], [51.044909171405706, 43.78366710958247], [51.04921130102409, 43.78065026268676], [51.051664342604354, 43.776459539394054], [51.056131972478454, 43.773548052203964], [51.06023281190534, 43.77040380752427], [51.063879956508586, 43.76697166827617], [51.06729211382793, 43.763390501576986], [51.07033846881289, 43.75957727458667], [51.06278103669787, 43.76869966701646], [51.06639094206847, 43.76460905421221], [51.06993949052676, 43.7605190162429], [51.07253116867629, 43.75643975670383], [51.07421461013419, 43.75237078844047], [51.076850355011665, 43.74829091590725]]]}, "properties": {"year": 2009, "data_quality": "good", "length_km": 55.7, "spatial_outliers_removed": 15, "n_segments": 3}}]}