{"type": "FeatureCollection", "crs": {"type": "name", "properties": {"name": "EPSG:4326"}}, "features": [{"type": "Feature", "geometry": {"type": "MultiLineString", "coordinates": [[[50.240702387447314, 44.48525168999222], [50.24081492442257, 44.47654449125664], [50.24158904832463, 44.46863852399992], [50.24237702488093, 44.46074958680198]], [[50.24069207346128, 44.486033408744625], [50.24099181770756, 44.480745381398776], [50.24100640195429, 44.47531887838772], [50.241409051156324, 44.47008087056084], [50.242041535074286, 44.46495453975901], [50.24260940697412, 44.459796868437145], [50.2435422702375, 44.45481656432202], [50.24217746086281, 44.4487199444608], [50.2420088561049, 44.44320446791465], [50.24531139546829, 44.43937581223236]], [[50.321708828580995, 44.32906411109916], [50.328502617418245, 44.32660354885792], [50.33278891702598, 44.32316105223809], [50.33849272146374, 44.32027354970989], [50.34658063327177, 44.318319199241955], [50.3554497243186, 44.31667018212195], [50.3623728110386, 44.31425928569224], [50.369765471174915, 44.31203188277514], [50.376140222803684, 44.309406075241746], [50.38053479538686, 44.30600568024238], [50.434900272704304, 44.29715471777623], [50.44331206312036, 44.2968468712098], [50.45190315832147, 44.296661597188226], [50.460666361933264, 44.296593878611986], [50.46799600015763, 44.29554140292509], [50.47681884218129, 44.295513499999565], [50.48442086531151, 44.2946471860598], [50.49215834600807, 44.29395300246252], [50.499197783686, 44.294023098691184], [50.53023805048385, 44.29122153344306], [50.5366368643044, 44.29098336780345], [50.543643372344754, 44.29164077882299], [50.550148708143105, 44.29155886724903], [50.55616251335165, 44.290752284639915], [50.562139356764376, 44.28989116508715], [50.56861042306273, 44.289758027852066], [50.57413482999707, 44.288230293004034], [50.580711742726194, 44.28825264311815], [50.58694572935191, 44.287769718343284], [50.612227480422845, 44.28535143264577], [50.61831398105055, 44.28376944857725], [50.62442465294024, 44.28237447587525], [50.630475685921404, 44.2805256245142], [50.63658608970482, 44.27913268735678], [50.64287336364379, 44.2790910923796], [50.64905986928633, 44.27828099918567], [50.655288096189935, 44.27778966056157], [50.661358071628975, 44.27609423084167], [50.667553796048196, 44.27535752805034], [50.67028987988651, 44.274680827563515], [50.67638089917766, 44.273544863253356], [50.68222863251916, 44.27126585431474], [50.68018628496697, 44.27240338648311], [50.67699021469763, 44.27347299240949], [50.67389731811161, 44.275028438146876], [50.67039744425531, 44.27466943849761], [50.66716401600613, 44.27556433078599], [50.663881342507295, 44.27622773186969], [50.66043153877181, 44.27610427611478], [50.64653387389477, 44.27851735916545], [50.646451033657705, 44.27856765487088], [50.6463690049232, 44.27861863646238], [50.64618308582835, 44.27858181664686], [50.621102667326625, 44.24335377305175], [50.62623843646686, 44.24119286388657], [50.63966862129095, 44.245532590042295], [50.64432525286233, 44.24303170656371], [50.65058398927306, 44.241950609182865], [50.651287706990644, 44.235947341334196], [50.661037983537796, 44.23796001899119], [50.664778524701454, 44.23464806139071], [50.664339777902065, 44.22763386819306], [50.66634685138242, 44.22278671528442], [50.67333369512097, 44.22235166874881], [50.678537062316536, 44.22033656701229], [50.66828598212846, 44.209052270270355], [50.68747549813111, 44.21542265860456], [50.69247207844963, 44.21388575455229], [50.69766625911893, 44.21246330698976], [50.699458585145244, 44.20906920199297], [50.7040907708701, 44.20732108053056], [50.70649755788811, 44.20428328073678], [50.71021481821138, 44.20141297236183], [50.72079912187127, 44.202122386590815], [50.72360800725568, 44.19958088272285], [50.71793460686644, 44.1945388764301], [50.72154530089741, 44.19459353426256], [50.72535962133317, 44.194761815590674], [50.73618178458222, 44.198843523814055], [50.72926535777399, 44.19229859936974], [50.74034373014304, 44.19309201070916], [50.73391093913002, 44.18410612255632], [50.73705234948944, 44.18190004097239], [50.76843760164275, 44.184879772975066], [50.774993848620504, 44.1830133296484], [50.78335179725463, 44.18226065029041], [50.787777701951185, 44.17907691435779], [50.79522734331341, 44.178134386908134], [50.78306275881264, 44.16469258137993], [50.78881919386479, 44.15640984896811], [50.8096643245389, 44.16337615518582], [50.80831656776647, 44.15652498763668], [50.80233198442584, 44.14674522224662]], [[50.84583292573161, 44.122114193841895], [50.85846462464101, 44.122643058478516], [50.85915345538335, 44.1178372451499], [50.86386231912883, 44.11482701015222], [50.87138756464747, 44.11307447565238], [50.87218667784333, 44.10822957601611], [50.872679944519746, 44.10315397424539], [50.873339849489184, 44.098152829326544], [50.87393168380944, 44.09312132188034], [50.90574374750965, 44.01157343379901], [50.912131524765364, 44.01104062106962], [50.91876557095441, 44.009151430610196], [50.925665183298754, 44.005796906402594], [50.93247136974042, 44.00295260294144], [50.94015349334293, 43.99527282290886], [50.94763368152989, 43.98830137914275], [50.94587768396863, 43.990098770511764], [50.94428189159624, 43.991011423538474], [50.94264576418693, 43.99214634715354], [50.873091696740886, 44.065680682534115], [50.873557412035254, 44.061539228828174], [50.87067276327916, 44.05634770130289], [50.86974980375537, 44.051770911805825], [50.8693833610049, 44.04736854065987], [50.867928347541124, 44.0426248372555], [50.868366766980714, 44.038474774065534], [50.86794900176637, 44.03405623703392], [50.870172740268075, 44.030466062314375], [50.87240998538277, 44.02774637529298], [50.87023737027203, 44.0303256977908], [50.8717997574352, 44.02849919800536], [50.872398042265765, 44.02646893570065], [50.87225265240587, 44.02428149659179], [50.87489657594223, 44.02192296224365], [50.88080348842081, 44.018758739537766], [50.88634457809582, 44.01551705897161], [50.89046625075357, 44.01197541787683], [50.90815174678591, 44.01129754771994], [50.91902364075013, 44.00917978771392], [50.9412484827158, 43.993555297119464], [50.94552521727191, 43.99032805425791], [50.94874443182727, 43.98638111415476], [50.95006789634235, 43.98114388606274], [50.95467259950589, 43.978140489209544], [50.95960980851463, 43.975363544842374], [50.96240994720805, 43.97113213663685], [50.96560432541245, 43.96716926933633], [50.97104000013208, 43.96473206636026], [50.96510988625969, 43.96724200774195], [50.97071045649631, 43.96434858372148], [50.97547598079934, 43.9611329324909], [50.97897334165271, 43.95742804424603], [50.98098171721339, 43.95314878465865], [50.984601391475884, 43.94949122129976], [50.98782268388467, 43.94568003027194], [50.99133595928204, 43.941981538428166], [50.992992294844825, 43.937566789526514], [50.99456881818996, 43.93313013571367], [50.99207160532261, 43.9403385682053], [50.99389305180276, 43.9360112692273], [50.99498028623525, 43.931591451138395], [50.99548564497252, 43.927098312479174], [50.99653946586532, 43.92267429682652], [50.997375939599266, 43.91822289716435], [50.997603708431484, 43.91369478985962], [50.9976559986282, 43.909144565689466], [50.99755165005238, 43.90457314373442], [50.99897507591625, 43.90018872735779], [51.00267187005388, 43.88890015386382], [51.004577478839266, 43.88465762359135], [51.005412468919026, 43.880115471463206], [51.00722241607511, 43.87584624566462], [51.00703099675002, 43.87101684153693], [51.009218926226765, 43.86685350106373], [51.011321828390884, 43.86266639962379], [51.01234632221641, 43.858177459256204], [51.01154997433538, 43.853178789816546], [51.017869698910495, 43.83471111736505], [51.019263663387065, 43.830332088722415], [51.02183207906913, 43.826621203281476], [51.02415839024999, 43.82234904759148], [51.028359652583475, 43.819262388891595], [51.02415794365167, 43.81086317744751], [51.0273675483224, 43.80714998721384], [51.03000362229644, 43.80307430279609], [51.029135276309525, 43.79678270927704], [51.032806380166704, 43.79336188858896], [51.0373130409804, 43.79034130557285], [51.04072250460244, 43.78675738466276], [51.04392407566567, 43.78304161336463], [51.04550189546089, 43.77829495370408], [51.051693314906665, 43.77647793452346], [51.055428232291554, 43.77310125357927], [51.059688889247624, 43.77005849283518], [51.0631809086051, 43.76652788332106], [51.06685661980905, 43.76311403925095], [51.07042631297479, 43.75963303916008], [51.061441818127456, 43.76871478716524], [51.06588908032554, 43.76461473843401], [51.06927991069811, 43.76052650733575], [51.07140213463267, 43.75645260367881], [51.072036181888315, 43.75239559987342], [51.075461919619066, 43.74830676748054], [51.118269913802614, 43.68001731217063], [51.122182553069806, 43.67796276581472], [51.12643673344022, 43.67040258107086], [51.130916692681026, 43.66367243254124], [51.13565198729454, 43.65788004511859], [51.140080258106714, 43.65096758880376], [51.14478373546077, 43.64506529865216], [51.111796118206996, 43.69690508013569], [51.11196634021546, 43.69351307581771], [51.11771630792525, 43.69262483569051], [51.11540737519957, 43.688446821118745], [51.11590539055768, 43.68675570010354], [51.11590740047495, 43.68484200341091], [51.11502090929999, 43.682529563285044], [51.118010246673975, 43.681956504152204], [51.11812826193211, 43.680094895556756], [51.118955347938055, 43.67855150359533], [51.07440601513343, 43.75070602553624], [51.07578600683967, 43.74659589434693], [51.07627986214208, 43.74579508149675], [51.0767953881128, 43.74498548219658], [51.07705395083973, 43.7442799742985], [51.07667718597891, 43.74383184439624], [51.07761767642058, 43.74285007010452], [51.0770964230248, 43.74444670476822], [51.136912556518034, 43.65410660729343], [51.13881047183353, 43.65237994109448], [51.14059886506547, 43.65061484432394], [51.1422654616051, 43.64880701219359], [51.14436066341858, 43.64714960250393], [51.14507365135182, 43.645007138047234], [51.148634450618516, 43.643864047944874], [51.148670740105864, 43.64148415991616], [51.15079453610252, 43.639836816182864], [51.162044702784065, 43.62884270825848], [51.170790047928755, 43.629770766193175], [51.176452469235244, 43.629312206092344], [51.181307372052295, 43.62849043916954], [51.18445475527658, 43.627736206808194], [51.1900942753749, 43.628766600875835], [51.18821889114419, 43.626419711706525], [51.19037970810434, 43.62588671553323], [51.19116909749899, 43.62473739343044], [51.19274585869755, 43.62394191708837], [51.21137711049414, 43.61810843703336], [51.21115744354206, 43.61719648819839], [51.21161662585702, 43.61670944898888], [51.2119067939891, 43.61611662218534], [51.21231432139178, 43.61559725664134], [51.212709635877026, 43.6150702496073], [51.21283735429448, 43.61437574934326], [51.214426015962275, 43.614595686260216], [51.21850095420083, 43.61284960836952], [51.21895682258285, 43.6072581938864], [51.212626570651906, 43.615174129168494], [51.21912491480548, 43.61256658089676], [51.21856405550281, 43.60779019231678], [51.215818215188335, 43.60237710314061], [51.21949402032341, 43.59896783885178], [51.222156698387046, 43.59549396868099], [51.22838605195321, 43.59305922158195], [51.232129987561656, 43.58990033546306], [51.23765464566983, 43.58726009149999], [51.274617959756824, 43.597740120793155], [51.26986469785652, 43.59353946545415], [51.27804714842029, 43.590214269884804], [51.26302908646059, 43.58531847263482], [51.2785266639934, 43.58248887664921], [51.29162286212861, 43.5794951367443], [51.28834719314062, 43.57539500099169], [51.29123863047773, 43.57171146149052], [51.289536730370436, 43.567717619160916], [51.29691195068166, 43.564336834977674], [51.32714844209911, 43.52581480671358], [51.328083426796326, 43.525921309689195], [51.32817670332506, 43.518782767782085], [51.3289621071462, 43.51760265151069], [51.32973403315244, 43.51630678856099], [51.33049946266614, 43.51495529271974], [51.33351181312736, 43.50323548797084], [51.328023805864184, 43.51922600701207], [51.329106241346295, 43.5173730544814], [51.33165887484165, 43.51329720282787], [51.3339378911054, 43.50917044409389], [51.33298307710392, 43.50444194674002], [51.335158610960285, 43.50029597791304], [51.33493361528113, 43.49570329942853], [51.34166684599051, 43.488093829180045], [51.336226331084, 43.48121136436417], [51.32370513164854, 43.4713781093144], [51.31124914648434, 43.4615689481297], [51.31286031970725, 43.4576227660661], [51.31391989446601, 43.453446677120674], [51.31427029133134, 43.448974951442715], [51.31420018583328, 43.44432790302048], [51.31425772042522, 43.43973407268756], [51.3147174063099, 43.43530795397103], [51.315946222778834, 43.42226480678199], [51.316372908675234, 43.41785104105847], [51.3167216590256, 43.41339006054562], [51.31576823899685, 43.40759083738045], [51.31527227242956, 43.40144352721269], [51.31480773987892, 43.395315207727506], [51.31477333829644, 43.3894476957512], [51.315497374190386, 43.38404020156646], [51.31544108868006, 43.37815943619459], [51.31504695919759, 43.37207369754701]], [[51.3077949022315, 43.32169947007434], [51.307262925737895, 43.31747631506496], [51.30541971953737, 43.31306370832112], [51.30411989030098, 43.308729548182036], [51.30293152217839, 43.30441145105031], [51.30142282796816, 43.30004701200694]], [[51.425242719251216, 43.16080981199649], [51.43393944848981, 43.160608711850365], [51.446169810566175, 43.1628033499762], [51.42087856426753, 43.16062910697179], [51.433848802821444, 43.16069499067006], [51.45490242902029, 43.16395615837339], [51.47258846496814, 43.165881760015274], [51.478837416228146, 43.16328572699212], [51.51770076415295, 43.173568041235846], [51.57056694857478, 43.1805764205881], [51.58405662821929, 43.18342178812733], [51.59509577272632, 43.18465430143862], [51.606391725555106, 43.18605418993528], [51.61764330995717, 43.18742348654097]], [[51.65007730211615, 43.182124019816634], [51.65266709128779, 43.18075498112693], [51.65583979807992, 43.178160530048835], [51.65005792619888, 43.17295612284753], [51.65159254391563, 43.16988431217378], [51.656415066539175, 43.16777093919959], [51.66420307201766, 43.16652167008428], [51.66131060394256, 43.1621597370802], [51.66328279310928, 43.159013753646], [51.66335233423106, 43.15548181417632], [51.66619054040727, 43.15305267464118], [51.66805205771121, 43.15078592746112], [51.668502560905985, 43.14652207440184], [51.667466711126806, 43.141595194104234], [51.669757296257266, 43.13765800604579], [51.668558620025095, 43.13268266130975], [51.6680503497785, 43.127912699885414], [51.67064334495246, 43.12406564692976], [51.670381466221315, 43.11984628267875], [51.66228903688199, 43.11290463223271], [51.65675735443243, 43.10669867913933], [51.66088982539766, 43.10327299161215], [51.66566238476694, 43.10003142046374], [51.66945405054378, 43.09668115460525], [51.67318074968521, 43.09345271471886], [51.6775143728164, 43.09039881433636], [51.68159709776623, 43.087272726002915], [51.686541721931576, 43.084394437351115], [51.69204151249389, 43.08297215854653], [51.69616689009318, 43.07987002029977], [51.70123529685744, 43.0770158814872], [51.706469718814695, 43.07420530258761], [51.71290141959484, 43.07170941538508], [51.717246959341914, 43.068664887929195], [51.72204409317105, 43.065739018037206], [51.727718209579656, 43.06304355994743], [51.734236885874886, 43.0605698784891], [51.73775519869382, 43.05730768814381], [51.76099105964216, 43.03799564284884], [51.76501408374656, 43.03445811054466], [51.76731508787944, 43.029568674436405], [51.77026411572228, 43.02556722535682], [51.773302693220145, 43.021652403632224], [51.77663445718171, 43.018020532717166], [51.77635847825944, 43.01091055500467], [51.78137567984402, 43.00890435557127], [51.78512171354739, 43.00567276408066], [51.79079554170972, 42.99052734326731], [51.79126906811258, 42.9844755284205], [51.79598569311442, 42.98179704048423], [51.80155946782373, 42.98009309985013], [51.801167809473526, 42.973745227550566], [51.80367477451405, 42.97182462159252], [51.80404792976186, 42.96687114480026], [51.80509744068282, 42.96279701323592], [51.80703417657497, 42.95621003940824], [51.81148703208528, 42.95320054950537], [51.83105183440215, 42.93189961632779], [51.83260397579702, 42.92877333107054], [51.83283110463927, 42.92039492498954], [51.83479515704282, 42.91890302939132], [51.83645467303722, 42.916204329004756], [51.838137052839706, 42.913596798295465], [51.84080170855367, 42.914164104154494], [51.844080997864346, 42.91013597240642], [51.84753104573796, 42.90678593208788], [51.850488109179096, 42.90148447262164], [51.83574450185366, 42.91701460156089], [51.840624935060305, 42.9142724147359], [51.844285415104764, 42.910136598039884], [51.848463696485105, 42.906592856350144], [51.85226238603404, 42.902615815395784], [51.855571458652946, 42.898079811067475], [51.86005382939184, 42.89488473697305], [51.863835816979716, 42.8908899008175], [51.86761400455123, 42.88689115541046], [51.85795447659002, 42.89705236595811], [51.86006551791815, 42.89269414400376], [51.86477137485577, 42.88993517424435], [51.86819097058007, 42.886383657637865], [51.87147784235559, 42.882750494175426], [51.8744874715131, 42.87894663433759], [51.877555857173896, 42.875179128600884], [51.880400522995856, 42.87127391352882], [51.882414351251754, 42.86685687656047], [51.88432561793926, 42.86237677532879], [51.89430807668109, 42.84662470624438], [51.898018956771786, 42.84294587760035], [51.90157859472657, 42.839139093117026], [51.905243679382025, 42.8354219543555], [51.910070625654875, 42.83268992052318], [51.91592874796096, 42.83083202402436], [51.92370148793534, 42.8305966031559], [51.92900860176837, 42.83133734387753], [51.934258336870066, 42.83249688674693], [51.939502647025016, 42.83365142876214], [51.95088033093698, 42.83735582238967], [51.961497025947196, 42.84118417405583], [51.97484852989911, 42.84618361406668], [51.98668392376552, 42.849837273554385], [51.9976413364075, 42.85271137495048], [52.00934077848904, 42.85624009713991], [52.01971490658701, 42.85859416378373], [52.03014773385696, 42.86099850606155], [52.04126722363442, 42.86400821424203], [52.027602720017796, 42.860529094151644], [52.04048319642306, 42.847357400025224]], [[52.20359262766477, 42.74498836303554], [52.21201842927449, 42.73433665607817], [52.213962413719656, 42.72998059566947], [52.222259131343776, 42.72309762431389]]]}, "properties": {"year": 2024, "data_quality": "good", "length_km": 349.5, "spatial_outliers_removed": 36, "n_segments": 8}}]}