{"type": "FeatureCollection", "crs": {"type": "name", "properties": {"name": "EPSG:4326"}}, "features": [{"type": "Feature", "geometry": {"type": "LineString", "coordinates": [[50.274185016703925, 44.55689525565829], [50.26945154662168, 44.548749397537776], [50.258337445891534, 44.53719340082402], [50.2646790630373, 44.53496345651255], [50.24299937526279, 44.51775613002391], [50.24229502862601, 44.51175998769003], [50.24272439239735, 44.50637015353763], [50.24293604135699, 44.50086390085306], [50.309207680385576, 44.53065653256187], [50.24198820532849, 44.48911787454825], [50.240293171029286, 44.48259136195361], [50.241599672895, 44.47767093941584], [50.24199154778068, 44.47226113343926], [50.24185469550393, 44.466568372549084], [50.24323318566684, 44.461686718642916], [50.24358954550705, 44.45625802748132], [50.24373946053487, 44.450718848344714], [50.244321172371635, 44.44541086469584], [50.24554896257405, 44.440448859518526], [50.24668394528348, 44.435437255941224], [50.244261280493625, 44.42852057691162], [50.24258475909584, 44.4220032015301], [50.24325881737045, 44.416744778221556], [50.24634323590897, 44.41277759939931], [50.247844772895135, 44.407962657592144], [50.31662687766348, 44.33244910075976], [50.32306275240667, 44.33027920162138], [50.32953636118022, 44.32812938698427], [50.334882430683344, 44.32537595866464], [50.339114021858855, 44.32202606934365], [50.34684392600894, 44.32054841488003], [50.353931955712085, 44.31872701303432], [50.36018297990009, 44.316457627647914], [50.36700364992495, 44.31449286066366], [50.374011906022695, 44.312628250334456], [50.37983515905577, 44.31012975412058], [50.38385093677819, 44.306664714013756], [50.390759190575565, 44.304746370022464], [50.39664230004224, 44.30227980151818], [50.4041781419158, 44.30069663396026], [50.4117347025727, 44.29912425329539], [50.41952419009613, 44.29767604566912], [50.42989012357158, 44.29760390305202], [50.44108591796569, 44.29797401647891], [50.45044186880072, 44.29736065048075], [50.46023125019492, 44.296977980882716], [50.469349406562934, 44.296236323256124], [50.479216979633726, 44.29589390761977], [50.4874904590989, 44.294700361893916], [50.50061008796927, 44.29368144884646], [50.51272147432066, 44.29490256964679], [50.52029358554423, 44.29350252276496], [50.52935453225788, 44.29296127925969], [50.53772411674847, 44.29202053706456], [50.548091075160634, 44.292231209621825], [50.557083844856884, 44.29164851776269], [50.56509797762151, 44.290501018576556], [50.57304435249725, 44.28931407614942], [50.58204622097517, 44.28873505079249], [50.59170688417775, 44.288534989878286], [50.8718869842317, 44.05811720437858], [50.870062871081046, 44.05130923487766], [50.86935946055491, 44.045147149469145], [50.86927234307752, 44.03934033720235], [50.86772984242772, 44.03269420966303], [50.87164519522154, 44.02919558492518], [50.87356868917104, 44.02454842940312], [50.87783892962251, 44.02125475976791], [50.88227244646579, 44.018055352032235], [50.88771624893943, 44.01543856874708], [50.89320440991173, 44.012847374293735], [50.9019253644642, 44.012119714779445], [50.91201580153717, 44.01218071743737], [50.918535028756494, 44.010183238579955], [50.99499727595917, 43.93343956136352], [50.996259165374276, 43.928416570892026], [50.99714576150647, 43.92317754844091], [50.9980487626623, 43.917948052455124], [50.99868276056949, 43.91256369122206], [50.99909749642393, 43.90705308289502], [51.00056982401587, 43.90215177164541], [51.00224057699602, 43.89736488852978], [51.00367053499145, 43.892439404463175], [51.00469129412008, 43.88727827262822], [51.00646937727262, 43.8825535878933], [51.006988333095016, 43.8771035099892], [51.00873867392191, 43.87236307361121], [51.01005165905574, 43.86737073116028], [51.01228524628691, 43.86290903442823], [51.01309646890635, 43.857627756662055], [51.01457032633038, 43.85272846654467], [51.01664245322462, 43.848174118926366], [51.01776643613976, 43.843073409526454], [51.016756375322025, 43.83674261265916], [51.019453396474354, 43.83254886988444], [51.0225021611001, 43.82861631768054], [51.02204452047776, 43.82953968206373], [51.02389414597379, 43.825101632581706], [51.02498884652371, 43.82032483255326], [51.025182940328136, 43.81514383622174], [51.02583985824304, 43.810170618784355], [51.02861427434596, 43.8061480405863], [51.03053877068025, 43.801744019948316], [51.0325274359948, 43.797368897712786], [51.03659719138877, 43.79392811256806], [51.03966490059983, 43.79003758243242], [51.04310303254934, 43.78631342380176], [51.04621324418257, 43.782442156586], [51.050734399209176, 43.779204292753164], [51.05477229987082, 43.775749573962386], [51.0584442399676, 43.7721306753257], [51.06261748569885, 43.76873683346177], [51.065196337838195, 43.76462753651185], [51.06996756972485, 43.76150219630766], [51.07193090589353, 43.757116880544885], [51.07400484874058, 43.75278129271403], [51.07721271619684, 43.74895466095526], [51.078571072788144, 43.744298137516104], [51.08124599030211, 43.74023253592406], [51.08282874305469, 43.73567689242743], [51.08466993424557, 43.73123731802727], [51.08875545149074, 43.727805066401956], [51.09136349090336, 43.72370984081062], [51.0960973871714, 43.72056870381141], [51.0995491634344, 43.71685228351245], [51.1023787346042, 43.71285675415139], [51.10568400682192, 43.70907477475153], [51.108395638451334, 43.70502651521728], [51.110612930359736, 43.70075653718317], [51.11383152918127, 43.696935952367824], [51.11504973789885, 43.69221786425002], [51.11606302648258, 43.68740788744618], [51.11813544458063, 43.68306551852777], [51.11930152498122, 43.67829586602521], [51.122611415168734, 43.67448838800987], [51.126495914245, 43.67093885652315], [51.13086001343867, 43.667604604575935], [51.1325733923558, 43.66308098964889], [51.1351842781359, 43.65896020786967], [51.137166086114426, 43.65455723332688], [51.14001046570384, 43.650541425478416], [51.144858617256894, 43.647424843902755], [51.14824958350783, 43.643654471987624], [51.1516802066144, 43.6399019808865], [51.19359105866006, 43.65340282422684], [51.20427378295951, 43.65289894213487], [51.16220364630339, 43.62874891811169], [51.176542236188794, 43.62988939609658], [51.19636101611743, 43.63349143808117], [51.194244524103226, 43.62726199808211], [51.2005278813575, 43.62479768290346], [51.203420437124734, 43.62081359659801], [51.22310251775368, 43.62435235058928], [51.22838737734458, 43.621439908076155], [51.23456322327298, 43.618926470298256], [51.236340247489636, 43.61444307993909], [51.24415765746493, 43.6126647387402], [51.22068340543129, 43.596869691474225], [51.227221937578776, 43.5945201671473], [51.23405418217278, 43.59230209366168], [51.24081843058011, 43.590053376926086], [51.24538233601365, 43.58681888801483], [51.24946066873898, 43.583366937667364], [51.253957172590546, 43.580102347088754], [51.25776143261777, 43.5774756252436], [51.26118663049917, 43.573694976722834], [51.27623494483418, 43.57426969663348], [51.27451468583455, 43.56856123349516], [51.278021986913245, 43.56481142501716], [51.27219001539632, 43.557562051296], [51.284072224565634, 43.55695067119472], [51.28723047592831, 43.55307026988519], [51.29192468590019, 43.54976533928843], [51.28867295686838, 43.543483567866915], [51.28313004678381, 43.53634274972518], [51.28494175219481, 43.53195806231601], [51.28576419687645, 43.52720264825755], [51.28598810385708, 43.522222910536165], [51.28791137959392, 43.51788022615971], [51.290097253423795, 43.5136360484648], [51.29244009726237, 43.50945078347999], [51.29406667419711, 43.504997083269274], [51.29549397067526, 43.500468738943006], [51.295932511516156, 43.495569763105586], [51.29629731638459, 43.49064316088209], [51.29834090068845, 43.4863460417463], [51.30070191867043, 43.482168012324955], [51.317936757105926, 43.48356542259649], [51.321184689782825, 43.47971989957991], [51.30756428694177, 43.46955160265682], [51.344204738159746, 43.4782189725807], [51.34323511530837, 43.472793945097955], [51.34442271461404, 43.468176853692704], [51.34439426287239, 43.46310431392674], [51.3419969874358, 43.457144336046696], [51.32851996440656, 43.44703161380639], [51.334613649352605, 43.44425341941678], [51.33876611199234, 43.440747595780394], [51.339596325970774, 43.43599667852918], [51.3415097664337, 43.43165181306828], [51.34279559230397, 43.42707177148422], [51.341686324706195, 43.42159396723498], [51.34189541786897, 43.41661033790136], [51.343240217106334, 43.41205251870326], [51.34272646936545, 43.40679790791213], [51.341849308946045, 43.40140697703844], [51.34147413777494, 43.39620423974403], [51.340178910933076, 43.39065637813684], [51.33812199611741, 43.384822667060945], [51.335338769420446, 43.37871624414781], [51.33476673062442, 43.373439321718955], [51.332482641226996, 43.36751981359028], [51.32968980731637, 43.3614091110736], [51.328265836896875, 43.35581205325364], [51.32687614355259, 43.350227742546636], [51.32773571639485, 43.34548796031172], [51.415394242765665, 43.37329302945704], [51.417181722214835, 43.368902479055556], [51.3271591573124, 43.33008376304187], [51.325404965710774, 43.324362219188174], [51.32208849375739, 43.3180535190747], [51.32260809231354, 43.31318602096992], [51.31211400824088, 43.30417888322964], [51.30147944742203, 43.29511675793103], [51.30832313960782, 43.29262725001256], [51.29770211962939, 43.28356886894609], [51.295922466144575, 43.27783568309361], [51.30549707956109, 43.27637453510644], [51.30602423964515, 43.27150954698508], [51.468569474216636, 43.31224366770334], [51.49428297814012, 43.28724673564814], [51.46995445575627, 43.237430536636914], [51.51404057164589, 43.24991092565507], [51.53507395410341, 43.25323275087162], [51.53863001663155, 43.24962422341032], [51.54276822780353, 43.24624649339905], [51.546870249268494, 43.24285445203171], [51.546893093245174, 43.23784570502559], [51.41636428621034, 43.16087840826766], [51.43351486029122, 43.16268679621429], [51.44848333095624, 43.163623822226874], [51.578095772206744, 43.21007237867384], [51.478110276082326, 43.165368204289834], [51.58515736514131, 43.20283667698146], [51.592966627288476, 43.200913708738206], [51.57706677866401, 43.18959726000005], [51.59073654088801, 43.18999752934322], [51.58761566988658, 43.183744475237994], [51.60730113595769, 43.18652662096383], [51.67273211650282, 43.132189366438524], [51.67408704972198, 43.12771168217289], [51.67168340867863, 43.121746770069834], [51.66750027673498, 43.11507726984304], [51.6573044968127, 43.10602649523518], [51.66151950116549, 43.102681309630405], [51.666290807651855, 43.09955641568608], [51.67037731390835, 43.09616039651302], [51.67364395361918, 43.09243982730499], [51.67934459064084, 43.08968287943594], [51.68445773461333, 43.08669331380637], [51.690105463088166, 43.08391529591809], [51.69580997053903, 43.0811596733574], [51.70022871388997, 43.077895205674416], [51.708403438221666, 43.07390583545391], [51.71473808272802, 43.07165390301311], [51.719277305688934, 43.068500906161475], [51.724173828051484, 43.06552725206109], [51.729376965010665, 43.06270746964997], [51.733688769894975, 43.059440508243725], [51.73880784917301, 43.05657860616647], [51.74321905544076, 43.053361623477784], [51.747368334238324, 43.050013317547084], [51.75208670183901, 43.04695053536986], [51.75610433819607, 43.043536343485044], [51.75992392225216, 43.04002290461489], [51.76362147048536, 43.03644835416736], [51.76684537622459, 43.03263636470531], [51.77003342065729, 43.028806499539336], [51.77255335700454, 43.0246416876517], [51.77500709997976, 43.02044379257883], [51.7780724383385, 43.016552730497324], [51.779862939755986, 43.0120224397093], [51.78383422532654, 43.00858594443468], [51.78717092271651, 43.00483130150862], [51.78865046448239, 43.000145420820935], [51.790009254136685, 42.99539906884398], [51.79026388977999, 42.99009900158569], [51.793682255276636, 42.98638582254241], [51.79795090314755, 42.983099195652784], [51.8017917318471, 42.97959808540753], [51.80329287446937, 42.97492369009177], [51.804056641909156, 42.96987954962798], [51.805549287273024, 42.96520105721184], [51.80747807294053, 42.96074142189396], [51.80898442122536, 42.95606999090269], [51.81268426835284, 42.95249894543784], [51.8163826766408, 42.94892727393354], [51.820311461333475, 42.94547124599096], [51.82458904128414, 42.94219023785142], [51.82761773640439, 42.93838207327866], [51.8301397266317, 42.93435067813875], [51.832171515127634, 42.9300735386205], [51.83400567078676, 42.92569737879956], [51.83508157165542, 42.92094099880651], [51.83816604486213, 42.91719215682532], [51.842304591894454, 42.913972090972834], [51.84491167288166, 42.9099840181621], [51.84797072524893, 42.906222734271076], [51.851648652898476, 42.902771934344166], [51.855675248936556, 42.89949607858416], [51.859386750112556, 42.89606228554545], [51.86260612313122, 42.892381797345315], [51.866585937563265, 42.889082731617414], [51.869800476130436, 42.885400014289985], [51.87309455619902, 42.88175728209969], [51.87610802806108, 42.877973950010855], [51.87882676120833, 42.87404293854415], [51.88146422867385, 42.87007128709776], [51.88356830278644, 42.865832292359194], [51.8858157175912, 42.86166527544355], [51.88804361761936, 42.857488578424764], [51.8905655217509, 42.853459410357225], [51.910897602817215, 42.85835828679123], [51.91251171182319, 42.853874427860745], [51.928992891774335, 42.8568396450894], [51.95310471129951, 42.86362169735459], [51.96731799435073, 42.86544410010398], [51.91341214190296, 42.8331548718058], [51.92006614478681, 42.83119779382247], [51.93341244118018, 42.83259416607387], [51.99028518786393, 42.85129984645118], [52.00458414842905, 42.85515791387707], [52.01921730780136, 42.859248295543225], [52.19240187268463, 42.74508494741272], [52.185901694459865, 42.72810735216122], [52.19298055557819, 42.726878861991636], [52.179405156917426, 42.71112929553187], [52.18655822788945, 42.709954664973004], [52.18372434494983, 42.7017568098463], [52.16684417743909, 42.67746828289029], [52.17377465586972, 42.67614034210659], [52.17065625558209, 42.66773946685163], [52.157282329610176, 42.65211555209684], [52.15370592046608, 42.643389021844285], [52.1609047185234, 42.642253366623066], [52.157923062219865, 42.63394591827194], [52.14409669656196, 42.6179938857305], [52.15133686528786, 42.61688994685746]]}, "properties": {"year": 2008, "sensor": "LANDSAT/LT05/C02/T1_L2", "scale_m": 30, "n_scenes": 9, "date_window": ["2008-07-01", "2008-08-01"], "otsu_threshold": 0.1447, "data_quality": "good", "length_km": 441.3}}]}