{"type": "FeatureCollection", "crs": {"type": "name", "properties": {"name": "EPSG:4326"}}, "features": [{"type": "Feature", "geometry": {"type": "LineString", "coordinates": [[51.09856, 42.7011], [51.11126, 42.71777], [51.12395, 42.73441], [51.13662, 42.75094], [51.14927, 42.76734], [51.16189, 42.78355], [51.17446, 42.79953], [51.18698, 42.81524], [51.19944, 42.83062], [51.21183, 42.84565], [51.22414, 42.86028], [51.23637, 42.87448], [51.24851, 42.88821], [51.26054, 42.90144], [51.27247, 42.91414], [51.28427, 42.92629], [51.29595, 42.93786], [51.30749, 42.94883], [51.31889, 42.95919], [51.33014, 42.96892], [51.34124, 42.97801], [51.35216, 42.98646], [51.36292, 42.99426], [51.3735, 43.00141], [51.38389, 43.00792], [51.39408, 43.01379], [51.40407, 43.01904], [51.41386, 43.02367], [51.42342, 43.02771], [51.43277, 43.03117], [51.44188, 43.03408], [51.45076, 43.03647], [51.45939, 43.03836], [51.46777, 43.03978], [51.47589, 43.04078], [51.48374, 43.04138], [51.49132, 43.04163], [51.49862, 43.04157], [51.50563, 43.04125], [51.51235, 43.0407], [51.51877, 43.03997], [51.52489, 43.03912], [51.53069, 43.03818], [51.53618, 43.03722], [51.54135, 43.03627], [51.54618, 43.03538], [51.55068, 43.03461], [51.55483, 43.03399], [51.55863, 43.03357], [51.56206, 43.0334], [51.5651, 43.03351], [51.56775, 43.03391], [51.57001, 43.03463], [51.57189, 43.03567], [51.57346, 43.03707], [51.57478, 43.0389], [51.57583, 43.04126], [51.57661, 43.04421], [51.57709, 43.04777], [51.57723, 43.05196], [51.57704, 43.05679], [51.57651, 43.06226], [51.57563, 43.06839], [51.57439, 43.07517], [51.57281, 43.08261], [51.57088, 43.09071], [51.56859, 43.09946], [51.56596, 43.10886], [51.56298, 43.1189], [51.55966, 43.12956], [51.55599, 43.14083], [51.55197, 43.15268], [51.54762, 43.16511], [51.54292, 43.17808], [51.53789, 43.19156], [51.53252, 43.20553], [51.52682, 43.21995], [51.5208, 43.23478], [51.51444, 43.24999], [51.50777, 43.26553], [51.50077, 43.28137], [51.49346, 43.29747], [51.48584, 43.31377], [51.47792, 43.33023], [51.46969, 43.3468], [51.46116, 43.36344], [51.45234, 43.3801], [51.44323, 43.39674], [51.43384, 43.41329], [51.42417, 43.42973], [51.41423, 43.44599], [51.40403, 43.46204], [51.39356, 43.47783], [51.38284, 43.49332], [51.37187, 43.50846], [51.36066, 43.52321], [51.34921, 43.53755], [51.33754, 43.55143], [51.32564, 43.56482], [51.31353, 43.57769], [51.30121, 43.59002], [51.2887, 43.60177], [51.27599, 43.61294], [51.26309, 43.62349], [51.25002, 43.63342], [51.23678, 43.64272], [51.22338, 43.65137], [51.20982, 43.65938], [51.19611, 43.66674], [51.18226, 43.67346], [51.16828, 43.67954], [51.15418, 43.68499], [51.13996, 43.68983], [51.12562, 43.69407], [51.11119, 43.69773], [51.09666, 43.70083], [51.08205, 43.7034], [51.06736, 43.70547], [51.05259, 43.70707], [51.03777, 43.70823], [51.02289, 43.70898], [51.00796, 43.70938], [50.993, 43.70944], [50.97802, 43.70923], [50.96301, 43.70878], [50.94799, 43.70813], [50.93297, 43.70733], [50.91795, 43.70643], [50.90296, 43.70548], [50.88798, 43.70451], [50.87304, 43.70359], [50.85814, 43.70276], [50.84329, 43.70206], [50.82851, 43.70155], [50.81379, 43.70126], [50.79914, 43.70124], [50.78458, 43.70154], [50.77012, 43.70219], [50.75575, 43.70324], [50.7415, 43.70472], [50.72737, 43.70667], [50.71337, 43.70911], [50.6995, 43.71209], [50.68578, 43.71563], [50.67221, 43.71974], [50.65881, 43.72445], [50.64558, 43.72978], [50.63253, 43.73575], [50.61967, 43.74235], [50.60701, 43.7496], [50.59455, 43.75751], [50.5823, 43.76606], [50.57027, 43.77526], [50.55847, 43.7851], [50.54691, 43.79556], [50.53558, 43.80664], [50.5245, 43.81832], [50.51368, 43.83057], [50.50311, 43.84337], [50.4928, 43.8567], [50.48277, 43.87052], [50.47301, 43.88481], [50.46354, 43.89953], [50.45434, 43.91463], [50.44544, 43.93009], [50.43684, 43.94586], [50.42853, 43.96191], [50.42053, 43.97817], [50.41283, 43.99462], [50.40545, 44.0112], [50.39838, 44.02787], [50.39163, 44.04458], [50.38521, 44.06128], [50.37911, 44.07792], [50.37334, 44.09447], [50.36791, 44.11086], [50.3628, 44.12706], [50.35804, 44.14302], [50.35361, 44.1587], [50.34953, 44.17405], [50.34578, 44.18904], [50.34239, 44.20362], [50.33934, 44.21777], [50.33663, 44.23144], [50.33428, 44.24461], [50.33227, 44.25725], [50.33061, 44.26933], [50.32931, 44.28083], [50.32835, 44.29174], [50.32775, 44.30204], [50.32749, 44.31171], [50.32759, 44.32075], [50.32803, 44.32915], [50.32883, 44.33692], [50.32999, 44.34406], [50.3315, 44.35057], [50.33337, 44.35647], [50.3356, 44.36176], [50.3382, 44.36645], [50.34117, 44.37056], [50.34451, 44.37409], [50.34821, 44.37706], [50.35224, 44.37947], [50.3566, 44.38137], [50.36127, 44.38277], [50.36622, 44.38373], [50.37147, 44.38429], [50.377, 44.3845], [50.3828, 44.3844], [50.38889, 44.38404], [50.39526, 44.38346], [50.4019, 44.38272], [50.40882, 44.38185], [50.416, 44.38092], [50.42345, 44.37995], [50.43116, 44.37901], [50.43913, 44.37814], [50.44734, 44.37738], [50.45581, 44.37678], [50.46451, 44.3764], [50.47345, 44.37626], [50.48262, 44.37641], [50.49201, 44.3769], [50.50162, 44.37777], [50.51144, 44.37904], [50.52147, 44.38077], [50.5317, 44.38297], [50.54211, 44.38568], [50.55272, 44.38894], [50.56351, 44.39275], [50.57446, 44.39715], [50.58559, 44.40216], [50.59687, 44.40779], [50.6083, 44.41405], [50.61987, 44.42095], [50.63158, 44.42849], [50.64342, 44.43669], [50.65537, 44.44554], [50.66743, 44.45502], [50.6796, 44.46514], [50.69185, 44.47588], [50.70419, 44.48723], [50.7166, 44.49916], [50.72908, 44.51166], [50.74161, 44.5247], [50.75419, 44.53825], [50.76681, 44.55228], [50.77946, 44.56675], [50.79214, 44.58164], [50.80482, 44.5969], [50.81751, 44.6125], [50.83019, 44.62838], [50.84285, 44.64451], [50.8555, 44.66085], [50.86811, 44.67734], [50.88067, 44.69394], [50.89319, 44.7106], [50.90565, 44.72728], [50.91804, 44.74393], [50.93036, 44.76049], [50.94259, 44.77693], [50.95473, 44.7932], [50.96676, 44.80925], [50.97869, 44.82503], [50.9905, 44.84051], [51.00218, 44.85564], [51.01373, 44.87038], [51.02513, 44.8847], [51.03638, 44.89857], [51.04748, 44.91194], [51.05841, 44.92479], [51.06917, 44.93709], [51.07974, 44.94883], [51.09013, 44.95997], [51.10032, 44.9705], [51.11031, 44.98041], [51.1201, 44.98968], [51.12966, 44.99831], [51.13901, 45.0063], [51.14813, 45.01364], [51.15701, 45.02033], [51.16565, 45.02639], [51.17405, 45.03182], [51.18219, 45.03663], [51.19008, 45.04084], [51.19771, 45.04447], [51.20507, 45.04755], [51.21215, 45.05009], [51.21895, 45.05213], [51.22547, 45.05369], [51.23169, 45.05481], [51.23762, 45.05553], [51.24324, 45.05588], [51.24855, 45.0559], [51.25355, 45.05565], [51.25823, 45.05515], [51.26258, 45.05446], [51.2666, 45.05363], [51.27028, 45.0527], [51.27362, 45.05173]]}, "properties": {"year": 2014, "sensor": "LANDSAT/LC08", "scale_m": 30, "acquisition_date": "2014-07-14", "cloud_pct": 5.6, "wind_ms": 5.1, "otsu_threshold": 0.13, "data_quality": "good", "length_km": 218.4}}]}