{"type": "FeatureCollection", "crs": {"type": "name", "properties": {"name": "EPSG:4326"}}, "features": [{"type": "Feature", "geometry": {"type": "MultiLineString", "coordinates": [[[51.58396142947548, 43.18335920476331], [51.595196477777506, 43.18472048548051], [51.60692187861423, 43.18640250476328], [51.61742902247684, 43.1872827373981]], [[51.66099638470315, 43.17966317395108], [51.661456114868, 43.17627813571963], [51.657923303532854, 43.17172960102617], [51.66581007659853, 43.170508867940015], [51.66525798566098, 43.16682907110743], [51.66530139139703, 43.16332278443094], [51.66553335519477, 43.1596832263654], [51.66677870863191, 43.15650108965531], [51.66859245984269, 43.15376717025747], [51.66889748489843, 43.15103741679954], [51.66920893429542, 43.1467322118665], [51.66910604812608, 43.142082925830664], [51.67176335807437, 43.13825483350994], [51.670917620250506, 43.133384575122136], [51.67024286868712, 43.128565143706446], [51.6714998021943, 43.12432050977961], [51.67087692132833, 43.11998873415854], [51.66296174822468, 43.1130981247032], [51.65717259760634, 43.106818152148215], [51.6607102370146, 43.10322132465422], [51.66560176124224, 43.10001398129012], [51.6693030693592, 43.09663772607224], [51.67324594384438, 43.093471465789506], [51.678035911510996, 43.09054880228359], [51.68240339898017, 43.08750458578283], [51.68741433610683, 43.08464533442484], [51.69253754724138, 43.083102654511165], [51.69688721551488, 43.08005950201109], [51.701470003174634, 43.07707761289651], [51.70655527466865, 43.07422780183057], [51.71394657804115, 43.07198420805486], [51.718212312689474, 43.06891867040786], [51.72329497286852, 43.06606781789953], [51.72759913634907, 43.063012265299236], [51.73271439623425, 43.06016980936007], [51.737099753395945, 43.057135471190136], [51.7613344581778, 43.03832672637505], [51.765167944325185, 43.03460644797262], [51.76808659358901, 43.03031249459331], [51.77131209831714, 43.02657758942442], [51.77362748420635, 43.02196553753956], [51.7770291089278, 43.01840101130502], [51.77875590226813, 43.013222076748356], [51.78236707366592, 43.00986016780964], [51.78567983602103, 43.00621083939009], [51.79047978939374, 42.990078502642284], [51.793412287503585, 42.98752217508705], [51.79716428736216, 42.98347233309394], [51.80161688207511, 42.98017470184717], [51.80305727868811, 42.97643088803941], [51.80379465855456, 42.97199502383915], [51.80372882850574, 42.966417538621606], [51.80585775442979, 42.9638778181264], [51.8076531908762, 42.95709003464901], [51.81193274382326, 42.95383412923968], [51.83107684852092, 42.93199877974412], [51.83272972298619, 42.92927180274909], [51.83383790386857, 42.92438623922495], [51.83508327578429, 42.92004517205969], [51.83685002519316, 42.91777144951761], [51.83850830454034, 42.91506829295413], [51.84087163659556, 42.91444122516494], [51.84419473101301, 42.91058662294713], [51.84754154925984, 42.90682754391973], [51.850887962838044, 42.90306836809902]], [[51.86012541104595, 42.8949665156246], [51.86405122607179, 42.8911359868819], [51.86790099709601, 42.88721900841391], [51.85823981996376, 42.897228214265546], [51.86089053610727, 42.89320258365644], [51.865248176083604, 42.890228997776546], [51.86854105383919, 42.886599388090794], [51.87185419524805, 42.88298240825342], [51.87472585154675, 42.87909352657553], [51.877694751282256, 42.875264715786216], [51.88058633422269, 42.871388410782565], [51.882913577063384, 42.86716450662665], [51.88490269957988, 42.86273239102751], [51.89516720389136, 42.84735302130154], [51.89846576010611, 42.84332464246566], [51.90244090985625, 42.83987007464626], [51.90715120650412, 42.8370388845624], [51.911019583336305, 42.83349427022708], [51.91669324373943, 42.83147995266163], [51.92431683567316, 42.83111803160234], [51.929236466799196, 42.831530404800425], [51.93452634321887, 42.83272392465564], [51.94013500931245, 42.834187044418016], [51.95150798019345, 42.837912127169965], [51.96216780802099, 42.84177851778438], [51.97585341611918, 42.84707362206962], [51.98718217532539, 42.85027841642046], [51.99833762317471, 42.85332765940325], [52.009868977674834, 42.85670744882652], [52.020293294300245, 42.859105773472294], [52.03118652792179, 42.861917088872374], [52.042085430306095, 42.86473150874973], [52.02928932304433, 42.86136585222728], [52.052084555239254, 42.86733659973378], [52.06997656125433, 42.87115574821113]]]}, "properties": {"year": 2013, "data_quality": "good", "length_km": 68.7, "spatial_outliers_removed": 6, "n_segments": 3}}]}