{"type": "FeatureCollection", "crs": {"type": "name", "properties": {"name": "EPSG:4326"}}, "features": [{"type": "Feature", "geometry": {"type": "LineString", "coordinates": [[51.09887, 42.70086], [51.11157, 42.71754], [51.12426, 42.73417], [51.13693, 42.75071], [51.14958, 42.7671], [51.16219, 42.78331], [51.17476, 42.79929], [51.18728, 42.81499], [51.19974, 42.83038], [51.21213, 42.8454], [51.22444, 42.86003], [51.23667, 42.87422], [51.2488, 42.88795], [51.26083, 42.90117], [51.27275, 42.91387], [51.28454, 42.92601], [51.29622, 42.93758], [51.30775, 42.94854], [51.31915, 42.9589], [51.33039, 42.96862], [51.34148, 42.9777], [51.3524, 42.98615], [51.36314, 42.99394], [51.37371, 43.00108], [51.38409, 43.00759], [51.39427, 43.01345], [51.40425, 43.01869], [51.41402, 43.02332], [51.42357, 43.02735], [51.4329, 43.0308], [51.44199, 43.03371], [51.45085, 43.03609], [51.45947, 43.03798], [51.46783, 43.0394], [51.47593, 43.04039], [51.48376, 43.04099], [51.49133, 43.04124], [51.49861, 43.04118], [51.50561, 43.04086], [51.51232, 43.04031], [51.51873, 43.03959], [51.52483, 43.03874], [51.53063, 43.0378], [51.53611, 43.03684], [51.54128, 43.03589], [51.54611, 43.035], [51.55062, 43.03422], [51.55478, 43.0336], [51.5586, 43.03319], [51.56205, 43.03302], [51.56514, 43.03312], [51.56784, 43.03354], [51.57016, 43.03427], [51.57211, 43.03535], [51.57375, 43.03681], [51.57511, 43.03871], [51.5762, 43.04113], [51.57699, 43.04413], [51.57747, 43.04773], [51.57762, 43.05196], [51.57743, 43.05681], [51.57689, 43.06231], [51.57601, 43.06845], [51.57477, 43.07525], [51.57319, 43.0827], [51.57125, 43.0908], [51.56897, 43.09956], [51.56633, 43.10897], [51.56335, 43.11901], [51.56003, 43.12967], [51.55635, 43.14095], [51.55234, 43.15281], [51.54798, 43.16524], [51.54328, 43.17821], [51.53825, 43.1917], [51.53288, 43.20567], [51.52718, 43.22009], [51.52115, 43.23493], [51.5148, 43.25014], [51.50812, 43.26569], [51.50113, 43.28153], [51.49382, 43.29763], [51.48619, 43.31393], [51.47827, 43.3304], [51.47003, 43.34698], [51.4615, 43.36362], [51.45268, 43.38029], [51.44357, 43.39693], [51.43418, 43.41349], [51.42451, 43.42993], [51.41456, 43.4462], [51.40435, 43.46225], [51.39388, 43.47805], [51.38315, 43.49354], [51.37218, 43.50869], [51.36096, 43.52345], [51.34951, 43.5378], [51.33783, 43.55168], [51.32593, 43.56508], [51.31381, 43.57796], [51.30148, 43.5903], [51.28896, 43.60206], [51.27624, 43.61323], [51.26333, 43.62379], [51.25025, 43.63373], [51.237, 43.64304], [51.22358, 43.6517], [51.21001, 43.65972], [51.19629, 43.66709], [51.18242, 43.67381], [51.16843, 43.6799], [51.15431, 43.68535], [51.14007, 43.6902], [51.12573, 43.69444], [51.11128, 43.6981], [51.09674, 43.70121], [51.08211, 43.70378], [51.0674, 43.70586], [51.05263, 43.70745], [51.03779, 43.70861], [51.0229, 43.70937], [51.00797, 43.70976], [50.993, 43.70983], [50.97801, 43.70962], [50.96299, 43.70916], [50.94797, 43.70851], [50.93295, 43.70772], [50.91793, 43.70682], [50.90293, 43.70586], [50.88796, 43.7049], [50.87302, 43.70398], [50.85812, 43.70315], [50.84328, 43.70245], [50.8285, 43.70193], [50.81378, 43.70165], [50.79914, 43.70163], [50.78459, 43.70193], [50.77014, 43.70258], [50.75579, 43.70363], [50.74155, 43.7051], [50.72743, 43.70705], [50.71344, 43.7095], [50.69959, 43.71247], [50.68588, 43.716], [50.67233, 43.72011], [50.65895, 43.72482], [50.64573, 43.73014], [50.6327, 43.7361], [50.61985, 43.74269], [50.60721, 43.74993], [50.59476, 43.75783], [50.58253, 43.76637], [50.57051, 43.77556], [50.55873, 43.78539], [50.54717, 43.79585], [50.53586, 43.80692], [50.52479, 43.81858], [50.51397, 43.83082], [50.50341, 43.84362], [50.49311, 43.85693], [50.48309, 43.87075], [50.47334, 43.88502], [50.46386, 43.89973], [50.45468, 43.91483], [50.44578, 43.93028], [50.43718, 43.94605], [50.42888, 43.96208], [50.42088, 43.97834], [50.41318, 43.99478], [50.4058, 44.01135], [50.39874, 44.02802], [50.392, 44.04472], [50.38557, 44.06141], [50.37948, 44.07806], [50.37371, 44.09459], [50.36827, 44.11098], [50.36317, 44.12718], [50.35841, 44.14313], [50.35398, 44.1588], [50.3499, 44.17415], [50.34616, 44.18913], [50.34277, 44.20371], [50.33972, 44.21785], [50.33701, 44.23151], [50.33466, 44.24468], [50.33265, 44.25731], [50.331, 44.26938], [50.32969, 44.28087], [50.32874, 44.29177], [50.32813, 44.30205], [50.32788, 44.31171], [50.32797, 44.32074], [50.32842, 44.32912], [50.32922, 44.33687], [50.33037, 44.34399], [50.33187, 44.35047], [50.33373, 44.35634], [50.33595, 44.36159], [50.33853, 44.36625], [50.34147, 44.37031], [50.34477, 44.37381], [50.34843, 44.37674], [50.35242, 44.37913], [50.35673, 44.381], [50.36136, 44.38239], [50.36628, 44.38335], [50.37149, 44.3839], [50.377, 44.38411], [50.38279, 44.38401], [50.38886, 44.38365], [50.39522, 44.38307], [50.40185, 44.38233], [50.40877, 44.38147], [50.41595, 44.38053], [50.4234, 44.37957], [50.43111, 44.37863], [50.43909, 44.37775], [50.44731, 44.37699], [50.45579, 44.3764], [50.4645, 44.37601], [50.47345, 44.37587], [50.48263, 44.37603], [50.49204, 44.37652], [50.50166, 44.37738], [50.5115, 44.37866], [50.52154, 44.38039], [50.53179, 44.38259], [50.54222, 44.38531], [50.55284, 44.38857], [50.56364, 44.39239], [50.57461, 44.3968], [50.58575, 44.40181], [50.59705, 44.40744], [50.60849, 44.41371], [50.62008, 44.42062], [50.6318, 44.42817], [50.64364, 44.43638], [50.65561, 44.44523], [50.66768, 44.45472], [50.67985, 44.46485], [50.69211, 44.4756], [50.70445, 44.48695], [50.71687, 44.49889], [50.72935, 44.51139], [50.74189, 44.52443], [50.75448, 44.53799], [50.7671, 44.55202], [50.77976, 44.5665], [50.79243, 44.58139], [50.80512, 44.59666], [50.81781, 44.61225], [50.83049, 44.62814], [50.84316, 44.64427], [50.8558, 44.66061], [50.86841, 44.6771], [50.88098, 44.69371], [50.8935, 44.71037], [50.90596, 44.72705], [50.91835, 44.7437], [50.93067, 44.76026], [50.9429, 44.7767], [50.95504, 44.79297], [50.96707, 44.80901], [50.979, 44.8248], [50.99081, 44.84027], [51.00249, 44.8554], [51.01403, 44.87014], [51.02543, 44.88446], [51.03668, 44.89832], [51.04778, 44.91169], [51.0587, 44.92454], [51.06946, 44.93684], [51.08003, 44.94857], [51.09041, 44.9597], [51.1006, 44.97023], [51.11058, 44.98013], [51.12036, 44.9894], [51.12992, 44.99802], [51.13926, 45.006], [51.14836, 45.01333], [51.15724, 45.02002], [51.16587, 45.02607], [51.17425, 45.03149], [51.18238, 45.03629], [51.19026, 45.0405], [51.19787, 45.04412], [51.20521, 45.04719], [51.21227, 45.04972], [51.21905, 45.05175], [51.22555, 45.05331], [51.23175, 45.05443], [51.23765, 45.05514], [51.24325, 45.05549], [51.24855, 45.05552], [51.25352, 45.05526], [51.25818, 45.05477], [51.26251, 45.05408], [51.26651, 45.05325], [51.27017, 45.05233], [51.2735, 45.05136]]}, "properties": {"year": 2010, "sensor": "LANDSAT/LT05", "scale_m": 30, "acquisition_date": "2010-07-10", "cloud_pct": 6.9, "wind_ms": 7.3, "otsu_threshold": 0.072, "data_quality": "good", "length_km": 218.4}}]}