{"type": "FeatureCollection", "crs": {"type": "name", "properties": {"name": "EPSG:4326"}}, "features": [{"type": "Feature", "geometry": {"type": "LineString", "coordinates": [[51.09733, 42.70203], [51.11003, 42.71871], [51.12272, 42.73535], [51.13539, 42.75189], [51.14805, 42.76829], [51.16066, 42.78451], [51.17324, 42.80049], [51.18577, 42.81621], [51.19824, 42.8316], [51.21064, 42.84664], [51.22296, 42.86129], [51.23521, 42.8755], [51.24735, 42.88924], [51.2594, 42.90249], [51.27134, 42.91521], [51.28317, 42.92738], [51.29487, 42.93897], [51.30644, 42.94996], [51.31786, 42.96034], [51.32914, 42.9701], [51.34027, 42.97922], [51.35124, 42.9877], [51.36203, 42.99553], [51.37265, 43.00271], [51.38309, 43.00925], [51.39333, 43.01515], [51.40338, 43.02042], [51.41322, 43.02509], [51.42285, 43.02915], [51.43226, 43.03264], [51.44145, 43.03557], [51.45039, 43.03797], [51.4591, 43.03988], [51.46755, 43.04131], [51.47574, 43.04232], [51.48366, 43.04293], [51.4913, 43.04318], [51.49867, 43.04312], [51.50573, 43.04279], [51.51251, 43.04224], [51.51897, 43.04151], [51.52512, 43.04065], [51.53095, 43.03971], [51.53646, 43.03874], [51.54163, 43.03779], [51.54646, 43.03691], [51.55093, 43.03614], [51.55503, 43.03553], [51.55876, 43.03512], [51.56208, 43.03495], [51.56497, 43.03505], [51.56741, 43.03542], [51.5694, 43.03606], [51.571, 43.03694], [51.57231, 43.0381], [51.57343, 43.03967], [51.57437, 43.04177], [51.57509, 43.0445], [51.57554, 43.04789], [51.57568, 43.05195], [51.5755, 43.05668], [51.57497, 43.06207], [51.5741, 43.06814], [51.57287, 43.07487], [51.5713, 43.08227], [51.56937, 43.09033], [51.5671, 43.09906], [51.56447, 43.10843], [51.5615, 43.11844], [51.55818, 43.12909], [51.55452, 43.14034], [51.55051, 43.15218], [51.54616, 43.16459], [51.54147, 43.17754], [51.53644, 43.19101], [51.53108, 43.20497], [51.52538, 43.21937], [51.51936, 43.23419], [51.51302, 43.24938], [51.50635, 43.26492], [51.49936, 43.28074], [51.49206, 43.29682], [51.48444, 43.3131], [51.47652, 43.32955], [51.4683, 43.3461], [51.45979, 43.36273], [51.45098, 43.37937], [51.44188, 43.39598], [51.4325, 43.41252], [51.42284, 43.42893], [51.41292, 43.44517], [51.40273, 43.4612], [51.39227, 43.47696], [51.38157, 43.49242], [51.37062, 43.50753], [51.35943, 43.52226], [51.34801, 43.53657], [51.33636, 43.55042], [51.3245, 43.56378], [51.31242, 43.57661], [51.30014, 43.58891], [51.28766, 43.60063], [51.27499, 43.61175], [51.26213, 43.62227], [51.24911, 43.63217], [51.23591, 43.64143], [51.22256, 43.65005], [51.20906, 43.65803], [51.1954, 43.66536], [51.18161, 43.67205], [51.16769, 43.6781], [51.15365, 43.68353], [51.13949, 43.68835], [51.12521, 43.69257], [51.11084, 43.69622], [51.09637, 43.69931], [51.08181, 43.70187], [51.06717, 43.70393], [51.05245, 43.70553], [51.03767, 43.70668], [51.02283, 43.70744], [51.00794, 43.70783], [50.99301, 43.70789], [50.97805, 43.70768], [50.96306, 43.70723], [50.94806, 43.70658], [50.93306, 43.70578], [50.91805, 43.70488], [50.90306, 43.70393], [50.88808, 43.70297], [50.87313, 43.70205], [50.85822, 43.70121], [50.84336, 43.70051], [50.82855, 43.7], [50.8138, 43.69971], [50.79913, 43.69969], [50.78453, 43.69999], [50.77003, 43.70064], [50.75562, 43.7017], [50.74132, 43.70318], [50.72713, 43.70514], [50.71307, 43.70759], [50.69914, 43.71058], [50.68536, 43.71413], [50.67173, 43.71827], [50.65826, 43.723], [50.64497, 43.72836], [50.63185, 43.73435], [50.61893, 43.74099], [50.6062, 43.74828], [50.59369, 43.75622], [50.58138, 43.76481], [50.5693, 43.77405], [50.55746, 43.78393], [50.54584, 43.79444], [50.53448, 43.80556], [50.52336, 43.81727], [50.5125, 43.82956], [50.5019, 43.84241], [50.49156, 43.85577], [50.4815, 43.86963], [50.47172, 43.88395], [50.46222, 43.8987], [50.45301, 43.91384], [50.44409, 43.92933], [50.43547, 43.94514], [50.42715, 43.96121], [50.41913, 43.9775], [50.41142, 43.99398], [50.40403, 44.01058], [50.39695, 44.02728], [50.39019, 44.04401], [50.38376, 44.06073], [50.37765, 44.0774], [50.37188, 44.09397], [50.36643, 44.11039], [50.36132, 44.12661], [50.35655, 44.14259], [50.35212, 44.15829], [50.34803, 44.17367], [50.34428, 44.18868], [50.34087, 44.20328], [50.33782, 44.21745], [50.33511, 44.23115], [50.33275, 44.24435], [50.33074, 44.25702], [50.32908, 44.26914], [50.32777, 44.28068], [50.32681, 44.29163], [50.3262, 44.30197], [50.32594, 44.31169], [50.32604, 44.3208], [50.32649, 44.32927], [50.3273, 44.33713], [50.32847, 44.34436], [50.33, 44.35098], [50.33191, 44.357], [50.3342, 44.36243], [50.33689, 44.36728], [50.33998, 44.37155], [50.34346, 44.37523], [50.34732, 44.37833], [50.35154, 44.38085], [50.35607, 44.38282], [50.3609, 44.38428], [50.366, 44.38526], [50.37136, 44.38584], [50.37698, 44.38605], [50.38287, 44.38595], [50.38901, 44.38558], [50.39542, 44.385], [50.40209, 44.38426], [50.40901, 44.38339], [50.4162, 44.38245], [50.42364, 44.38149], [50.43134, 44.38055], [50.43928, 44.37968], [50.44747, 44.37893], [50.4559, 44.37833], [50.46456, 44.37795], [50.47345, 44.37781], [50.48257, 44.37796], [50.4919, 44.37845], [50.50145, 44.37931], [50.51121, 44.38058], [50.52118, 44.38229], [50.53134, 44.38448], [50.54169, 44.38718], [50.55223, 44.39041], [50.56296, 44.3942], [50.57386, 44.39858], [50.58492, 44.40356], [50.59615, 44.40916], [50.60753, 44.41539], [50.61906, 44.42226], [50.63072, 44.42978], [50.64252, 44.43795], [50.65443, 44.44677], [50.66646, 44.45623], [50.67859, 44.46632], [50.69081, 44.47704], [50.70313, 44.48836], [50.71551, 44.50027], [50.72797, 44.51275], [50.74048, 44.52576], [50.75305, 44.53929], [50.76565, 44.55331], [50.77829, 44.56777], [50.79095, 44.58264], [50.80362, 44.59789], [50.8163, 44.61347], [50.82897, 44.62934], [50.84163, 44.64546], [50.85427, 44.66179], [50.86687, 44.67828], [50.87944, 44.69487], [50.89195, 44.71153], [50.90441, 44.72821], [50.9168, 44.74485], [50.92912, 44.76142], [50.94135, 44.77786], [50.95349, 44.79413], [50.96553, 44.81018], [50.97746, 44.82597], [50.98927, 44.84145], [51.00096, 44.85659], [51.01251, 44.87134], [51.02392, 44.88567], [51.03519, 44.89955], [51.04629, 44.91293], [51.05724, 44.9258], [51.06801, 44.93812], [51.0786, 44.94987], [51.08901, 44.96104], [51.09922, 44.97159], [51.10924, 44.98152], [51.11904, 44.99082], [51.12864, 44.99948], [51.13802, 45.00749], [51.14717, 45.01486], [51.1561, 45.02159], [51.16479, 45.02767], [51.17323, 45.03313], [51.18143, 45.03798], [51.18938, 45.04222], [51.19708, 45.04589], [51.2045, 45.04899], [51.21166, 45.05156], [51.21855, 45.05362], [51.22515, 45.05521], [51.23146, 45.05634], [51.23748, 45.05707], [51.24319, 45.05743], [51.24859, 45.05745], [51.25367, 45.05719], [51.25843, 45.05669], [51.26286, 45.05599], [51.26694, 45.05514], [51.27069, 45.0542], [51.27407, 45.05321]]}, "properties": {"year": 2026, "sensor": "COPERNICUS/S2_SR_HARMONIZED", "scale_m": 10, "acquisition_date": "2026-07-11", "cloud_pct": 5.8, "wind_ms": 3.5, "otsu_threshold": 0.107, "data_quality": "good", "length_km": 218.4}}]}