{"type": "FeatureCollection", "crs": {"type": "name", "properties": {"name": "EPSG:4326"}}, "features": [{"type": "Feature", "geometry": {"type": "LineString", "coordinates": [[51.09969, 42.70023], [51.11239, 42.71691], [51.12508, 42.73354], [51.13775, 42.75008], [51.15039, 42.76647], [51.163, 42.78268], [51.17557, 42.79865], [51.18809, 42.81435], [51.20054, 42.82972], [51.21292, 42.84474], [51.22523, 42.85936], [51.23744, 42.87354], [51.24957, 42.88726], [51.26159, 42.90047], [51.27349, 42.91316], [51.28528, 42.92529], [51.29694, 42.93684], [51.30846, 42.94779], [51.31983, 42.95812], [51.33106, 42.96783], [51.34212, 42.9769], [51.35302, 42.98532], [51.36374, 42.99309], [51.37427, 43.00022], [51.38462, 43.0067], [51.39477, 43.01255], [51.40471, 43.01777], [51.41444, 43.02237], [51.42395, 43.02639], [51.43323, 43.02983], [51.44228, 43.03272], [51.4511, 43.03509], [51.45966, 43.03696], [51.46798, 43.03837], [51.47603, 43.03936], [51.48382, 43.03996], [51.49134, 43.04021], [51.49858, 43.04015], [51.50554, 43.03983], [51.51221, 43.03928], [51.51859, 43.03856], [51.52468, 43.03771], [51.53046, 43.03678], [51.53593, 43.03582], [51.54109, 43.03487], [51.54593, 43.03398], [51.55045, 43.0332], [51.55465, 43.03258], [51.55851, 43.03216], [51.56204, 43.03198], [51.56523, 43.03209], [51.56807, 43.03253], [51.57056, 43.03332], [51.57271, 43.03451], [51.57452, 43.03612], [51.57601, 43.0382], [51.57717, 43.04079], [51.57801, 43.04393], [51.5785, 43.04765], [51.57866, 43.05196], [51.57846, 43.05688], [51.57792, 43.06243], [51.57703, 43.06862], [51.57579, 43.07545], [51.5742, 43.08293], [51.57225, 43.09106], [51.56997, 43.09983], [51.56733, 43.10925], [51.56434, 43.11931], [51.56101, 43.12999], [51.55733, 43.14127], [51.55332, 43.15315], [51.54895, 43.16559], [51.54425, 43.17857], [51.53922, 43.19207], [51.53385, 43.20605], [51.52814, 43.22048], [51.52211, 43.23532], [51.51575, 43.25054], [51.50907, 43.2661], [51.50207, 43.28196], [51.49475, 43.29806], [51.48713, 43.31438], [51.47919, 43.33085], [51.47096, 43.34744], [51.46242, 43.3641], [51.45359, 43.38078], [51.44447, 43.39743], [51.43507, 43.41401], [51.42539, 43.43046], [51.41544, 43.44674], [51.40522, 43.46281], [51.39473, 43.47863], [51.384, 43.49414], [51.37301, 43.5093], [51.36178, 43.52409], [51.35031, 43.53845], [51.33861, 43.55236], [51.32669, 43.56578], [51.31455, 43.57868], [51.3022, 43.59104], [51.28965, 43.60282], [51.27691, 43.61402], [51.26397, 43.62461], [51.25086, 43.63457], [51.23757, 43.6439], [51.22412, 43.65258], [51.21051, 43.66062], [51.19676, 43.66801], [51.18286, 43.67475], [51.16882, 43.68085], [51.15466, 43.68633], [51.14039, 43.69118], [51.126, 43.69544], [51.11151, 43.69911], [51.09693, 43.70222], [51.08227, 43.7048], [51.06753, 43.70688], [51.05272, 43.70848], [51.03786, 43.70965], [51.02294, 43.7104], [51.00799, 43.7108], [50.993, 43.71087], [50.97798, 43.71065], [50.96295, 43.7102], [50.94792, 43.70955], [50.93289, 43.70875], [50.91787, 43.70785], [50.90286, 43.70689], [50.88789, 43.70593], [50.87296, 43.70501], [50.85807, 43.70418], [50.84324, 43.70348], [50.82847, 43.70297], [50.81377, 43.70268], [50.79915, 43.70266], [50.78463, 43.70296], [50.7702, 43.70361], [50.75588, 43.70465], [50.74167, 43.70613], [50.72759, 43.70807], [50.71364, 43.71051], [50.69983, 43.71347], [50.68616, 43.71699], [50.67265, 43.72109], [50.65931, 43.72578], [50.64614, 43.73109], [50.63315, 43.73703], [50.62035, 43.7436], [50.60774, 43.75082], [50.59533, 43.75869], [50.58314, 43.76721], [50.57116, 43.77637], [50.5594, 43.78617], [50.54788, 43.7966], [50.53659, 43.80764], [50.52555, 43.81928], [50.51476, 43.83149], [50.50422, 43.84426], [50.49394, 43.85755], [50.48393, 43.87134], [50.4742, 43.8856], [50.46474, 43.90028], [50.45557, 43.91536], [50.44668, 43.93079], [50.43809, 43.94653], [50.4298, 43.96255], [50.42181, 43.97879], [50.41412, 43.99521], [50.40675, 44.01177], [50.3997, 44.02841], [50.39296, 44.0451], [50.38654, 44.06178], [50.38045, 44.0784], [50.37469, 44.09493], [50.36926, 44.1113], [50.36416, 44.12748], [50.3594, 44.14342], [50.35498, 44.15908], [50.3509, 44.17441], [50.34717, 44.18937], [50.34377, 44.20393], [50.34073, 44.21806], [50.33803, 44.2317], [50.33568, 44.24485], [50.33368, 44.25746], [50.33202, 44.26951], [50.33072, 44.28098], [50.32977, 44.29185], [50.32916, 44.3021], [50.32891, 44.31172], [50.32901, 44.3207], [50.32945, 44.32904], [50.33024, 44.33674], [50.33138, 44.34379], [50.33287, 44.3502], [50.3347, 44.35598], [50.33688, 44.36114], [50.3394, 44.36569], [50.34227, 44.36966], [50.34547, 44.37305], [50.34902, 44.37589], [50.35289, 44.37821], [50.35709, 44.38003], [50.3616, 44.38139], [50.36643, 44.38233], [50.37157, 44.38287], [50.37701, 44.38308], [50.38275, 44.38298], [50.38878, 44.38262], [50.39511, 44.38205], [50.40173, 44.38131], [50.40863, 44.38044], [50.41582, 44.37951], [50.42327, 44.37854], [50.431, 44.3776], [50.43898, 44.37672], [50.44723, 44.37596], [50.45573, 44.37537], [50.46447, 44.37498], [50.47345, 44.37484], [50.48267, 44.37499], [50.49211, 44.37549], [50.50178, 44.37636], [50.51165, 44.37764], [50.52174, 44.37937], [50.53202, 44.38159], [50.5425, 44.38432], [50.55317, 44.38759], [50.56401, 44.39142], [50.57502, 44.39585], [50.5862, 44.40088], [50.59753, 44.40653], [50.60901, 44.41281], [50.62062, 44.41974], [50.63237, 44.42731], [50.64425, 44.43554], [50.65623, 44.44441], [50.66833, 44.45392], [50.68052, 44.46406], [50.6928, 44.47483], [50.70516, 44.4862], [50.71759, 44.49815], [50.73009, 44.51067], [50.74264, 44.52372], [50.75524, 44.53729], [50.76788, 44.55134], [50.78054, 44.56583], [50.79322, 44.58073], [50.80592, 44.596], [50.81861, 44.6116], [50.8313, 44.6275], [50.84397, 44.64364], [50.85662, 44.65998], [50.86924, 44.67648], [50.88181, 44.69308], [50.89433, 44.70975], [50.90679, 44.72643], [50.91918, 44.74308], [50.9315, 44.75965], [50.94373, 44.77609], [50.95587, 44.79235], [50.9679, 44.80839], [50.97982, 44.82417], [50.99163, 44.83964], [51.0033, 44.85477], [51.01484, 44.8695], [51.02624, 44.88381], [51.03748, 44.89766], [51.04857, 44.91102], [51.05949, 44.92386], [51.07023, 44.93615], [51.08079, 44.94787], [51.09116, 44.95899], [51.10133, 44.9695], [51.1113, 44.97939], [51.12106, 44.98864], [51.1306, 44.99725], [51.13992, 45.00521], [51.149, 45.01252], [51.15784, 45.01918], [51.16645, 45.02521], [51.1748, 45.03061], [51.18289, 45.03539], [51.19072, 45.03957], [51.19829, 45.04318], [51.20558, 45.04622], [51.21259, 45.04874], [51.21932, 45.05075], [51.22576, 45.0523], [51.2319, 45.05341], [51.23775, 45.05411], [51.24329, 45.05446], [51.24852, 45.05448], [51.25344, 45.05423], [51.25804, 45.05374], [51.26232, 45.05307], [51.26628, 45.05225], [51.2699, 45.05133], [51.2732, 45.05037]]}, "properties": {"year": 2002, "sensor": "LANDSAT/LT05", "scale_m": 30, "acquisition_date": "2002-07-17", "cloud_pct": 8.3, "wind_ms": 2.9, "otsu_threshold": 0.119, "data_quality": "good", "length_km": 218.4}}]}