{"type": "FeatureCollection", "crs": {"type": "name", "properties": {"name": "EPSG:4326"}}, "features": [{"type": "Feature", "geometry": {"type": "LineString", "coordinates": [[51.09979, 42.70016], [51.11249, 42.71683], [51.12518, 42.73346], [51.13785, 42.75], [51.1505, 42.76639], [51.16311, 42.7826], [51.17567, 42.79857], [51.18819, 42.81427], [51.20064, 42.82964], [51.21302, 42.84466], [51.22532, 42.85928], [51.23754, 42.87346], [51.24966, 42.88717], [51.26168, 42.90039], [51.27359, 42.91307], [51.28537, 42.9252], [51.29703, 42.93674], [51.30855, 42.94769], [51.31992, 42.95803], [51.33114, 42.96773], [51.3422, 42.9768], [51.35309, 42.98522], [51.36381, 42.99299], [51.37434, 43.00011], [51.38468, 43.00659], [51.39483, 43.01243], [51.40477, 43.01765], [51.41449, 43.02226], [51.424, 43.02627], [51.43327, 43.02971], [51.44232, 43.03259], [51.45113, 43.03496], [51.45969, 43.03683], [51.46799, 43.03825], [51.47604, 43.03923], [51.48383, 43.03983], [51.49134, 43.04008], [51.49858, 43.04002], [51.50553, 43.0397], [51.5122, 43.03915], [51.51858, 43.03843], [51.52466, 43.03759], [51.53043, 43.03666], [51.5359, 43.03569], [51.54106, 43.03474], [51.54591, 43.03385], [51.55043, 43.03308], [51.55463, 43.03245], [51.5585, 43.03203], [51.56204, 43.03185], [51.56524, 43.03196], [51.5681, 43.0324], [51.57061, 43.0332], [51.57278, 43.0344], [51.57462, 43.03603], [51.57612, 43.03813], [51.5773, 43.04075], [51.57813, 43.04391], [51.57863, 43.04764], [51.57878, 43.05196], [51.57859, 43.05689], [51.57805, 43.06245], [51.57715, 43.06864], [51.57591, 43.07547], [51.57432, 43.08295], [51.57238, 43.09109], [51.57009, 43.09987], [51.56745, 43.10929], [51.56447, 43.11935], [51.56113, 43.13003], [51.55746, 43.14131], [51.55344, 43.15319], [51.54908, 43.16563], [51.54438, 43.17861], [51.53934, 43.19211], [51.53397, 43.20609], [51.52826, 43.22052], [51.52223, 43.23537], [51.51587, 43.25059], [51.50919, 43.26615], [51.50219, 43.28201], [51.49487, 43.29812], [51.48724, 43.31443], [51.47931, 43.33091], [51.47107, 43.3475], [51.46254, 43.36416], [51.45371, 43.38084], [51.44459, 43.39749], [51.43518, 43.41407], [51.4255, 43.43053], [51.41555, 43.44681], [51.40533, 43.46288], [51.39484, 43.4787], [51.3841, 43.49421], [51.37311, 43.50938], [51.36188, 43.52417], [51.35041, 43.53853], [51.33871, 43.55244], [51.32679, 43.56587], [51.31464, 43.57877], [51.30229, 43.59113], [51.28974, 43.60292], [51.27699, 43.61412], [51.26405, 43.62471], [51.25094, 43.63467], [51.23765, 43.644], [51.22419, 43.65269], [51.21058, 43.66073], [51.19681, 43.66812], [51.18291, 43.67487], [51.16887, 43.68097], [51.15471, 43.68645], [51.14043, 43.6913], [51.12603, 43.69556], [51.11154, 43.69924], [51.09696, 43.70235], [51.08229, 43.70493], [51.06755, 43.70701], [51.05274, 43.70861], [51.03787, 43.70977], [51.02295, 43.71053], [51.00799, 43.71093], [50.993, 43.71099], [50.97798, 43.71078], [50.96295, 43.71032], [50.94791, 43.70968], [50.93288, 43.70888], [50.91786, 43.70798], [50.90286, 43.70702], [50.88788, 43.70606], [50.87295, 43.70514], [50.85806, 43.70431], [50.84323, 43.70361], [50.82846, 43.7031], [50.81377, 43.70281], [50.79916, 43.70279], [50.78463, 43.70309], [50.77021, 43.70374], [50.75589, 43.70478], [50.74169, 43.70626], [50.72761, 43.7082], [50.71366, 43.71064], [50.69986, 43.7136], [50.6862, 43.71712], [50.6727, 43.72121], [50.65936, 43.7259], [50.64619, 43.73121], [50.63321, 43.73714], [50.62041, 43.74371], [50.60781, 43.75093], [50.59541, 43.7588], [50.58321, 43.76731], [50.57124, 43.77647], [50.55949, 43.78627], [50.54797, 43.79669], [50.53669, 43.80773], [50.52565, 43.81937], [50.51485, 43.83158], [50.50432, 43.84434], [50.49405, 43.85763], [50.48404, 43.87142], [50.47431, 43.88567], [50.46485, 43.90035], [50.45568, 43.91542], [50.4468, 43.93085], [50.43821, 43.94659], [50.42991, 43.9626], [50.42192, 43.97884], [50.41424, 43.99526], [50.40687, 44.01182], [50.39981, 44.02846], [50.39308, 44.04515], [50.38666, 44.06182], [50.38057, 44.07845], [50.37481, 44.09497], [50.36938, 44.11134], [50.36428, 44.12752], [50.35953, 44.14346], [50.35511, 44.15911], [50.35103, 44.17444], [50.34729, 44.1894], [50.3439, 44.20396], [50.34085, 44.21808], [50.33816, 44.23173], [50.33581, 44.24487], [50.3338, 44.25748], [50.33215, 44.26952], [50.33085, 44.28099], [50.3299, 44.29185], [50.32929, 44.3021], [50.32904, 44.31172], [50.32914, 44.3207], [50.32958, 44.32904], [50.33037, 44.33672], [50.33151, 44.34377], [50.33299, 44.35017], [50.33482, 44.35594], [50.337, 44.36108], [50.33951, 44.36562], [50.34237, 44.36957], [50.34556, 44.37295], [50.34909, 44.37578], [50.35295, 44.37809], [50.35713, 44.37991], [50.36163, 44.38127], [50.36645, 44.3822], [50.37158, 44.38275], [50.37701, 44.38295], [50.38274, 44.38285], [50.38877, 44.38249], [50.3951, 44.38192], [50.40172, 44.38118], [50.40862, 44.38032], [50.4158, 44.37938], [50.42325, 44.37841], [50.43098, 44.37747], [50.43897, 44.3766], [50.44722, 44.37584], [50.45572, 44.37524], [50.46446, 44.37485], [50.47345, 44.37471], [50.48267, 44.37486], [50.49212, 44.37536], [50.50179, 44.37623], [50.51167, 44.37751], [50.52176, 44.37925], [50.53205, 44.38146], [50.54254, 44.38419], [50.55321, 44.38747], [50.56405, 44.3913], [50.57507, 44.39573], [50.58625, 44.40076], [50.59759, 44.40641], [50.60907, 44.4127], [50.62069, 44.41963], [50.63244, 44.42721], [50.64432, 44.43543], [50.65631, 44.4443], [50.66841, 44.45382], [50.6806, 44.46396], [50.69289, 44.47473], [50.70525, 44.4861], [50.71769, 44.49806], [50.73018, 44.51058], [50.74274, 44.52364], [50.75534, 44.5372], [50.76797, 44.55125], [50.78064, 44.56574], [50.79332, 44.58064], [50.80602, 44.59592], [50.81871, 44.61152], [50.8314, 44.62742], [50.84408, 44.64356], [50.85672, 44.6599], [50.86934, 44.6764], [50.88191, 44.69301], [50.89443, 44.70967], [50.90689, 44.72636], [50.91929, 44.743], [50.9316, 44.75957], [50.94383, 44.77601], [50.95597, 44.79227], [50.968, 44.80831], [50.97993, 44.82409], [50.99173, 44.83956], [51.0034, 44.85469], [51.01494, 44.86942], [51.02634, 44.88373], [51.03758, 44.89758], [51.04867, 44.91094], [51.05958, 44.92378], [51.07033, 44.93606], [51.08089, 44.94778], [51.09125, 44.9589], [51.10143, 44.96941], [51.11139, 44.9793], [51.12115, 44.98855], [51.13069, 44.99715], [51.14, 45.00511], [51.14908, 45.01242], [51.15792, 45.01908], [51.16652, 45.0251], [51.17486, 45.0305], [51.18295, 45.03528], [51.19078, 45.03946], [51.19834, 45.04306], [51.20563, 45.0461], [51.21263, 45.04862], [51.21935, 45.05063], [51.22579, 45.05217], [51.23192, 45.05328], [51.23776, 45.05398], [51.24329, 45.05433], [51.24852, 45.05435], [51.25343, 45.0541], [51.25802, 45.05361], [51.2623, 45.05294], [51.26625, 45.05212], [51.26987, 45.05121], [51.27316, 45.05025]]}, "properties": {"year": 2001, "sensor": "LANDSAT/LT05", "scale_m": 30, "acquisition_date": "2001-07-16", "cloud_pct": 6.3, "wind_ms": 5.6, "otsu_threshold": 0.127, "data_quality": "good", "length_km": 218.4}}]}