{"type": "FeatureCollection", "crs": {"type": "name", "properties": {"name": "EPSG:4326"}}, "features": [{"type": "Feature", "geometry": {"type": "LineString", "coordinates": [[51.09949, 42.70039], [51.11218, 42.71707], [51.12487, 42.7337], [51.13754, 42.75024], [51.15019, 42.76663], [51.1628, 42.78284], [51.17537, 42.79881], [51.18788, 42.81451], [51.20034, 42.82989], [51.21272, 42.84491], [51.22503, 42.85953], [51.23725, 42.87371], [51.24937, 42.88743], [51.2614, 42.90065], [51.27331, 42.91334], [51.2851, 42.92547], [51.29676, 42.93702], [51.30828, 42.94798], [51.31966, 42.95832], [51.33089, 42.96803], [51.34196, 42.9771], [51.35286, 42.98553], [51.36359, 42.9933], [51.37413, 43.00044], [51.38448, 43.00692], [51.39464, 43.01277], [51.40459, 43.018], [51.41433, 43.02261], [51.42385, 43.02663], [51.43315, 43.03007], [51.44221, 43.03297], [51.45104, 43.03534], [51.45961, 43.03721], [51.46794, 43.03863], [51.47601, 43.03962], [51.48381, 43.04022], [51.49134, 43.04047], [51.49859, 43.04041], [51.50556, 43.04009], [51.51224, 43.03954], [51.51863, 43.03882], [51.52472, 43.03797], [51.5305, 43.03704], [51.53597, 43.03607], [51.54113, 43.03512], [51.54598, 43.03424], [51.55049, 43.03346], [51.55468, 43.03284], [51.55853, 43.03242], [51.56204, 43.03224], [51.56521, 43.03235], [51.56801, 43.03278], [51.57046, 43.03356], [51.57256, 43.03472], [51.57433, 43.03629], [51.57579, 43.03833], [51.57693, 43.04088], [51.57775, 43.04398], [51.57825, 43.04767], [51.5784, 43.05196], [51.5782, 43.05687], [51.57766, 43.0624], [51.57677, 43.06858], [51.57553, 43.0754], [51.57394, 43.08287], [51.572, 43.09099], [51.56972, 43.09977], [51.56708, 43.10918], [51.5641, 43.11923], [51.56076, 43.12991], [51.55709, 43.14119], [51.55307, 43.15306], [51.54871, 43.1655], [51.54401, 43.17848], [51.53898, 43.19197], [51.5336, 43.20595], [51.5279, 43.22038], [51.52187, 43.23522], [51.51551, 43.25044], [51.50883, 43.266], [51.50183, 43.28185], [51.49452, 43.29795], [51.48689, 43.31426], [51.47896, 43.33074], [51.47073, 43.34732], [51.46219, 43.36398], [51.45336, 43.38066], [51.44425, 43.3973], [51.43485, 43.41388], [51.42517, 43.43033], [51.41522, 43.44661], [51.405, 43.46267], [51.39452, 43.47848], [51.38379, 43.49399], [51.3728, 43.50915], [51.36157, 43.52393], [51.35011, 43.53829], [51.33842, 43.55219], [51.3265, 43.56561], [51.31437, 43.5785], [51.30202, 43.59085], [51.28948, 43.60263], [51.27674, 43.61382], [51.26381, 43.6244], [51.25071, 43.63436], [51.23743, 43.64368], [51.22399, 43.65236], [51.21039, 43.66039], [51.19664, 43.66778], [51.18275, 43.67451], [51.16872, 43.68061], [51.15457, 43.68608], [51.14031, 43.69094], [51.12593, 43.69519], [51.11146, 43.69886], [51.09688, 43.70197], [51.08223, 43.70455], [51.0675, 43.70662], [51.0527, 43.70823], [51.03784, 43.70939], [51.02293, 43.71015], [51.00798, 43.71054], [50.993, 43.71061], [50.97799, 43.71039], [50.96296, 43.70994], [50.94793, 43.70929], [50.9329, 43.70849], [50.91788, 43.70759], [50.90288, 43.70664], [50.88791, 43.70568], [50.87297, 43.70475], [50.85808, 43.70392], [50.84325, 43.70323], [50.82847, 43.70271], [50.81377, 43.70242], [50.79915, 43.7024], [50.78462, 43.7027], [50.77018, 43.70335], [50.75586, 43.7044], [50.74164, 43.70587], [50.72755, 43.70782], [50.71359, 43.71026], [50.69977, 43.71322], [50.68609, 43.71674], [50.67257, 43.72084], [50.65922, 43.72554], [50.64604, 43.73085], [50.63304, 43.73679], [50.62022, 43.74337], [50.60761, 43.7506], [50.59519, 43.75847], [50.58299, 43.767], [50.571, 43.77617], [50.55924, 43.78597], [50.5477, 43.79641], [50.53641, 43.80746], [50.52536, 43.8191], [50.51456, 43.83133], [50.50402, 43.8441], [50.49374, 43.8574], [50.48372, 43.87119], [50.47398, 43.88545], [50.46452, 43.90014], [50.45534, 43.91522], [50.44646, 43.93066], [50.43786, 43.94641], [50.42957, 43.96243], [50.42157, 43.97867], [50.41389, 43.9951], [50.40652, 44.01166], [50.39946, 44.02831], [50.39272, 44.045], [50.3863, 44.06169], [50.38021, 44.07832], [50.37444, 44.09484], [50.36901, 44.11122], [50.36391, 44.1274], [50.35915, 44.14335], [50.35473, 44.15901], [50.35065, 44.17434], [50.34691, 44.18931], [50.34352, 44.20388], [50.34047, 44.218], [50.33777, 44.23166], [50.33542, 44.2448], [50.33342, 44.25742], [50.33177, 44.26948], [50.33046, 44.28095], [50.32951, 44.29183], [50.32891, 44.30209], [50.32865, 44.31172], [50.32875, 44.32071], [50.32919, 44.32906], [50.32999, 44.33677], [50.33113, 44.34384], [50.33262, 44.35027], [50.33446, 44.35607], [50.33665, 44.36125], [50.33918, 44.36583], [50.34207, 44.36982], [50.3453, 44.37324], [50.34887, 44.3761], [50.35277, 44.37844], [50.357, 44.38027], [50.36154, 44.38164], [50.36639, 44.38258], [50.37155, 44.38313], [50.377, 44.38334], [50.38276, 44.38324], [50.3888, 44.38288], [50.39514, 44.3823], [50.40176, 44.38156], [50.40867, 44.3807], [50.41585, 44.37976], [50.4233, 44.3788], [50.43102, 44.37786], [50.43901, 44.37698], [50.44725, 44.37622], [50.45574, 44.37562], [50.46448, 44.37523], [50.47345, 44.3751], [50.48266, 44.37525], [50.49209, 44.37574], [50.50175, 44.37661], [50.51162, 44.3779], [50.52169, 44.37963], [50.53196, 44.38184], [50.54243, 44.38457], [50.55308, 44.38783], [50.56392, 44.39167], [50.57492, 44.39608], [50.58608, 44.40111], [50.59741, 44.40676], [50.60888, 44.41304], [50.62049, 44.41996], [50.63223, 44.42753], [50.64409, 44.43575], [50.65608, 44.44461], [50.66816, 44.45412], [50.68035, 44.46426], [50.69263, 44.47502], [50.70498, 44.48638], [50.71741, 44.49833], [50.72991, 44.51085], [50.74246, 44.5239], [50.75505, 44.53746], [50.76768, 44.55151], [50.78035, 44.566], [50.79303, 44.58089], [50.80572, 44.59616], [50.81841, 44.61177], [50.8311, 44.62766], [50.84377, 44.6438], [50.85642, 44.66014], [50.86903, 44.67663], [50.8816, 44.69324], [50.89412, 44.70991], [50.90658, 44.72659], [50.91898, 44.74323], [50.93129, 44.7598], [50.94352, 44.77624], [50.95566, 44.7925], [50.96769, 44.80855], [50.97962, 44.82433], [50.99142, 44.8398], [51.0031, 44.85492], [51.01464, 44.86966], [51.02604, 44.88397], [51.03728, 44.89783], [51.04837, 44.91119], [51.05929, 44.92403], [51.07004, 44.93632], [51.0806, 44.94804], [51.09097, 44.95917], [51.10115, 44.96968], [51.11112, 44.97957], [51.12089, 44.98883], [51.13043, 44.99744], [51.13975, 45.00541], [51.14884, 45.01272], [51.15769, 45.01939], [51.1663, 45.02542], [51.17466, 45.03083], [51.18276, 45.03562], [51.19061, 45.0398], [51.19818, 45.04341], [51.20549, 45.04646], [51.21251, 45.04899], [51.21925, 45.051], [51.22571, 45.05255], [51.23186, 45.05366], [51.23772, 45.05437], [51.24328, 45.05472], [51.24853, 45.05474], [51.25346, 45.05449], [51.25808, 45.054], [51.26237, 45.05332], [51.26633, 45.0525], [51.26997, 45.05158], [51.27327, 45.05062]]}, "properties": {"year": 2004, "sensor": "LANDSAT/LT05", "scale_m": 30, "acquisition_date": "2004-07-19", "cloud_pct": 0.9, "wind_ms": 2.9, "otsu_threshold": 0.082, "data_quality": "good", "length_km": 218.4}}]}