{"type": "FeatureCollection", "crs": {"type": "name", "properties": {"name": "EPSG:4326"}}, "features": [{"type": "Feature", "geometry": {"type": "LineString", "coordinates": [[51.09743, 42.70196], [51.11013, 42.71863], [51.12282, 42.73527], [51.1355, 42.75181], [51.14815, 42.76821], [51.16077, 42.78443], [51.17334, 42.80041], [51.18587, 42.81613], [51.19834, 42.83152], [51.21074, 42.84656], [51.22306, 42.8612], [51.2353, 42.87541], [51.24745, 42.88916], [51.2595, 42.9024], [51.27144, 42.91512], [51.28326, 42.92729], [51.29496, 42.93887], [51.30652, 42.94987], [51.31795, 42.96025], [51.32923, 42.97], [51.34035, 42.97912], [51.35131, 42.98759], [51.36211, 42.99542], [51.37272, 43.0026], [51.38315, 43.00914], [51.39339, 43.01504], [51.40344, 43.02031], [51.41328, 43.02497], [51.4229, 43.02903], [51.43231, 43.03251], [51.44148, 43.03544], [51.45042, 43.03785], [51.45912, 43.03975], [51.46757, 43.04119], [51.47575, 43.04219], [51.48367, 43.0428], [51.49131, 43.04305], [51.49866, 43.04299], [51.50573, 43.04266], [51.51249, 43.04211], [51.51895, 43.04138], [51.5251, 43.04052], [51.53093, 43.03959], [51.53643, 43.03862], [51.5416, 43.03766], [51.54643, 43.03678], [51.55091, 43.03601], [51.55502, 43.0354], [51.55875, 43.03499], [51.56207, 43.03482], [51.56498, 43.03492], [51.56744, 43.0353], [51.56945, 43.03594], [51.57107, 43.03683], [51.57241, 43.03802], [51.57354, 43.0396], [51.57449, 43.04173], [51.57522, 43.04448], [51.57567, 43.04788], [51.57581, 43.05195], [51.57563, 43.05669], [51.5751, 43.06209], [51.57422, 43.06816], [51.573, 43.0749], [51.57142, 43.0823], [51.5695, 43.09037], [51.56722, 43.09909], [51.5646, 43.10847], [51.56162, 43.11848], [51.5583, 43.12912], [51.55464, 43.14038], [51.55063, 43.15222], [51.54628, 43.16463], [51.54159, 43.17759], [51.53656, 43.19106], [51.5312, 43.20501], [51.5255, 43.21942], [51.51948, 43.23424], [51.51313, 43.24943], [51.50646, 43.26497], [51.49948, 43.28079], [51.49217, 43.29687], [51.48456, 43.31316], [51.47664, 43.3296], [51.46842, 43.34616], [51.4599, 43.36279], [51.45109, 43.37943], [51.44199, 43.39605], [51.43261, 43.41258], [51.42295, 43.429], [51.41303, 43.44524], [51.40283, 43.46127], [51.39238, 43.47703], [51.38168, 43.49249], [51.37073, 43.50761], [51.35954, 43.52234], [51.34811, 43.53665], [51.33646, 43.5505], [51.32459, 43.56386], [51.31251, 43.5767], [51.30023, 43.589], [51.28774, 43.60072], [51.27507, 43.61185], [51.26221, 43.62238], [51.24918, 43.63227], [51.23599, 43.64154], [51.22263, 43.65016], [51.20912, 43.65814], [51.19546, 43.66548], [51.18167, 43.67217], [51.16774, 43.67822], [51.15369, 43.68365], [51.13953, 43.68847], [51.12525, 43.6927], [51.11087, 43.69634], [51.09639, 43.69943], [51.08183, 43.702], [51.06718, 43.70406], [51.05246, 43.70565], [51.03768, 43.70681], [51.02283, 43.70756], [51.00794, 43.70796], [50.99301, 43.70802], [50.97805, 43.70781], [50.96306, 43.70736], [50.94806, 43.70671], [50.93305, 43.70591], [50.91804, 43.70501], [50.90305, 43.70406], [50.88807, 43.7031], [50.87313, 43.70218], [50.85822, 43.70134], [50.84335, 43.70064], [50.82855, 43.70013], [50.8138, 43.69984], [50.79913, 43.69982], [50.78454, 43.70012], [50.77003, 43.70077], [50.75563, 43.70182], [50.74133, 43.70331], [50.72715, 43.70526], [50.7131, 43.70772], [50.69917, 43.71071], [50.6854, 43.71426], [50.67177, 43.71839], [50.65831, 43.72312], [50.64502, 43.72848], [50.63191, 43.73447], [50.61899, 43.7411], [50.60627, 43.74839], [50.59376, 43.75632], [50.58146, 43.76491], [50.56939, 43.77415], [50.55754, 43.78403], [50.54593, 43.79453], [50.53457, 43.80565], [50.52345, 43.81736], [50.51259, 43.82965], [50.502, 43.84249], [50.49167, 43.85585], [50.48161, 43.86971], [50.47183, 43.88403], [50.46233, 43.89877], [50.45312, 43.91391], [50.4442, 43.9294], [50.43558, 43.9452], [50.42726, 43.96126], [50.41925, 43.97756], [50.41154, 43.99403], [50.40415, 44.01063], [50.39707, 44.02733], [50.39031, 44.04406], [50.38388, 44.06078], [50.37777, 44.07745], [50.372, 44.09401], [50.36655, 44.11043], [50.36144, 44.12665], [50.35667, 44.14263], [50.35224, 44.15832], [50.34815, 44.1737], [50.3444, 44.18871], [50.341, 44.20331], [50.33794, 44.21748], [50.33524, 44.23118], [50.33288, 44.24437], [50.33087, 44.25704], [50.3292, 44.26915], [50.32789, 44.28069], [50.32693, 44.29164], [50.32633, 44.30197], [50.32607, 44.3117], [50.32617, 44.32079], [50.32662, 44.32926], [50.32743, 44.33711], [50.32859, 44.34433], [50.33013, 44.35095], [50.33203, 44.35696], [50.33432, 44.36238], [50.337, 44.36721], [50.34008, 44.37147], [50.34355, 44.37514], [50.3474, 44.37823], [50.3516, 44.38074], [50.35612, 44.3827], [50.36093, 44.38415], [50.36602, 44.38514], [50.37137, 44.38571], [50.37698, 44.38592], [50.38286, 44.38582], [50.389, 44.38545], [50.3954, 44.38487], [50.40207, 44.38413], [50.409, 44.38326], [50.41618, 44.38232], [50.42363, 44.38136], [50.43132, 44.38042], [50.43927, 44.37955], [50.44746, 44.3788], [50.45589, 44.3782], [50.46456, 44.37782], [50.47345, 44.37768], [50.48257, 44.37783], [50.49191, 44.37832], [50.50147, 44.37918], [50.51123, 44.38045], [50.5212, 44.38216], [50.53137, 44.38435], [50.54173, 44.38705], [50.55227, 44.39029], [50.563, 44.39408], [50.57391, 44.39846], [50.58498, 44.40344], [50.59621, 44.40905], [50.60759, 44.41528], [50.61913, 44.42215], [50.63079, 44.42968], [50.64259, 44.43785], [50.65451, 44.44667], [50.66654, 44.45613], [50.67867, 44.46622], [50.6909, 44.47694], [50.70321, 44.48827], [50.7156, 44.50018], [50.72806, 44.51266], [50.74058, 44.52568], [50.75314, 44.53921], [50.76575, 44.55322], [50.77839, 44.56768], [50.79105, 44.58256], [50.80372, 44.5978], [50.8164, 44.61339], [50.82907, 44.62926], [50.84173, 44.64538], [50.85437, 44.66171], [50.86697, 44.6782], [50.87954, 44.69479], [50.89205, 44.71145], [50.90451, 44.72813], [50.9169, 44.74478], [50.92922, 44.76134], [50.94145, 44.77778], [50.95359, 44.79405], [50.96563, 44.8101], [50.97756, 44.82589], [50.98937, 44.84137], [51.00106, 44.85651], [51.01261, 44.87126], [51.02402, 44.88559], [51.03529, 44.89947], [51.04639, 44.91285], [51.05733, 44.92572], [51.0681, 44.93804], [51.0787, 44.94979], [51.0891, 44.96095], [51.09931, 44.9715], [51.10933, 44.98143], [51.11913, 44.99073], [51.12873, 44.99938], [51.1381, 45.00739], [51.14725, 45.01476], [51.15617, 45.02148], [51.16486, 45.02757], [51.1733, 45.03302], [51.1815, 45.03787], [51.18944, 45.04211], [51.19713, 45.04577], [51.20455, 45.04887], [51.2117, 45.05144], [51.21858, 45.0535], [51.22518, 45.05508], [51.23148, 45.05622], [51.23749, 45.05694], [51.24319, 45.0573], [51.24859, 45.05732], [51.25366, 45.05706], [51.25842, 45.05656], [51.26283, 45.05586], [51.26692, 45.05502], [51.27065, 45.05407], [51.27404, 45.05308]]}, "properties": {"year": 2025, "sensor": "COPERNICUS/S2_SR_HARMONIZED", "scale_m": 10, "acquisition_date": "2025-07-10", "cloud_pct": 3.0, "wind_ms": 2.7, "otsu_threshold": 0.11, "data_quality": "good", "length_km": 218.4}}]}