{"type": "FeatureCollection", "crs": {"type": "name", "properties": {"name": "EPSG:4326"}}, "features": [{"type": "Feature", "geometry": {"type": "LineString", "coordinates": [[51.09877, 42.70094], [51.11146, 42.71762], [51.12415, 42.73425], [51.13683, 42.75079], [51.14948, 42.76718], [51.16209, 42.78339], [51.17466, 42.79937], [51.18718, 42.81508], [51.19964, 42.83046], [51.21203, 42.84549], [51.22434, 42.86011], [51.23657, 42.87431], [51.2487, 42.88804], [51.26073, 42.90126], [51.27265, 42.91396], [51.28445, 42.9261], [51.29613, 42.93767], [51.30767, 42.94864], [51.31906, 42.95899], [51.33031, 42.96872], [51.3414, 42.97781], [51.35232, 42.98625], [51.36307, 42.99404], [51.37364, 43.00119], [51.38402, 43.0077], [51.3942, 43.01356], [51.40419, 43.01881], [51.41396, 43.02343], [51.42352, 43.02747], [51.43285, 43.03093], [51.44196, 43.03383], [51.45082, 43.03622], [51.45944, 43.0381], [51.46781, 43.03952], [51.47592, 43.04052], [51.48376, 43.04112], [51.49133, 43.04137], [51.49861, 43.04131], [51.50562, 43.04099], [51.51233, 43.04044], [51.51874, 43.03972], [51.52485, 43.03886], [51.53065, 43.03793], [51.53614, 43.03696], [51.5413, 43.03601], [51.54614, 43.03513], [51.55064, 43.03435], [51.5548, 43.03373], [51.55861, 43.03332], [51.56205, 43.03315], [51.56513, 43.03325], [51.56781, 43.03366], [51.57011, 43.03439], [51.57204, 43.03546], [51.57366, 43.03689], [51.575, 43.03877], [51.57608, 43.04118], [51.57687, 43.04416], [51.57734, 43.04774], [51.57749, 43.05196], [51.5773, 43.0568], [51.57677, 43.06229], [51.57588, 43.06843], [51.57465, 43.07522], [51.57306, 43.08267], [51.57113, 43.09077], [51.56884, 43.09953], [51.56621, 43.10893], [51.56323, 43.11897], [51.5599, 43.12963], [51.55623, 43.14091], [51.55222, 43.15277], [51.54786, 43.1652], [51.54316, 43.17817], [51.53813, 43.19165], [51.53276, 43.20562], [51.52706, 43.22004], [51.52103, 43.23488], [51.51468, 43.25009], [51.508, 43.26564], [51.50101, 43.28148], [51.4937, 43.29757], [51.48608, 43.31388], [51.47815, 43.33034], [51.46992, 43.34692], [51.46139, 43.36356], [51.45257, 43.38023], [51.44346, 43.39686], [51.43407, 43.41342], [51.42439, 43.42986], [51.41445, 43.44613], [51.40424, 43.46218], [51.39377, 43.47797], [51.38305, 43.49346], [51.37207, 43.50861], [51.36086, 43.52337], [51.34941, 43.53771], [51.33773, 43.5516], [51.32583, 43.565], [51.31372, 43.57787], [51.30139, 43.5902], [51.28887, 43.60196], [51.27616, 43.61313], [51.26325, 43.62369], [51.25017, 43.63363], [51.23692, 43.64293], [51.22351, 43.65159], [51.20994, 43.6596], [51.19623, 43.66697], [51.18237, 43.67369], [51.16838, 43.67978], [51.15427, 43.68523], [51.14003, 43.69007], [51.12569, 43.69432], [51.11125, 43.69798], [51.09671, 43.70108], [51.08209, 43.70366], [51.06739, 43.70573], [51.05262, 43.70733], [51.03778, 43.70849], [51.0229, 43.70924], [51.00797, 43.70964], [50.993, 43.7097], [50.97801, 43.70949], [50.963, 43.70903], [50.94798, 43.70839], [50.93295, 43.70759], [50.91794, 43.70669], [50.90294, 43.70573], [50.88797, 43.70477], [50.87303, 43.70385], [50.85813, 43.70302], [50.84328, 43.70232], [50.8285, 43.70181], [50.81378, 43.70152], [50.79914, 43.7015], [50.78459, 43.7018], [50.77013, 43.70245], [50.75578, 43.7035], [50.74153, 43.70498], [50.72741, 43.70692], [50.71342, 43.70937], [50.69956, 43.71234], [50.68585, 43.71587], [50.67229, 43.71998], [50.6589, 43.72469], [50.64568, 43.73002], [50.63264, 43.73598], [50.61979, 43.74258], [50.60714, 43.74982], [50.59469, 43.75772], [50.58245, 43.76627], [50.57043, 43.77546], [50.55864, 43.78529], [50.54708, 43.79575], [50.53576, 43.80683], [50.52469, 43.81849], [50.51387, 43.83074], [50.50331, 43.84353], [50.49301, 43.85686], [50.48298, 43.87067], [50.47323, 43.88495], [50.46376, 43.89966], [50.45457, 43.91476], [50.44567, 43.93022], [50.43706, 43.94599], [50.42876, 43.96202], [50.42076, 43.97828], [50.41307, 43.99473], [50.40569, 44.0113], [50.39862, 44.02797], [50.39188, 44.04467], [50.38545, 44.06137], [50.37936, 44.07801], [50.37359, 44.09455], [50.36815, 44.11094], [50.36305, 44.12714], [50.35829, 44.1431], [50.35386, 44.15877], [50.34978, 44.17412], [50.34604, 44.1891], [50.34264, 44.20368], [50.33959, 44.21782], [50.33689, 44.23149], [50.33453, 44.24465], [50.33253, 44.25729], [50.33087, 44.26936], [50.32956, 44.28086], [50.32861, 44.29176], [50.328, 44.30205], [50.32775, 44.31171], [50.32784, 44.32074], [50.32829, 44.32913], [50.32909, 44.33689], [50.33024, 44.34401], [50.33175, 44.35051], [50.33361, 44.35638], [50.33583, 44.36165], [50.33842, 44.36631], [50.34137, 44.3704], [50.34469, 44.3739], [50.34835, 44.37685], [50.35236, 44.37924], [50.35669, 44.38112], [50.36133, 44.38252], [50.36626, 44.38348], [50.37149, 44.38403], [50.377, 44.38424], [50.38279, 44.38414], [50.38887, 44.38378], [50.39523, 44.3832], [50.40187, 44.38246], [50.40878, 44.3816], [50.41597, 44.38066], [50.42342, 44.3797], [50.43113, 44.37875], [50.4391, 44.37788], [50.44732, 44.37712], [50.45579, 44.37653], [50.4645, 44.37614], [50.47345, 44.376], [50.48263, 44.37616], [50.49203, 44.37665], [50.50165, 44.37751], [50.51148, 44.37879], [50.52152, 44.38051], [50.53176, 44.38272], [50.54219, 44.38544], [50.5528, 44.38869], [50.5636, 44.39251], [50.57456, 44.39692], [50.5857, 44.40193], [50.59699, 44.40756], [50.60843, 44.41382], [50.62001, 44.42073], [50.63173, 44.42828], [50.64357, 44.43648], [50.65553, 44.44533], [50.66759, 44.45482], [50.67976, 44.46495], [50.69202, 44.47569], [50.70436, 44.48704], [50.71678, 44.49898], [50.72926, 44.51148], [50.7418, 44.52452], [50.75438, 44.53807], [50.76701, 44.55211], [50.77966, 44.56659], [50.79233, 44.58148], [50.80502, 44.59674], [50.81771, 44.61233], [50.83039, 44.62822], [50.84306, 44.64435], [50.8557, 44.66069], [50.86831, 44.67718], [50.88088, 44.69378], [50.8934, 44.71045], [50.90586, 44.72713], [50.91825, 44.74377], [50.93057, 44.76034], [50.9428, 44.77678], [50.95493, 44.79305], [50.96697, 44.80909], [50.9789, 44.82487], [50.9907, 44.84035], [51.00238, 44.85548], [51.01393, 44.87022], [51.02533, 44.88454], [51.03658, 44.8984], [51.04768, 44.91177], [51.05861, 44.92462], [51.06936, 44.93692], [51.07993, 44.94865], [51.09032, 44.95979], [51.10051, 44.97032], [51.11049, 44.98022], [51.12027, 44.98949], [51.12983, 44.99812], [51.13917, 45.0061], [51.14828, 45.01343], [51.15716, 45.02012], [51.1658, 45.02617], [51.17419, 45.0316], [51.18232, 45.0364], [51.1902, 45.04061], [51.19781, 45.04424], [51.20516, 45.04731], [51.21223, 45.04984], [51.21902, 45.05188], [51.22552, 45.05344], [51.23173, 45.05455], [51.23764, 45.05527], [51.24325, 45.05562], [51.24855, 45.05565], [51.25353, 45.05539], [51.25819, 45.05489], [51.26253, 45.05421], [51.26654, 45.05338], [51.27021, 45.05245], [51.27354, 45.05148]]}, "properties": {"year": 2011, "sensor": "LANDSAT/LT05", "scale_m": 30, "acquisition_date": "2011-07-11", "cloud_pct": 2.7, "wind_ms": 7.1, "otsu_threshold": 0.11, "data_quality": "good", "length_km": 218.4}}]}