{"type": "FeatureCollection", "crs": {"type": "name", "properties": {"name": "EPSG:4326"}}, "features": [{"type": "Feature", "geometry": {"type": "LineString", "coordinates": [[50.27491538651721, 44.55728525008377], [50.26852767009709, 44.548255934656716], [50.25764978590473, 44.53682593164801], [50.26365461297919, 44.53441607946447], [50.240165432800495, 44.51624059007703], [50.241431419282804, 44.51129810594091], [50.24219438055632, 44.50608666767212], [50.24236275423706, 44.500557241312166], [50.242129123492376, 44.49481276915785], [50.241474469374836, 44.48884300879337], [50.24118858168944, 44.483070498264325], [50.24138414729462, 44.477555603201296], [50.24182035086883, 44.47216951185182], [50.242450809478036, 44.4668874298938], [50.24301570146472, 44.461570307692355], [50.24384426245518, 44.45639437785156], [50.2440293882893, 44.45087406095293], [50.2432904177454, 44.44485899708276], [50.24548152492763, 44.44041275200293], [50.24712276264978, 44.435672218904756], [50.245046213706985, 44.428940938718604], [50.24349738176776, 44.422492019511], [50.2430243948201, 44.41661920559251], [50.24287140322355, 44.4109177678973], [50.24431080675403, 44.40606945830511], [50.24451175970543, 44.40055771365254], [50.31558634466869, 44.33189196167709], [50.32165323034965, 44.32952458362411], [50.32849779120767, 44.32757344118211], [50.3338026371315, 44.324797997305424], [50.33787539962897, 44.321363126796165], [50.34501004702756, 44.31956703412747], [50.35289331761778, 44.31817128775432], [50.35986223057216, 44.316286032968804], [50.366367161753715, 44.31415239778613], [50.37347997295429, 44.31234375717286], [50.37836404336029, 44.30934302968044], [50.381023433851716, 44.30515265050513], [50.390310708106874, 44.304506579325], [50.39580666727901, 44.30183305799343], [50.4039709835197, 44.30058590302977], [50.41158184122863, 44.29904255901053], [50.41887047901976, 44.297326738010895], [50.42799319940309, 44.2965905343692], [50.44025704699098, 44.29753135680971], [50.44940067418252, 44.29680472371197], [50.460018968098325, 44.29686466588307], [50.46903951338921, 44.296070940054875], [50.478812474883874, 44.29567808492294], [50.48613299035756, 44.29397621322841], [50.49999463927707, 44.293326071653226], [50.512237839056205, 44.29462339601549], [50.51984314650653, 44.29324255445501], [50.52703672835426, 44.29162381892592], [50.53589768959685, 44.2909668320474], [50.54713719783705, 44.29168105003418], [50.55641040728696, 44.29126019024276], [50.564871203299, 44.290370277250624], [50.57217630914814, 44.288813710103675], [50.58138927015096, 44.288356447542434], [50.59171177268463, 44.288537806441], [50.528457765215144, 44.24628320467873], [50.54117690138335, 44.247857279479966], [50.60357788004758, 44.27807554029397], [50.545061937216296, 44.23856154138043], [50.57641342194076, 44.250884105458674], [50.61838042933693, 44.269305807635924], [50.62116873945692, 44.265146792095784], [50.62750335245366, 44.263030353647224], [50.63110016583663, 44.25933725620639], [50.63569072783337, 44.256216554790235], [50.63749085905181, 44.251489115191426], [50.643971034168665, 44.24945675303356], [50.647987305473904, 44.246005704671056], [50.651832040840574, 44.242456021296505], [50.65587181297079, 44.23901875852358], [50.660288423846296, 44.23579856377274], [50.66408679033137, 44.23222257156086], [50.66797559865899, 44.22869877726163], [50.67159808362614, 44.225021810803774], [50.6740120723608, 44.220649341477], [50.67806274245551, 44.21721914897893], [50.68229570395144, 44.213894005177316], [50.68457846372298, 44.20944648195515], [50.69167887715389, 44.207771956758705], [50.693029357245656, 44.20278822511466], [50.69978961183312, 44.20091801924959], [50.703132822626614, 44.197081428800814], [50.70881416259514, 44.194590388502405], [50.71311022726886, 44.1913023182678], [50.70138926474686, 44.17879663261632], [50.71857093584826, 44.18292488545869], [50.71918281792296, 44.17751744931831], [50.71951906995411, 44.17195145642908], [50.73311272765202, 44.17401352809905], [50.72902362609451, 44.16590216896248], [50.73922853591487, 44.16601449572281], [50.7448809481238, 44.16350758570909], [50.75028078628686, 44.160855406716564], [50.75445386770497, 44.15749775312544], [50.75806074759755, 44.15381460499451], [50.74902184593514, 44.14285779215018], [50.756699547109875, 44.14151693079575], [50.76795544205112, 44.14223354398007], [50.76409621805657, 44.13425710163349], [50.76506188166728, 44.12905556192901], [50.774027781231055, 44.1284557150076], [50.774417185701346, 44.12292320704514], [50.78866289262936, 44.12535897873477], [50.78791587126625, 44.11917378565428], [50.79869118550178, 44.11961328041461], [50.800540531773166, 44.114921311188326], [50.79579089904964, 44.10643545191945], [50.8096926232472, 44.10867260995682], [50.810281725479264, 44.10325673857119], [50.80707460304258, 44.095658424830006], [50.81962731127574, 44.09712007678813], [50.812384854486176, 44.08717141387201], [50.81603520500637, 44.08351504995074], [50.818632963949014, 44.079251543034204], [50.838383413381145, 44.084881587633255], [50.81826036786336, 44.06751209918357], [50.82874933604207, 44.067802228052884], [50.82778895642736, 44.06148644677775], [50.816573151285645, 44.0492513967809], [50.83034077848001, 44.05143561474295], [50.83465649124493, 44.04816449151827], [50.84028470477068, 44.045650765739154], [50.87165487356269, 44.05798341678139], [50.8698288408342, 44.051174319152516], [50.86954276475831, 44.04525283433591], [50.868340323494344, 44.03880291269849], [50.86875729321085, 44.03328673135729], [50.87162375004191, 44.02918321792869], [50.87277721996154, 44.02409198513566], [50.87736132403646, 44.02097933761848], [50.88190498609792, 44.01784345992444], [50.88709731300304, 44.015081696881566], [50.89147334042924, 44.01184933128955], [50.900336484137505, 44.011203840134066], [50.91010018881252, 44.01107677713943], [50.917864292594956, 44.009796760813586], [50.92343348988466, 44.007251858623974], [50.81379749384141, 43.93820519625491], [50.80998495105278, 43.93023990881022], [50.80866870629032, 43.92371834816086], [50.80238526951763, 43.914321867463286], [50.994584140550565, 43.933201657084666], [50.99584021389092, 43.92817530444742], [50.99671710096018, 43.922930674230244], [50.997739956224606, 43.91777019324841], [50.99808176050158, 43.912217513233934], [50.99830565034281, 43.906596937654015], [50.9993962615568, 43.90147570178153], [51.001571539878746, 43.89697945549335], [51.002993753555536, 43.8920494912308], [51.0043125191685, 43.887060037105044], [51.00558725079805, 43.8820453180456], [51.007294036206886, 43.87727966250513], [51.007896591871564, 43.87187782093167], [51.00935954483832, 43.86697187834257], [51.01163405076282, 43.86253375508385], [51.01246771173186, 43.85726538348149], [51.01419173410993, 43.85251026241629], [51.016479930134864, 43.84808044562919], [51.01734799567946, 43.8428322182317], [51.01788410488346, 43.837392710364526], [51.01907880591293, 43.83233292473151], [51.02205266908479, 43.82835719515758], [51.021264409173604, 43.82918955462468], [51.023528423634474, 43.82493748714522], [51.02457664577961, 43.82013981683276], [51.024501283052075, 43.81483784874231], [51.02556404553212, 43.81004680255895], [51.02808063950575, 43.805908484968036], [51.03050073149092, 43.80172694342568], [51.03201710833072, 43.79713979533646], [51.035879794683424, 43.79360606580345], [51.03858198636132, 43.78955145634239], [51.04196522210693, 43.78580266930841], [51.046611518786186, 43.78262093097174], [51.050474523635536, 43.779087648369426], [51.05351944747948, 43.775187253702015], [51.05775867681513, 43.771822987344756], [51.06180201452336, 43.76837086081372], [51.066096281022595, 43.76503140701163], [51.069569365851, 43.76132350259941], [51.07181895036364, 43.75706663977253], [51.073278238564384, 43.75245521260712], [51.07618198700831, 43.74849210940875], [51.07791212460471, 43.744002416472746], [51.08053322011155, 43.739912661630385], [51.0818309308392, 43.735229080574534], [51.08211909693664, 43.730092458736664], [51.0884703855412, 43.72767713563649], [51.09033308624113, 43.72324741454178], [51.095952751957704, 43.72050380008237], [51.099310576910874, 43.71674522307553], [51.10227422568182, 43.71280985860668], [51.10449857171454, 43.708542846462535], [51.10754380997351, 43.704644286915624], [51.10972315087931, 43.70035727456638], [51.11298189178436, 43.69655471113651], [51.11504446098103, 43.69221549636554], [51.116051418105044, 43.68740267819757], [51.11771440226514, 43.682876571578156], [51.12088113706735, 43.67900474295049], [51.122585036877425, 43.67447655028614], [51.12665312433914, 43.67100940393679], [51.1299779758524, 43.66720881088672], [51.13169879481994, 43.662688522778986], [51.15159615579855, 43.66632267056453], [51.137144988187686, 43.65454776579595], [51.14038704764031, 43.650710411018274], [51.14438078016868, 43.64721043521393], [51.14792048913285, 43.643506809640655], [51.151375383585076, 43.63976521297898], [51.193541458748314, 43.65338060002746], [51.20421995797515, 43.65287483154827], [51.162209974145746, 43.6287517569992], [51.176437813805684, 43.62984256752917], [51.19303893375413, 43.6320024422], [51.1912445560032, 43.625917167175615], [51.21648890645337, 43.631949465083686], [51.20553117152059, 43.62175958574925], [51.222753300834185, 43.62419592420403], [51.23097752304538, 43.62259995716481], [51.2351118426635, 43.61917215874577], [51.219046258604756, 43.60669570680479], [51.23280261379451, 43.60757933859762], [51.25004709637902, 43.61002291792226], [51.22724302855295, 43.59452961816881], [51.23222137668337, 43.59148089418438], [51.23825480443169, 43.588904880195905], [51.2434567457547, 43.58595629797119], [51.24806870811165, 43.58274343106312], [51.25246822884745, 43.57943544143123], [51.25728587499536, 43.57729737646849], [51.2607298058882, 43.57352375593029], [51.275960821747475, 43.57416700054149], [51.267908062336026, 43.56608551608147], [51.270592351279795, 43.56202736939566], [51.273044058806725, 43.55788212776241], [51.27528083060033, 43.553656404969296], [51.28727229818872, 43.553085938390765], [51.29056771047108, 43.5492569844812], [51.28970405745423, 43.54386990380798], [51.283075034157456, 43.536322131167246], [51.28484163539578, 43.531920538061364], [51.285801600429345, 43.52721666803635], [51.28515759672344, 43.52191158697198], [51.286428661861564, 43.51732439959765], [51.28989817419949, 43.513561420810404], [51.29240820230766, 43.50943882722631], [51.29430532164466, 43.505086545463406], [51.29499471591478, 43.500281573558304], [51.29538161511519, 43.495363223255026], [51.295361638563655, 43.490292332598514], [51.29773840655483, 43.486120137851124], [51.31168003033104, 43.48628338097157], [51.315922447640304, 43.482810543790606], [51.33883985338477, 43.48633377837784], [51.33865900267985, 43.481204005830044], [51.33761395948383, 43.47575051482194], [51.33528390484054, 43.469815531950715], [51.31346547356747, 43.45657542483901], [51.33782820667737, 43.46064450407767], [51.331489223554186, 43.45320691163366], [51.31458226450946, 43.44180565082689], [51.334313643126926, 43.44414097402501], [51.33651341820116, 43.43990328729165], [51.33706910305696, 43.435049419482716], [51.337731274601055, 43.43023549543844], [51.34127834413379, 43.4265030518731], [51.3417873925256, 43.42163185475031], [51.34188113771258, 43.41660498424104], [51.342494406844985, 43.41177289888312], [51.343701766939745, 43.407163593895234], [51.34180977382811, 43.4013921514245], [51.34187055330485, 43.39635290849754], [51.340110835445785, 43.39063084404137], [51.33673868809507, 43.3843037144204], [51.33455278870661, 43.378421329568916], [51.33480185525555, 43.37345250233007], [51.331075629970435, 43.36699172725704], [51.32741165128834, 43.3605538910681], [51.327710613906454, 43.35560360059113], [51.31329318821874, 43.345126289980485], [51.31234057790563, 43.33970539211398], [51.31134207504347, 43.33426717142061], [51.3101967987556, 43.32877371011676], [51.308916854077516, 43.32322953714629], [51.307509956139626, 43.3176375328642], [51.305631892317955, 43.311868267618564], [51.303846269334265, 43.30613358948652], [51.311717169251935, 43.304029694739064], [51.30025631104488, 43.294656709068505], [51.2988190991156, 43.28905261070275], [51.29702822048422, 43.28331532583207], [51.295087577137856, 43.27752152283739], [51.29327000452421, 43.27177385830372], [51.493744611464145, 43.287033199175276], [51.463175133896506, 43.25481941724717], [51.46155378705745, 43.24413418476694], [51.469837580242476, 43.23738410874565], [51.51383702256304, 43.24983018574505], [51.5271517589152, 43.25009196193054], [51.539579703534365, 43.250000656786824], [51.54315913520481, 43.246401431854906], [51.54682152277359, 43.242835140007365], [51.53813761143849, 43.23437477757766], [51.4151217753419, 43.16038343315588], [51.430305533090795, 43.16140892470225], [51.44601607646614, 43.16264187139734], [51.575127765674, 43.208896392379884], [51.47734604067565, 43.16506431800467], [51.584769879466535, 43.2026831662738], [51.59284323553556, 43.20086483400462], [51.57606262037943, 43.189199256562205], [51.597304541616474, 43.19259941191358], [51.60067594479417, 43.18891865529883], [51.607169104241954, 43.186474332720444], [51.47646467229321, 43.099450593294144], [51.545465418877164, 43.11183162406922], [51.563309373910606, 43.11390002665286], [51.57020354254599, 43.111619547042196], [51.516484292063765, 43.08525684972564], [51.523947169746144, 43.08320591250122], [51.53079403826173, 43.0809097706993], [51.67022690615734, 43.131198136946914], [51.6704928281865, 43.12628948730565], [51.671360034179536, 43.12161880000198], [51.66527051211453, 43.11419464377605], [51.65719205775009, 43.10598196949738], [51.66163626170943, 43.102727543524985], [51.666145941355296, 43.09949905723187], [51.67026272155716, 43.09611502746631], [51.67354666212267, 43.09240130915043], [51.67896948191049, 43.08953438868549], [51.68395615699238, 43.08649477754445], [51.68982657093996, 43.083804916880155], [51.69514301517455, 43.080895736822114], [51.699731482125216, 43.07769844902859], [51.7075713505304, 43.07348819311602], [51.71435801155807, 43.0714631624489], [51.718945888502645, 43.068334593482746], [51.723845454435825, 43.065362479137136], [51.729135753165856, 43.062586443745], [51.733886398434365, 43.05953966037355], [51.738598060769206, 43.05647336131158], [51.74277921761435, 43.05314098151073], [51.747328810361125, 43.04999349175945], [51.751609382550505, 43.046711119439955], [51.755606762403666, 43.04328677846403], [51.75988034737667, 43.04000105013562], [51.7633843492969, 43.036329432473345], [51.76645221576566, 43.03243918887108], [51.769857112656865, 43.02871808029873], [51.7715208972354, 43.02412389416755], [51.77500304730921, 43.020441760125905], [51.7775901912448, 43.01631088018143], [51.77935742108545, 43.01176891077223], [51.78351815673826, 43.00842743642139], [51.78670494086518, 43.004597616794655], [51.78825744412659, 42.99994831769355], [51.78986643896105, 42.99532744288196], [51.78993777253974, 42.98993543033049], [51.79322854251643, 42.9861582581733], [51.79749719924609, 42.982871648008015], [51.80190515534256, 42.97965496828368], [51.803143003381145, 42.974848525085704], [51.80409309431441, 42.96989783277266], [51.80462994295531, 42.964739922897046], [51.80706398506299, 42.96053371586843], [51.80852277848912, 42.955838422009506], [51.81252532974197, 42.9524192219407], [51.81651326606609, 42.9489927749097], [51.82013329771499, 42.94538188609921], [51.8245323539024, 42.942161807282936], [51.827558014465914, 42.93835212118518], [51.82994943509985, 42.93425524151354], [51.83215329667568, 42.93006440139377], [51.83369698747299, 42.925542557852495], [51.83423250178146, 42.920515119393755], [51.83730283856999, 42.91675919362637], [51.841996959096775, 42.91381779930824], [51.844974411194826, 42.91001548405356], [51.84808101922204, 42.90627805043759], [51.8511528517287, 42.902523279668955], [51.85500239121175, 42.89915864149472], [51.85943329269656, 42.896085625424206], [51.86182100218896, 42.89198808242622], [51.86628646387354, 42.888932562618926], [51.869590042246934, 42.88529449599226], [51.87305611276698, 42.88173800583098], [51.8757569929226, 42.877797935762665], [51.87871042862516, 42.873984608093764], [51.881454113230326, 42.87006621511515], [51.88338926903927, 42.865742521274434], [51.88526145038514, 42.8613873496154], [51.8871940556796, 42.857062575459146], [51.89010940722004, 42.853230697841184], [51.91049499206041, 42.858156524459844], [51.915902443605, 42.855573590478556], [51.93233060716858, 42.858511455265905], [51.95999589277639, 42.86707065991306], [51.97432859181809, 42.86895144155737], [51.91234736422951, 42.832621077520024], [51.91948975506818, 42.830908880125975], [51.933411429835495, 42.832593659329596], [51.98987246842105, 42.851008956094056], [52.00409001248853, 42.854809780386695], [52.01839680278285, 42.85867046260951]]}, "properties": {"year": 2019, "sensor": "COPERNICUS/S2_SR_HARMONIZED", "scale_m": 30, "n_scenes": 53, "date_window": ["2019-07-01", "2019-08-01"], "otsu_threshold": 0.0352, "data_quality": "good", "length_km": 493.4}}]}