{"type": "FeatureCollection", "crs": {"type": "name", "properties": {"name": "EPSG:4326"}}, "features": [{"type": "Feature", "geometry": {"type": "LineString", "coordinates": [[50.27491336890756, 44.5572841727575], [50.26826039432796, 44.54811317381632], [50.257667935177096, 44.536835630300715], [50.26393794812679, 44.5345674710755], [50.240405284242996, 44.516368863939256], [50.256364617492494, 44.51928284389503], [50.24239489773815, 44.50619391831483], [50.24232648319847, 44.50053783920659], [50.24218755439368, 44.4948440281921], [50.24154498186625, 44.488880735601235], [50.24117448062024, 44.48306295286455], [50.241389182929765, 44.477558297977254], [50.24187170988598, 44.47219699835475], [50.242461885981754, 44.466893358294996], [50.24307208617462, 44.4616004883486], [50.24388352722883, 44.456415396237986], [50.24408677000661, 44.45090478002847], [50.24364977041953, 44.44505139728789], [50.24563149831438, 44.44049305075254], [50.24711471092321, 44.435667907672766], [50.24556648976069, 44.42921956020007], [50.24356580392784, 44.422528667094774], [50.243230646366996, 44.416729687973735], [50.243162139365424, 44.41107352134703], [50.24456933281931, 44.40620796246869], [50.244802449312, 44.4007134628831], [50.31558735000504, 44.331892499980256], [50.321790963788935, 44.32959832380448], [50.32864960417744, 44.327654707804136], [50.33415753899818, 44.32498796151475], [50.33785428699248, 44.32135182652349], [50.345693722815085, 44.31993290317778], [50.35292649742721, 44.3181890409819], [50.360056288719036, 44.31638985054615], [50.36661250545136, 44.31428363507891], [50.37381280759794, 44.31252176735997], [50.3792288092629, 44.309805494722006], [50.383001262887994, 44.30621034946703], [50.390458525915285, 44.30458561367204], [50.39563169885044, 44.301739515258454], [50.40392170809379, 44.3005595640641], [50.41161905085879, 44.29906244513806], [50.41886746190972, 44.29732512581307], [50.42821346454816, 44.29670820710225], [50.44015947440856, 44.297479247207356], [50.44932623203649, 44.296764975929044], [50.46005317463678, 44.296882925198645], [50.46906768542387, 44.29608597492595], [50.47882253715507, 44.29568345366405], [50.48653348544212, 44.294189862911665], [50.48797827214315, 44.28638596486026], [50.51196524665665, 44.294466042705885], [50.52011380028841, 44.29339876122231], [50.52946202150425, 44.29302330199929], [50.53605892852725, 44.29105985693665], [50.54756722229174, 44.291929073782505], [50.55634394368348, 44.29122186452534], [50.564979702956926, 44.29043283026864], [50.57249107090946, 44.28899514990342], [50.58157696952418, 44.28846462028437], [50.591667776139595, 44.28851245736904], [50.56673023192792, 44.268370242305096], [50.57468008895641, 44.261419408194826], [50.59079195371091, 44.26494143422655], [50.619098022258136, 44.269719110462646], [50.61728195633651, 44.26290799019971], [50.617731954407, 44.25740210398452], [50.623645548511526, 44.255043743649345], [50.62994379720701, 44.25290689251885], [50.62451579915438, 44.24401556596716], [50.62550047250566, 44.23881816994285], [50.59144713581612, 44.196119988565975], [50.53702045340642, 44.15891286026966], [50.58665511072057, 44.181820673894286], [50.57949176290151, 44.166150353018644], [50.65013983486456, 44.17232181365057], [50.70719289035438, 44.193657490852004], [50.59029341325802, 44.10895366610393], [50.699080153636274, 44.16594609264351], [50.696496093189495, 44.147175770375874], [50.698361713881916, 44.10216487410024], [50.87137692728862, 44.05782320832151], [50.86980836323818, 44.051162514003686], [50.869309734527064, 44.045118479587366], [50.86838029469957, 44.038825961395595], [50.86880213498283, 44.03331259072664], [50.87112174043134, 44.028893716628936], [50.87297995968523, 44.02420890734435], [50.87735352643093, 44.020974840913695], [50.881908884867926, 44.0178457081228], [50.887089515432315, 44.01507720083658], [50.89186029179911, 44.01207243215254], [50.900987626723726, 44.01157918285705], [50.911676542806134, 44.011985212804795], [50.91814116518704, 44.00995629571997], [50.81905682260097, 43.94700636466158], [50.975237826377004, 43.91630645445183], [50.998293420148364, 43.923838490064405], [50.99889433670839, 43.91843505696172], [51.00350595287718, 43.909592358749244], [50.994996369244056, 43.89894075257223], [50.999848833373704, 43.89598696130205], [51.00291390366638, 43.89200348681352], [51.0071188301011, 43.8886768574257], [51.00566611579948, 43.88209075966865], [51.00729793052567, 43.87728190648091], [51.008074742194594, 43.871980481846194], [51.00962626567995, 43.86712558583543], [51.01176837742188, 43.86261116727242], [51.01260884077539, 43.857346721418075], [51.01427543292355, 43.85255850302642], [51.01660936465014, 43.848155047735034], [51.017316856059054, 43.8428142690504], [51.017996976489535, 43.83745777560939], [51.019111886529096, 43.83235199526232], [51.02203126480011, 43.82834485594541], [51.02129083555907, 43.82920141539781], [51.02361721153265, 43.82497733759045], [51.02458193038842, 43.82014218883863], [51.02453615837168, 43.814853504014806], [51.024321317334746, 43.8094889096643], [51.028451541685335, 43.80607498824717], [51.03056096021737, 43.801753981247316], [51.03227596970206, 43.797256006972844], [51.03620838043624, 43.793753572320455], [51.03929723604191, 43.789872537852304], [51.04240576479914, 43.78600042796938], [51.04650693185682, 43.782573985047904], [51.05051889256441, 43.77910756330625], [51.05361346341263, 43.775229451907094], [51.05771219821168, 43.77180212699306], [51.061715397702685, 43.76833198772778], [51.06587868801643, 43.76493375822437], [51.0710301624807, 43.7619790220299], [51.071996389403466, 43.75714626660591], [51.07368484357781, 43.75263768533216], [51.06437620048798, 43.74319295291597], [51.07824898993325, 43.744153594855085], [51.080949265790075, 43.74009937398324], [51.082326139488345, 43.735451329033204], [51.08255513964395, 43.73028816928525], [51.08848622250658, 43.72768424291998], [51.09165593445694, 43.72384108099064], [51.09533409682861, 43.72022618059486], [51.0994826547164, 43.71682243928172], [51.10145716153943, 43.71244321739914], [51.10861548885761, 43.710390095528005], [51.06609384523443, 43.686031479895775], [51.098105381645794, 43.69514301378617], [51.02778680974615, 43.65826999181015], [51.11660545654435, 43.687651300103916], [51.11978165040874, 43.68380424350667], [51.087670322261985, 43.65879850925766], [51.08295550460251, 43.65138553588545], [51.09054500932216, 43.64950188290869], [51.1192014534213, 43.65178621326204], [51.09599765224354, 43.63607010396977], [51.11832311744173, 43.64080584686817], [51.11927541096806, 43.630647539624334], [51.313978280510746, 43.35044662284603], [51.325987438902395, 43.34989404078419], [51.327145482809264, 43.345266321315094], [51.326109364994075, 43.3398146443006], [51.327541439009934, 43.335289908586724], [51.327080186985306, 43.33005410095174], [51.325629788640256, 43.324446677058226], [51.32517427140798, 43.319212910944096], [51.3227626955091, 43.31324411554648], [51.31210523829756, 43.3041755862614], [51.300465645805254, 43.29473544596395], [51.29873909979583, 43.289022516383234], [51.29726161906859, 43.28340313877776], [51.295102916228714, 43.27752729486594], [51.29323932958511, 43.27176231373195], [51.48049725101102, 43.261697705820715], [51.47144246964495, 43.23802162193169], [51.514833118919526, 43.25022529245545], [51.48444478158044, 43.23314550156003], [51.547500448029474, 43.243104218988805], [51.54746585553234, 43.23807272736565], [51.4155842031387, 43.160567651571235], [51.43305128257203, 43.16250222038948], [51.44849089602755, 43.163626832944004], [51.57461579060959, 43.20869352472227], [51.47787895084902, 43.165276222280994], [51.58477096182607, 43.2026835950765], [51.59253800414659, 43.20074393276929], [51.5760398971202, 43.18919024991572], [51.56409253850536, 43.179436463562325], [51.59246770239759, 43.185667016383945], [51.60721239330438, 43.1864914764238], [51.60609448666964, 43.15595313245997], [51.67048326466154, 43.13129957360508], [51.67079459365562, 43.1264088995788], [51.67170612065033, 43.12175575789932], [51.66647189532042, 43.11467020577269], [51.65737477130911, 43.10605432376448], [51.66162977500796, 43.102724974978464], [51.66621405010303, 43.09952602428945], [51.67033082831165, 43.09614199210244], [51.67364287260188, 43.09243939932596], [51.67905271913895, 43.089567339190125], [51.68422748414184, 43.08660217566963], [51.68988278168044, 43.08382716387346], [51.69515274381806, 43.08089958681609], [51.70004819677499, 43.077823774710524], [51.70813384463074, 43.07377052204596], [51.71454855361105, 43.07155878721245], [51.719076630849145, 43.06840020318837], [51.724024843508694, 43.06545249409417], [51.729127645221105, 43.06258237563836], [51.73384585919507, 43.059519321503466], [51.738658868928624, 43.05650386710695], [51.74316331545023, 43.0533336620335], [51.74731259544448, 43.049985358098965], [51.751978265922304, 43.046896145941794], [51.75572431558888, 43.04334573903452], [51.75991176181869, 43.04001680569215], [51.76339954934572, 43.03633705567389], [51.766708580419674, 43.03256775986764], [51.77014994633655, 43.028864937391205], [51.77232538353724, 43.02452735722823], [51.77499595513641, 43.02043820333293], [51.77775229068764, 43.016392174636444], [51.779436439762854, 43.011808540696094], [51.78379775579143, 43.00856765509395], [51.78678800693754, 43.00463927377667], [51.78831923324357, 42.99997930564754], [51.790054833517594, 42.99542192815531], [51.79030541414849, 42.99011982891353], [51.79347160250915, 42.986280167884885], [51.79752454291364, 42.98288536186891], [51.801876799449175, 42.9796407475754], [51.803321228499925, 42.9749379104758], [51.80414068498696, 42.96992170241596], [51.805234400179465, 42.96504311447867], [51.807121693965136, 42.960562662765604], [51.808550112502495, 42.95585213337846], [51.812526342088525, 42.95241972973439], [51.81654970967585, 42.949011054224755], [51.82011912563101, 42.945374777913855], [51.82460321313769, 42.94219734548905], [51.82757218576813, 42.938359228464485], [51.83008405617619, 42.934322757882875], [51.83218973358495, 42.93008267584425], [51.83382349684167, 42.92560600916305], [51.83479416171742, 42.920796840106426], [51.83748195541612, 42.916849035305425], [51.84207083130681, 42.91385484968629], [51.8449531611139, 42.91000482625554], [51.84809012607264, 42.90628261782264], [51.85128843777696, 42.902591279328554], [51.855069170749644, 42.89919213167208], [51.85941103319551, 42.8960744628759], [51.861969729232996, 42.89206266544261], [51.866360320426175, 42.88896959761519], [51.86957689015291, 42.885287901085526], [51.87302879771133, 42.8817243095268], [51.87589457418111, 42.87786692130509], [51.878610281619565, 42.873934393087545], [51.881401512950596, 42.87003984079095], [51.88339837243768, 42.86574708591276], [51.8851006329067, 42.86130671003897], [51.88752174247917, 42.857226891651855], [51.890260096572504, 42.85330625938778], [51.910215796183095, 42.85801660802346], [51.92141682405032, 42.85833653813915], [51.928750082248015, 42.85671801815678], [51.95217568985908, 42.863156670383255], [51.96733823750337, 42.865454228779846], [51.98894155688469, 42.87097014184575], [51.91948975506818, 42.830908880125975], [51.93337198740566, 42.83257389629551], [51.98962943415788, 42.8508376601947], [52.004047582469674, 42.854779886889126], [52.018410065134596, 42.858679802629965]]}, "properties": {"year": 2016, "sensor": "COPERNICUS/S2_SR_HARMONIZED", "scale_m": 30, "n_scenes": 15, "date_window": ["2016-07-01", "2016-08-01"], "otsu_threshold": 0.1333, "data_quality": "good", "length_km": 464.6}}]}