{"type": "FeatureCollection", "crs": {"type": "name", "properties": {"name": "EPSG:4326"}}, "features": [{"type": "Feature", "geometry": {"type": "LineString", "coordinates": [[51.09959, 42.70031], [51.11229, 42.71699], [51.12498, 42.73362], [51.13765, 42.75016], [51.15029, 42.76655], [51.1629, 42.78276], [51.17547, 42.79873], [51.18798, 42.81443], [51.20044, 42.82981], [51.21282, 42.84482], [51.22513, 42.85944], [51.23735, 42.87363], [51.24947, 42.88735], [51.26149, 42.90056], [51.2734, 42.91325], [51.28519, 42.92538], [51.29685, 42.93693], [51.30837, 42.94788], [51.31975, 42.95822], [51.33098, 42.96793], [51.34204, 42.977], [51.35294, 42.98542], [51.36366, 42.9932], [51.3742, 43.00033], [51.38455, 43.00681], [51.3947, 43.01266], [51.40465, 43.01788], [51.41438, 43.02249], [51.4239, 43.02651], [51.43319, 43.02995], [51.44225, 43.03284], [51.45107, 43.03521], [51.45964, 43.03709], [51.46796, 43.0385], [51.47602, 43.03949], [51.48381, 43.04009], [51.49134, 43.04034], [51.49859, 43.04028], [51.50555, 43.03996], [51.51223, 43.03941], [51.51861, 43.03869], [51.5247, 43.03784], [51.53048, 43.03691], [51.53595, 43.03595], [51.54111, 43.035], [51.54595, 43.03411], [51.55047, 43.03333], [51.55466, 43.03271], [51.55852, 43.03229], [51.56204, 43.03211], [51.56522, 43.03222], [51.56804, 43.03265], [51.57051, 43.03344], [51.57263, 43.03461], [51.57443, 43.0362], [51.5759, 43.03826], [51.57705, 43.04084], [51.57788, 43.04396], [51.57837, 43.04766], [51.57853, 43.05196], [51.57833, 43.05688], [51.57779, 43.06242], [51.5769, 43.0686], [51.57566, 43.07542], [51.57407, 43.0829], [51.57213, 43.09102], [51.56984, 43.0998], [51.5672, 43.10922], [51.56422, 43.11927], [51.56089, 43.12995], [51.55721, 43.14123], [51.55319, 43.15311], [51.54883, 43.16554], [51.54413, 43.17853], [51.5391, 43.19202], [51.53373, 43.206], [51.52802, 43.22043], [51.52199, 43.23527], [51.51563, 43.25049], [51.50895, 43.26605], [51.50195, 43.2819], [51.49464, 43.29801], [51.48701, 43.31432], [51.47908, 43.33079], [51.47084, 43.34738], [51.46231, 43.36404], [51.45348, 43.38072], [51.44436, 43.39737], [51.43496, 43.41394], [51.42528, 43.43039], [51.41533, 43.44668], [51.40511, 43.46274], [51.39463, 43.47855], [51.38389, 43.49406], [51.3729, 43.50923], [51.36168, 43.52401], [51.35021, 43.53837], [51.33851, 43.55227], [51.32659, 43.56569], [51.31446, 43.57859], [51.30211, 43.59094], [51.28957, 43.60273], [51.27682, 43.61392], [51.26389, 43.6245], [51.25078, 43.63446], [51.2375, 43.64379], [51.22405, 43.65247], [51.21045, 43.6605], [51.1967, 43.66789], [51.1828, 43.67463], [51.16877, 43.68073], [51.15462, 43.6862], [51.14035, 43.69106], [51.12597, 43.69531], [51.11148, 43.69898], [51.09691, 43.7021], [51.08225, 43.70468], [51.06752, 43.70675], [51.05271, 43.70835], [51.03785, 43.70952], [51.02294, 43.71028], [51.00798, 43.71067], [50.993, 43.71074], [50.97799, 43.71052], [50.96296, 43.71007], [50.94793, 43.70942], [50.93289, 43.70862], [50.91787, 43.70772], [50.90287, 43.70677], [50.8879, 43.7058], [50.87297, 43.70488], [50.85808, 43.70405], [50.84324, 43.70335], [50.82847, 43.70284], [50.81377, 43.70255], [50.79915, 43.70253], [50.78462, 43.70283], [50.77019, 43.70348], [50.75587, 43.70453], [50.74166, 43.706], [50.72757, 43.70794], [50.71361, 43.71038], [50.6998, 43.71335], [50.68613, 43.71687], [50.67261, 43.72097], [50.65927, 43.72566], [50.64609, 43.73097], [50.63309, 43.73691], [50.62029, 43.74349], [50.60767, 43.75071], [50.59526, 43.75858], [50.58306, 43.7671], [50.57108, 43.77627], [50.55932, 43.78607], [50.54779, 43.7965], [50.5365, 43.80755], [50.52545, 43.81919], [50.51466, 43.83141], [50.50412, 43.84418], [50.49384, 43.85748], [50.48383, 43.87127], [50.47409, 43.88552], [50.46463, 43.90021], [50.45546, 43.91529], [50.44657, 43.93072], [50.43798, 43.94647], [50.42968, 43.96249], [50.42169, 43.97873], [50.41401, 43.99516], [50.40663, 44.01172], [50.39958, 44.02836], [50.39284, 44.04505], [50.38642, 44.06173], [50.38033, 44.07836], [50.37457, 44.09488], [50.36913, 44.11126], [50.36404, 44.12744], [50.35928, 44.14338], [50.35486, 44.15904], [50.35078, 44.17438], [50.34704, 44.18934], [50.34365, 44.20391], [50.3406, 44.21803], [50.3379, 44.23168], [50.33555, 44.24483], [50.33355, 44.25744], [50.3319, 44.26949], [50.33059, 44.28096], [50.32964, 44.29184], [50.32904, 44.30209], [50.32878, 44.31172], [50.32888, 44.32071], [50.32932, 44.32905], [50.33012, 44.33676], [50.33126, 44.34381], [50.33274, 44.35023], [50.33458, 44.35602], [50.33676, 44.3612], [50.33929, 44.36576], [50.34217, 44.36974], [50.34539, 44.37314], [50.34894, 44.376], [50.35283, 44.37832], [50.35704, 44.38015], [50.36157, 44.38152], [50.36641, 44.38245], [50.37156, 44.383], [50.37701, 44.38321], [50.38275, 44.38311], [50.38879, 44.38275], [50.39513, 44.38218], [50.40175, 44.38143], [50.40865, 44.38057], [50.41583, 44.37963], [50.42329, 44.37867], [50.43101, 44.37773], [50.439, 44.37685], [50.44724, 44.37609], [50.45573, 44.3755], [50.46447, 44.3751], [50.47345, 44.37497], [50.48266, 44.37512], [50.4921, 44.37562], [50.50176, 44.37648], [50.51164, 44.37777], [50.52171, 44.3795], [50.53199, 44.38171], [50.54247, 44.38444], [50.55312, 44.38771], [50.56396, 44.39154], [50.57497, 44.39597], [50.58614, 44.40099], [50.59747, 44.40664], [50.60894, 44.41292], [50.62056, 44.41985], [50.6323, 44.42742], [50.64417, 44.43564], [50.65615, 44.44451], [50.66825, 44.45402], [50.68043, 44.46416], [50.69271, 44.47492], [50.70507, 44.48629], [50.7175, 44.49824], [50.73, 44.51076], [50.74255, 44.52381], [50.75515, 44.53738], [50.76778, 44.55142], [50.78044, 44.56591], [50.79313, 44.58081], [50.80582, 44.59608], [50.81851, 44.61169], [50.8312, 44.62758], [50.84387, 44.64372], [50.85652, 44.66006], [50.86913, 44.67656], [50.8817, 44.69316], [50.89423, 44.70983], [50.90669, 44.72651], [50.91908, 44.74316], [50.9314, 44.75972], [50.94363, 44.77616], [50.95576, 44.79243], [50.9678, 44.80847], [50.97972, 44.82425], [50.99152, 44.83972], [51.0032, 44.85485], [51.01474, 44.86958], [51.02614, 44.88389], [51.03738, 44.89775], [51.04847, 44.91111], [51.05939, 44.92395], [51.07013, 44.93624], [51.0807, 44.94795], [51.09107, 44.95908], [51.10124, 44.96959], [51.11121, 44.97948], [51.12097, 44.98874], [51.13052, 44.99734], [51.13983, 45.00531], [51.14892, 45.01262], [51.15777, 45.01929], [51.16637, 45.02532], [51.17473, 45.03072], [51.18283, 45.0355], [51.19067, 45.03969], [51.19824, 45.04329], [51.20553, 45.04634], [51.21255, 45.04886], [51.21929, 45.05088], [51.22573, 45.05242], [51.23188, 45.05353], [51.23774, 45.05424], [51.24328, 45.05459], [51.24852, 45.05461], [51.25345, 45.05436], [51.25806, 45.05387], [51.26234, 45.05319], [51.26631, 45.05237], [51.26994, 45.05146], [51.27323, 45.05049]]}, "properties": {"year": 2003, "sensor": "LANDSAT/LT05", "scale_m": 30, "acquisition_date": "2003-07-18", "cloud_pct": 1.7, "wind_ms": 4.1, "otsu_threshold": 0.101, "data_quality": "good", "length_km": 218.4}}]}