{"type": "FeatureCollection", "crs": {"type": "name", "properties": {"name": "EPSG:4326"}}, "features": [{"type": "Feature", "geometry": {"type": "LineString", "coordinates": [[51.09774, 42.70172], [51.11044, 42.7184], [51.12313, 42.73503], [51.1358, 42.75157], [51.14845, 42.76797], [51.16107, 42.78419], [51.17365, 42.80017], [51.18617, 42.81588], [51.19864, 42.83128], [51.21104, 42.84631], [51.22336, 42.86095], [51.23559, 42.87516], [51.24774, 42.8889], [51.25978, 42.90214], [51.27172, 42.91485], [51.28354, 42.92701], [51.29523, 42.9386], [51.30679, 42.94958], [51.31821, 42.95996], [51.32948, 42.96971], [51.34059, 42.97882], [51.35155, 42.98728], [51.36233, 42.9951], [51.37293, 43.00228], [51.38335, 43.0088], [51.39358, 43.0147], [51.40361, 43.01996], [51.41343, 43.02461], [51.42304, 43.02867], [51.43243, 43.03215], [51.44159, 43.03507], [51.45052, 43.03747], [51.45919, 43.03937], [51.46762, 43.0408], [51.47579, 43.0418], [51.48369, 43.04241], [51.49131, 43.04266], [51.49865, 43.04261], [51.5057, 43.04228], [51.51245, 43.04173], [51.5189, 43.041], [51.52504, 43.04014], [51.53087, 43.0392], [51.53637, 43.03823], [51.54153, 43.03728], [51.54636, 43.0364], [51.55085, 43.03563], [51.55497, 43.03501], [51.55871, 43.0346], [51.56207, 43.03444], [51.56501, 43.03454], [51.56752, 43.03492], [51.5696, 43.03558], [51.5713, 43.03651], [51.5727, 43.03776], [51.57388, 43.03941], [51.57486, 43.0416], [51.5756, 43.0444], [51.57606, 43.04785], [51.5762, 43.05195], [51.57601, 43.05671], [51.57548, 43.06214], [51.57461, 43.06822], [51.57338, 43.07497], [51.5718, 43.08238], [51.56987, 43.09046], [51.5676, 43.09919], [51.56497, 43.10857], [51.56199, 43.11859], [51.55867, 43.12924], [51.55501, 43.1405], [51.551, 43.15235], [51.54664, 43.16476], [51.54195, 43.17772], [51.53692, 43.1912], [51.53156, 43.20515], [51.52586, 43.21956], [51.51984, 43.23439], [51.51349, 43.24959], [51.50682, 43.26512], [51.49983, 43.28095], [51.49253, 43.29703], [51.48491, 43.31332], [51.47699, 43.32977], [51.46877, 43.34634], [51.46024, 43.36297], [51.45143, 43.37961], [51.44233, 43.39623], [51.43295, 43.41278], [51.42329, 43.4292], [51.41336, 43.44545], [51.40316, 43.46148], [51.3927, 43.47725], [51.38199, 43.49272], [51.37104, 43.50784], [51.35984, 43.52258], [51.34841, 43.5369], [51.33675, 43.55075], [51.32488, 43.56412], [51.31279, 43.57697], [51.3005, 43.58928], [51.288, 43.60101], [51.27532, 43.61215], [51.26245, 43.62268], [51.24941, 43.63259], [51.2362, 43.64186], [51.22283, 43.65049], [51.20931, 43.65848], [51.19564, 43.66582], [51.18183, 43.67252], [51.16789, 43.67858], [51.15383, 43.68402], [51.13964, 43.68884], [51.12535, 43.69307], [51.11096, 43.69672], [51.09647, 43.69981], [51.08189, 43.70238], [51.06723, 43.70445], [51.0525, 43.70604], [51.0377, 43.7072], [51.02285, 43.70795], [51.00795, 43.70834], [50.99301, 43.70841], [50.97804, 43.7082], [50.96305, 43.70774], [50.94804, 43.7071], [50.93303, 43.7063], [50.91802, 43.7054], [50.90302, 43.70445], [50.88805, 43.70348], [50.8731, 43.70256], [50.8582, 43.70173], [50.84334, 43.70103], [50.82853, 43.70051], [50.8138, 43.70023], [50.79913, 43.70021], [50.78455, 43.70051], [50.77006, 43.70116], [50.75566, 43.70221], [50.74138, 43.70369], [50.72721, 43.70565], [50.71317, 43.7081], [50.69926, 43.71109], [50.6855, 43.71463], [50.67189, 43.71876], [50.65845, 43.72349], [50.64517, 43.72883], [50.63208, 43.73482], [50.61918, 43.74144], [50.60647, 43.74872], [50.59397, 43.75665], [50.58169, 43.76523], [50.56963, 43.77445], [50.55779, 43.78432], [50.5462, 43.79481], [50.53484, 43.80592], [50.52374, 43.81762], [50.51289, 43.8299], [50.5023, 43.84273], [50.49198, 43.85608], [50.48193, 43.86993], [50.47215, 43.88424], [50.46266, 43.89898], [50.45346, 43.91411], [50.44454, 43.92959], [50.43592, 43.94538], [50.42761, 43.96144], [50.41959, 43.97772], [50.41189, 43.99419], [50.4045, 44.01079], [50.39743, 44.02747], [50.39067, 44.0442], [50.38424, 44.06092], [50.37814, 44.07758], [50.37236, 44.09414], [50.36692, 44.11055], [50.36181, 44.12676], [50.35704, 44.14273], [50.35261, 44.15843], [50.34853, 44.17379], [50.34478, 44.1888], [50.34138, 44.2034], [50.33832, 44.21756], [50.33562, 44.23125], [50.33326, 44.24444], [50.33125, 44.2571], [50.32959, 44.2692], [50.32828, 44.28073], [50.32732, 44.29166], [50.32671, 44.30199], [50.32646, 44.3117], [50.32655, 44.32078], [50.327, 44.32923], [50.32781, 44.33706], [50.32897, 44.34426], [50.3305, 44.35085], [50.3324, 44.35683], [50.33467, 44.36221], [50.33733, 44.36701], [50.34038, 44.37122], [50.34381, 44.37485], [50.34762, 44.37791], [50.35177, 44.38039], [50.35625, 44.38234], [50.36102, 44.38377], [50.36607, 44.38475], [50.3714, 44.38532], [50.37699, 44.38553], [50.38285, 44.38543], [50.38897, 44.38507], [50.39536, 44.38449], [50.40202, 44.38374], [50.40895, 44.38288], [50.41613, 44.38194], [50.42358, 44.38098], [50.43128, 44.38004], [50.43923, 44.37917], [50.44743, 44.37841], [50.45587, 44.37782], [50.46454, 44.37743], [50.47345, 44.37729], [50.48259, 44.37745], [50.49194, 44.37793], [50.50151, 44.3788], [50.51129, 44.38007], [50.52127, 44.38178], [50.53146, 44.38398], [50.54183, 44.38668], [50.5524, 44.38992], [50.56314, 44.39372], [50.57406, 44.3981], [50.58514, 44.40309], [50.59639, 44.4087], [50.60779, 44.41494], [50.61933, 44.42182], [50.63101, 44.42935], [50.64282, 44.43753], [50.65474, 44.44636], [50.66678, 44.45583], [50.67892, 44.46593], [50.69116, 44.47665], [50.70348, 44.48798], [50.71588, 44.4999], [50.72834, 44.51239], [50.74086, 44.52541], [50.75343, 44.53895], [50.76604, 44.55296], [50.77868, 44.56743], [50.79135, 44.58231], [50.80402, 44.59756], [50.8167, 44.61314], [50.82938, 44.62902], [50.84204, 44.64515], [50.85468, 44.66148], [50.86728, 44.67796], [50.87985, 44.69456], [50.89236, 44.71122], [50.90482, 44.7279], [50.91721, 44.74454], [50.92953, 44.76111], [50.94176, 44.77755], [50.9539, 44.79382], [50.96594, 44.80987], [50.97787, 44.82565], [50.98968, 44.84114], [51.00136, 44.85627], [51.01292, 44.87102], [51.02433, 44.88535], [51.03559, 44.89922], [51.04669, 44.9126], [51.05763, 44.92546], [51.06839, 44.93778], [51.07898, 44.94953], [51.08938, 44.96068], [51.09959, 44.97123], [51.10959, 44.98115], [51.11939, 44.99044], [51.12898, 44.99909], [51.13835, 45.0071], [51.14749, 45.01445], [51.1564, 45.02117], [51.16507, 45.02725], [51.17351, 45.0327], [51.18169, 45.03753], [51.18962, 45.04176], [51.19729, 45.04542], [51.20469, 45.04851], [51.21182, 45.05107], [51.21868, 45.05312], [51.22525, 45.0547], [51.23154, 45.05583], [51.23752, 45.05656], [51.24321, 45.05691], [51.24858, 45.05694], [51.25363, 45.05668], [51.25836, 45.05618], [51.26276, 45.05548], [51.26683, 45.05464], [51.27055, 45.0537], [51.27392, 45.05271]]}, "properties": {"year": 2022, "sensor": "COPERNICUS/S2_SR_HARMONIZED", "scale_m": 10, "acquisition_date": "2022-07-22", "cloud_pct": 8.3, "wind_ms": 7.1, "otsu_threshold": 0.128, "data_quality": "good", "length_km": 218.4}}]}