{"type": "FeatureCollection", "crs": {"type": "name", "properties": {"name": "EPSG:4326"}}, "features": [{"type": "Feature", "geometry": {"type": "LineString", "coordinates": [[50.275491417124805, 44.55759282529211], [50.27180266109779, 44.55000510861723], [50.25812570215606, 44.537080250928724], [50.266686677975, 44.53603609514426], [50.24324931751482, 44.517889787385286], [50.257721375791995, 44.52000809434038], [50.24304885085781, 44.5065436931114], [50.2427758427676, 44.500778208931116], [50.24176054919113, 44.4889960715748], [50.241421249857744, 44.48319499711153], [50.240825194682444, 44.477256481700785], [50.24199859707681, 44.4722649060874], [50.241533481383925, 44.466396446788984], [50.24329359809905, 44.46171905494522], [50.243936887094726, 44.45644395966473], [50.243568323347176, 44.45062722944882], [50.244426866085014, 44.44546745216221], [50.245357721704046, 44.44034646496857], [50.246916437531354, 44.43556174340761], [50.2465839104517, 44.429764401220424], [50.243971307606955, 44.42274585708823], [50.243463057580136, 44.41685418231211], [50.2463462541151, 44.41277921612994], [50.247988631184846, 44.40803971977026], [50.24591291796756, 44.401308428970104], [50.32225342896346, 44.32984591736444], [50.32913319663808, 44.32791357564205], [50.33434152585563, 44.32508644111298], [50.3383539549023, 44.32161926527069], [50.3460144501275, 44.32010453740523], [50.35387766049422, 44.31869796276806], [50.36010555747692, 44.31641620832452], [50.36694030243037, 44.314458975890645], [50.3745257441813, 44.312903060861935], [50.37988945936375, 44.310158792119594], [50.383880097417105, 44.3066803074784], [50.3906455612631, 44.30468561604271], [50.39595850814831, 44.301914235668164], [50.4041359056746, 44.30067405778144], [50.41160798853369, 44.29905653304735], [50.419536258681354, 44.2976824943909], [50.42984385635038, 44.297579187115524], [50.44072680607165, 44.29778223383756], [50.45047506663419, 44.297378375526705], [50.4601769219975, 44.29694898087281], [50.46924677940974, 44.29618155358736], [50.479053969899745, 44.29580693446576], [50.487568949789065, 44.2947422321186], [50.50066284106021, 44.293711909595], [50.51231795609601, 44.2946696431015], [50.520301402308874, 44.29350703412999], [50.5293994822788, 44.29298721605397], [50.53781500006443, 44.29207296785385], [50.54806859628902, 44.29221824488686], [50.557033019069884, 44.29161921016351], [50.565531002078885, 44.29075066563655], [50.57303750975548, 44.289310131848225], [50.58206675082459, 44.28874688208329], [50.59179292196709, 44.2885845613516], [50.87155344738016, 44.05792495482558], [50.86996730860186, 44.05125414434802], [50.86939553633064, 44.04516794917371], [50.868900898106325, 44.03912615533894], [50.86872317449743, 44.03326705573835], [50.87144341592983, 44.02907922257102], [50.87325580395497, 44.02436798842327], [50.877727812825995, 44.02119068214065], [50.88249565311328, 44.018184060452036], [50.88736048170628, 44.015233438086256], [50.89327848850529, 44.01289008275346], [50.901162110938195, 44.01167976058815], [50.91183642307977, 44.012077347297975], [50.91848043362691, 44.01015178123528], [50.99472055282123, 43.93328021055055], [50.99621921869143, 43.92839356648375], [50.997000601060826, 43.92309394803719], [50.99801466722394, 43.91792841504453], [50.99826878084567, 43.91232523832975], [50.99894847649592, 43.9069672404856], [51.00001761330958, 43.90183365563566], [51.00191141355114, 43.897175258212776], [51.0032459631591, 43.89219479749697], [51.00463092363403, 43.8872434896732], [51.00596307768295, 43.882261866523095], [51.00480659980719, 43.87584629567496], [51.005511578144436, 43.87050337192297], [51.00835594694659, 43.866393506211296], [51.0117946587654, 43.86262631311679], [51.01090169175003, 43.85636280108334], [51.012107093237105, 43.851308714747596], [51.01657043694245, 43.84813261102699], [51.01786082898872, 43.84312781758198], [51.007461080128685, 43.8313832268094], [51.00906802264084, 43.82656084167051], [51.00879343128405, 43.82071171896178], [51.020214761605516, 43.82871843975293], [51.01054023810281, 43.81910671553578], [51.01817412106038, 43.81726571424164], [51.019709798715006, 43.81268680756207], [51.024776770306886, 43.80969337708825], [51.025153648999414, 43.8045944423108], [51.02921586493174, 43.80115012896884], [51.03206148449456, 43.79715971737309], [51.03612596970976, 43.79371657720599], [51.03909755700034, 43.7897829010738], [51.042894907928975, 43.78621999973563], [51.04679322575964, 43.78270249335821], [51.05076292219951, 43.77921709514936], [51.05430855160371, 43.77554143173112], [51.05831008452963, 43.77207046552215], [51.062010106611865, 43.768464250762776], [51.06373448409925, 43.763971468781946], [51.0698799012946, 43.76146285537224], [51.06617705663955, 43.754534551684365], [51.07274807158096, 43.75221728494789], [51.077360567996436, 43.74902100979603], [51.078103261150545, 43.74408819492501], [51.05504109910938, 43.728467227935475], [51.05564816164358, 43.72347290355864], [51.02817939876459, 43.70585978709939], [51.02807538550724, 43.70054490675977], [51.04609975349102, 43.70338081125986], [51.05665626800809, 43.70285785436218], [51.05847728898176, 43.69840919344991], [51.055201607609376, 43.69167009356175], [51.04309995788452, 43.68096229888693], [51.05734199068973, 43.68209811865414], [51.04809323305533, 43.67267279662148], [51.02416290210441, 43.65663899590395], [51.04776585311403, 43.66199084463546], [51.04509424017126, 43.65552170392046], [51.584395383975384, 43.20253479991462], [51.59288544848161, 43.200881554323374], [51.59680307116562, 43.19741698970595], [51.58751720403135, 43.1837054563018], [51.60843315478691, 43.18697492203269], [51.67269101136625, 43.13217310319059], [51.67361329091729, 43.127524231193526], [51.67151144682166, 43.12167871921256], [51.66980688496539, 43.11599024069434], [51.65753586231666, 43.106118115151325], [51.661360577372506, 43.102618379968874], [51.66639026824993, 43.099595796009766], [51.670652984876135, 43.09626953855484], [51.67424175847497, 43.09267649812634], [51.680011575166695, 43.08994690746267], [51.684773384249745, 43.08681825358775], [51.690375708367284, 43.084022251693135], [51.6958261850839, 43.08116608991778], [51.70008819154896, 43.07783960075735], [51.70843181656315, 43.07392007893292], [51.71469044701266, 43.07162999693287], [51.71929352186619, 43.068509043759796], [51.72419713859081, 43.065538948867975], [51.72944689635252, 43.06274255689533], [51.73369181032924, 43.05944203366375], [51.73875616210861, 43.05655267631108], [51.743226149625, 43.05336518220507], [51.747381508869694, 43.05001992613985], [51.75210190315101, 43.046958160047666], [51.75604657460874, 43.043507371691454], [51.75995330997629, 43.04003764367273], [51.76367011084189, 43.03647274829909], [51.766790657866196, 43.03260892279024], [51.77005976557421, 43.02881971158598], [51.77237097816328, 43.02455022334996], [51.77505978472101, 43.02047021445357], [51.778064333314184, 43.016548665803256], [51.77979202506348, 43.01198687466503], [51.78356779560813, 43.00845233036701], [51.78730362688731, 43.00489785049711], [51.78866261979101, 43.00015151677201], [51.79014396662639, 42.995466630755054], [51.790376309476315, 42.9901553877304], [51.79428788598556, 42.98668957748005], [51.79806129143119, 42.98315455852997], [51.80105347150551, 42.9792278360278], [51.80327971010246, 42.97491708776818], [51.80399892564481, 42.969850601291334], [51.80551283723796, 42.96518277449695], [51.807623864931756, 42.96081455030202], [51.80901580495757, 42.95608573345585], [51.81277740454395, 42.95254566228694], [51.81667220085493, 42.94907249294691], [51.820715368255314, 42.94567382787938], [51.82461940954573, 42.94220546850131], [51.82760255285524, 42.93837445834264], [51.830033446714644, 42.9342973758081], [51.83216847871859, 42.93007201574959], [51.834038057322005, 42.92571362225951], [51.835247541382245, 42.9210242450443], [51.83821158362904, 42.917214997606756], [51.84231673532571, 42.913978181415956], [51.844869172770125, 42.90996270253826], [51.847919119879386, 42.90619685235772], [51.8517022806097, 42.90279882951437], [51.85584321155307, 42.899580310370574], [51.85943733987943, 42.89608765497796], [51.86264861707411, 42.89240310650109], [51.866617301445515, 42.889098458729755], [51.869843979378125, 42.885421828119576], [51.87318054817273, 42.88180040002141], [51.87619401679845, 42.87801706572533], [51.878820691676864, 42.87403989521929], [51.88185569760467, 42.87026757212267], [51.883679566957305, 42.865888082154754], [51.88579245445204, 42.86165361072851], [51.88812554027809, 42.85752965694165], [51.89048056890147, 42.85341681215792], [51.910426204553865, 42.85812205235897], [51.91245203174528, 42.85384451924619], [51.93132593497217, 42.85800825036358], [51.9540762518303, 42.864107991820404], [51.96773500462442, 42.86565275008749], [51.91333225766502, 42.83311482491243], [51.92040894752167, 42.831369620035105], [51.93372595882475, 42.832751256360545], [51.990164111309134, 42.85121451046765], [52.00450547525139, 42.85510248668933]]}, "properties": {"year": 2007, "data_quality": "good", "length_km": 296.8, "spatial_outliers_removed": 3}}]}