{"type": "FeatureCollection", "crs": {"type": "name", "properties": {"name": "EPSG:4326"}}, "features": [{"type": "Feature", "geometry": {"type": "MultiLineString", "coordinates": [[[51.5889477733652, 43.192660499463216], [51.583970583192404, 43.18336522239798], [51.595803459190186, 43.185119392830316], [51.607134307782495, 43.1865420706209], [51.61756638613308, 43.187372961254916]], [[51.66114499321873, 43.17970647433388], [51.663743443978085, 43.17694459896645], [51.66589586596417, 43.17405278300578], [51.66611754292157, 43.170598453671474], [51.66615061308231, 43.16708917200035], [51.6655756778294, 43.163402713798746], [51.6683708420959, 43.16052720678203], [51.66894489180276, 43.157145413576835], [51.668732611502676, 43.153808858895324], [51.66906269721298, 43.151086561553825], [51.66959858102318, 43.14684812452001], [51.669556044383135, 43.14221680217899], [51.67181234246366, 43.13826940636579], [51.67277547022009, 43.13393732735483], [51.68429544824607, 43.132745539231415], [51.67351455451846, 43.12492002200899], [51.670946720036724, 43.12000880220691], [51.664854057402486, 43.11364238314767], [51.66559947356273, 43.10001332320747], [51.66956271137554, 43.09671240986451], [51.673364894692426, 43.09350567817271], [51.67817544641359, 43.090588930231235], [51.68255894146746, 43.087549312683635], [51.68748524346619, 43.084665721572286], [51.69256298497684, 43.083109346553485], [51.697164709625085, 43.080132495351016], [51.70197410304604, 43.07721019694272], [51.70638763149947, 43.0741837154155], [51.71404600731213, 43.07201034933395], [51.718403072066714, 43.06896881806962], [51.72358052674031, 43.06614287471488], [51.728365600111864, 43.063213703420914], [51.73281959420609, 43.0601974533662], [51.73762919570088, 43.057274581474935], [51.76156859566642, 43.03855246452496], [51.765353767271094, 43.03478559916715], [51.7683006562886, 43.03051887147598], [51.77126750261073, 43.026534595413324], [51.774006535082165, 43.022330978637385], [51.77704768963897, 43.01841892457443], [51.77886292106027, 43.013325255662714], [51.78246220153118, 43.00995187945582], [51.785702131396064, 43.00623233368415], [51.790366660011664, 42.9899176878574], [51.793331237510884, 42.98740696654963], [51.797290368121075, 42.98365154222266], [51.801650655235655, 42.98022270300733], [51.80299311168857, 42.976339686539326], [51.80381210652218, 42.97201982415478], [51.804168930592255, 42.967043146891186], [51.806051354517855, 42.96415301849786], [51.807589600405734, 42.956999635305046], [51.81177291683697, 42.95360693672293], [51.83108019863239, 42.9320120605582], [51.83271810859342, 42.929225762744466], [51.834103472830336, 42.92543895951575], [51.835303950885745, 42.9209199286858], [51.836901846892836, 42.91797685725862], [51.838773240166866, 42.91611834765168], [51.84091654280315, 42.9146191846313], [51.844268021648126, 42.910877022423655], [51.8475149552646, 42.90672218630024], [51.85097982711188, 42.90343224765945]], [[51.860281830877994, 42.89514521695689], [51.86431899854426, 42.89144189018895], [51.86802626731748, 42.887362112602865], [51.85838624679703, 42.89731845192907], [51.86093558868458, 42.89323034810318], [51.86548845557953, 42.89037706555488], [51.868653681678836, 42.886668791755945], [51.872111355700376, 42.88314087250309], [51.874905106567454, 42.87920398457587], [51.87814240584669, 42.875540559792604], [51.88071396253322, 42.87146705518132], [51.882950174638964, 42.86718705836676], [51.884947740376276, 42.8627601462733], [51.90271010196523, 42.85374640042997], [51.898696784441945, 42.84352048426805], [51.90214892366183, 42.8396225616591], [51.90632417136446, 42.83633785623504], [51.9112883120966, 42.83372204316624], [51.91676865132542, 42.831543861388646], [51.924428353517364, 42.83121252739199], [51.929726702370004, 42.8319457560966], [51.93482644846948, 42.832978151955714], [51.9404423670159, 42.83444737406056], [51.951783899316986, 42.838156678442424], [51.96236951424284, 42.84195723572274], [51.976160752856664, 42.8473458172238], [51.9878134084698, 42.8508372864572], [51.998525388275276, 42.85349384770887], [52.01010921313252, 42.85692000645148], [52.02033164510963, 42.85913969606314], [52.031267159046706, 42.86198838765187], [52.04230153402229, 42.86492254053236], [52.02981703004536, 42.86162764856485], [52.052273363553255, 42.867430204310466], [52.07051670442332, 42.87142339079616]]]}, "properties": {"year": 2006, "data_quality": "good", "length_km": 70.6, "spatial_outliers_removed": 8, "n_segments": 3}}]}