{"type": "FeatureCollection", "crs": {"type": "name", "properties": {"name": "EPSG:4326"}}, "features": [{"type": "Feature", "geometry": {"type": "LineString", "coordinates": [[50.275013240674674, 44.55733750036617], [50.268825205041665, 44.54841485637196], [50.24015669761243, 44.5274751005805], [50.26172777136663, 44.533386490266814], [50.24013318394754, 44.516223343133106], [50.24147475058078, 44.5113212810254], [50.242297158115186, 44.50614164040696], [50.24232446814148, 44.50053676131151], [50.24211804177678, 44.49480684071696], [50.241300203180025, 44.48874976949737], [50.24117145896302, 44.48306133599294], [50.24132875533862, 44.477525960651114], [50.241809273440104, 44.47216358338739], [50.24240549653167, 44.466863177332336], [50.242965358022964, 44.46154336065454], [50.243867418600324, 44.456406773311826], [50.24400724097595, 44.450862204459966], [50.24321693695773, 44.444819654605865], [50.245416100424904, 44.440377722285916], [50.24712276264978, 44.435672218904756], [50.2454306338332, 44.42914680626811], [50.243499394183004, 44.42249309738169], [50.24301936430429, 44.416616510895686], [50.24293176354092, 44.41095010431399], [50.24433092547007, 44.40608023686008], [50.24473505746616, 44.400677354995295], [50.31564465420774, 44.33192318324652], [50.32177387275942, 44.32958917357208], [50.32858928109277, 44.32762241645512], [50.33414245813559, 44.32497988940349], [50.337888469360394, 44.32137012220111], [50.345409192003856, 44.319780637581474], [50.35303709693686, 44.31824821833801], [50.35985619768739, 44.3162828054741], [50.36640838746234, 44.31417444999078], [50.37373437508334, 44.312479819426834], [50.37905585499327, 44.30971300223422], [50.38096913756664, 44.305123613042916], [50.390458525915285, 44.30458561367204], [50.39570510507736, 44.30177876023143], [50.403946848611696, 44.300573002314536], [50.411402833089525, 44.298946890444654], [50.41887953035085, 44.29733157460387], [50.428045499723005, 44.29661847496507], [50.44015645670258, 44.29747763556885], [50.44933126190806, 44.296767661591566], [50.459992810171485, 44.296850702870145], [50.46869742554641, 44.29588837321143], [50.47880543129513, 44.295674326803656], [50.48609475228559, 44.29395581444181], [50.49994188687792, 44.29329561059721], [50.5122065739041, 44.294605348356974], [50.51986366533497, 44.29325439686772], [50.527038682613345, 44.291624946652526], [50.53588791755684, 44.290961194168034], [50.54712449262419, 44.291673722035235], [50.55637619806848, 44.29124046377537], [50.564863383512744, 44.29036576892103], [50.572185106810764, 44.28881878141418], [50.58129542072303, 44.28830236105603], [50.59170492877514, 44.28853386325315], [50.62613762962389, 44.250714553743016], [50.63327788011901, 44.24906283614585], [50.63980289582886, 44.24705660531411], [50.64269713370972, 44.24295952186098], [50.650039304152834, 44.2414238285653], [50.65346135457831, 44.23763094819023], [50.66002156997686, 44.23564493814527], [50.664079948065265, 44.23221863267553], [50.66814371960923, 44.228795555497626], [50.66863170026803, 44.223314177590794], [50.673915312738366, 44.220593642670075], [50.67828655679587, 44.217347979448164], [50.68119816427246, 44.21326226355894], [50.68776060983202, 44.211278016597994], [50.692169497955696, 44.20805431252741], [50.69704604639534, 44.20509983437731], [50.70043951525442, 44.20129201005985], [50.703465092415854, 44.19727263298447], [50.70517101377159, 44.192494007575334], [50.71276720979309, 44.19110495681077], [50.71408425600259, 44.18610296278798], [50.711231897438736, 44.17870169664288], [50.725376977307135, 44.181081262638365], [50.7087448277639, 44.16575013206343], [50.713985308345656, 44.16300689154995], [50.72700226390884, 44.164739067706755], [50.725200359875515, 44.15794300604011], [50.73638082464559, 44.15861776051985], [50.733381440804166, 44.15113325723491], [50.74762733171059, 44.15357133573914], [50.74156356980585, 44.14432459602275], [50.755606917472065, 44.14664589843402], [50.7497281895438, 44.13750634471446], [50.75096570028452, 44.13246059639217], [50.75706172592669, 44.1302104384188], [50.75721541565189, 44.12454144979825], [50.7823469443845, 44.13323941087212], [50.78667159685226, 44.12996986590808], [50.77781170237839, 44.119119188380445], [50.78134837542092, 44.11539707435936], [50.78882547588542, 44.113941135991084], [50.80218945877431, 44.11586917998979], [50.80535223487605, 44.111932375222246], [50.810877520824896, 44.10935365847974], [50.81457271252897, 44.10572314453519], [50.81159442436865, 44.098256893738665], [50.812635407051495, 44.09310094931912], [50.8261502254438, 44.095111635984814], [50.82956319651771, 44.09131815196306], [50.83367507592836, 44.08792784529666], [50.83882428614348, 44.0851357984905], [50.83728325057975, 44.07848604001684], [50.84816927998721, 44.07900217013715], [50.83290252917066, 44.06443668259592], [50.8455119052341, 44.06594861066723], [50.85742948274475, 44.06705994914798], [50.86443661504096, 44.06533950045593], [50.860937042649134, 44.05756225444749], [50.87129013033834, 44.057773178172134], [50.869854194059606, 44.05118893504599], [50.868025649603, 44.04437811452709], [50.868330574424604, 44.038797291062934], [50.86873389751921, 44.033273239505405], [50.871063254192734, 44.02885998817815], [50.87273530752196, 44.02406781367247], [50.87734377942569, 44.02096922003195], [50.88188744163656, 44.017833343030205], [50.88696085568548, 44.015003016017246], [50.89141485936634, 44.01181561316049], [50.9003511055126, 44.01121226852954], [50.91003389916124, 44.011038574047625], [50.917736580737696, 44.009723172302095], [50.83158788858126, 43.95425070640534], [50.82879167706518, 43.94687554134272], [50.82567899473388, 43.939316913787515], [50.81701118239015, 43.92854470876905], [50.81754588632706, 43.92309443943727], [50.81075064753034, 43.913403046690604], [50.8083934700819, 43.90627884716226], [50.811398278152254, 43.896498047289356], [50.99460265362338, 43.933212317921786], [50.996074046859334, 43.92830996497924], [50.99693922461886, 43.92305860015965], [50.99773118887626, 43.91776514360566], [50.99803500552097, 43.912190581911844], [50.998200461367475, 43.90653634229866], [50.999307636756775, 43.90142464539039], [51.00153453371078, 43.896958135938114], [51.00277465354406, 43.89192325946364], [51.00420443736304, 43.88699776401189], [51.00544023117717, 43.88196060573781], [51.006753702310455, 43.87696830956976], [51.00774764698894, 43.871791989460675], [51.00929919213733, 43.866937097728034], [51.01165546513445, 43.86254609616804], [51.012436566063585, 43.857247433016674], [51.01416059039977, 43.85249231240608], [51.016395262618964, 43.848031645675576], [51.01729252824361, 43.842800246246576], [51.0177177170149, 43.83729679501437], [51.019151777888375, 43.83237499206606], [51.02200888760283, 43.82833195585564], [51.02119147240401, 43.82915681885901], [51.023456547803406, 43.824905227210245], [51.02455127966311, 43.82012843120119], [51.024530874231175, 43.8148511320045], [51.025462597465285, 43.81000126079062], [51.028082752902655, 43.805909433708095], [51.03049122169697, 43.801722674293025], [51.03215551979632, 43.79720193306021], [51.03593050877776, 43.79362883214453], [51.03891266953092, 43.78969990374417], [51.042321247990394, 43.78596248879019], [51.04653862484844, 43.78258821109557], [51.05037733465612, 43.77904402511401], [51.05339162827674, 43.77512988298395], [51.057710085548656, 43.77180117879481], [51.06176293130991, 43.76835332052701], [51.06590931999878, 43.76494750492349], [51.06942571728969, 43.761259039805346], [51.07177142212927, 43.757045311109444], [51.07298780792395, 43.75232487405614], [51.075979222478274, 43.748401114562], [51.07803462089175, 43.744057390545436], [51.08052582846042, 43.739909344392075], [51.0818362102298, 43.73523144997246], [51.082101148508286, 43.730084402818676], [51.08833102040723, 43.727614591446525], [51.090258129143066, 43.723213774561486], [51.095819730065855, 43.72044410743919], [51.099402422065, 43.716786436665835], [51.10208420987658, 43.71272459373375], [51.10439934657392, 43.70849832118299], [51.1075490876879, 43.70464665514039], [51.109584882529504, 43.700295229572276], [51.11292278697435, 43.69652818977106], [51.114952642677494, 43.69217429513641], [51.115984933799645, 43.687372843387294], [51.11775555666073, 43.68289504014579], [51.120857922726216, 43.67899432541252], [51.122576595826395, 43.674472762213256], [51.12648325304537, 43.6709331748428], [51.12997164548096, 43.66720597023741], [51.13164604503103, 43.662664851461756], [51.134147262279534, 43.658494856548295], [51.13712072558012, 43.65453687813051], [51.14026679435569, 43.65065644938492], [51.14427846229322, 43.64716452404133], [51.147897283821045, 43.643496397516095], [51.15130893445759, 43.63973539841302], [51.19356256508927, 43.65339005713622], [51.204141859054715, 43.65283984751446], [51.16197162582791, 43.62864482532632], [51.17619838127602, 43.62973519257258], [51.19246188502018, 43.631743784861165], [51.1911823217925, 43.62588926724206], [51.19796354004258, 43.62364829105178], [51.20538454665512, 43.6216938736288], [51.210196408925036, 43.61857000372163], [51.22796220203369, 43.62124947481513], [51.234938816066446, 43.61909467267573], [51.21889543697058, 43.60662812129194], [51.23271928302188, 43.60754201122487], [51.220648605662255, 43.596854095295534], [51.227017355471325, 43.59442849203508], [51.23241224766094, 43.591566417490654], [51.23966789771479, 43.58953795425662], [51.244105281796706, 43.58624682346084], [51.24921285546799, 43.58325593584776], [51.2634040829524, 43.58433286953056], [51.26577808207848, 43.58047997278843], [51.26816040625131, 43.576308444357224], [51.27574614768981, 43.5740865754292], [51.27502545028141, 43.56875260917539], [51.278230026533414, 43.56488937157984], [51.28277704864879, 43.56152914348364], [51.28765376979318, 43.55829243182587], [51.28455609731221, 43.55206827820398], [51.2904873711954, 43.54922688672952], [51.288639944259764, 43.54347119836514], [51.28297271077188, 43.536283780578614], [51.28478882658463, 43.53190074501238], [51.29234968865942, 43.52967076416763], [51.29834771645022, 43.52685493485183], [51.29707887367108, 43.521316189901775], [51.3012563711921, 43.517818349836425], [51.29235651051117, 43.50941944983063], [51.30344043844722, 43.508510467902816], [51.30364083532228, 43.503522440188455], [51.29532333687263, 43.4953413735736], [51.29527038031786, 43.490258115091244], [51.30776260031584, 43.4898780537762], [51.316145363945616, 43.48795683915181], [51.31687571995865, 43.48316779711242], [51.320952699930125, 43.47963296498156], [51.328360575354345, 43.47734622099188], [51.345166900236144, 43.47857928433172], [51.34526482166161, 43.47355410898593], [51.34583109186336, 43.46870434634957], [51.34596852430301, 43.463693985865675], [51.331446359937054, 43.453190846926816], [51.33008266550603, 43.44761738850002], [51.3336608861556, 43.44389630988356], [51.33570905681666, 43.439601796550406], [51.33707899203696, 43.43505312625822], [51.338850850118064, 43.430655173473475], [51.33927003890927, 43.425750218763675], [51.34032961125012, 43.42108535981123], [51.340634379880875, 43.41613756158669], [51.341086282997196, 43.41124494353461], [51.34050793060813, 43.40596602344836], [51.339983491967345, 43.40070727541489], [51.33918133460676, 43.39534432239648], [51.33864612827724, 43.39008143925888], [51.315815181502266, 43.37645105836662], [51.31541167340429, 43.37123666725181], [51.32678285644116, 43.370442922067106], [51.31449624162116, 43.36076706887009], [51.32805909762036, 43.36079694957302], [51.32705554343252, 43.3553576559147], [51.313397402244185, 43.345165439853304], [51.31232851217333, 43.339700858856304], [51.31130478453058, 43.33425315917925], [51.310124418350114, 43.3287465090998], [51.30906379388908, 43.32328476505395], [51.30748364123456, 43.317627640937154], [51.305606676547335, 43.31185878742352], [51.30389450315036, 43.3061517262827], [51.30209606036111, 43.300412067684434], [51.30020699141534, 43.294638158434886], [51.29852430749076, 43.28894171491792], [51.2971772448552, 43.28337139424712], [51.29510401187817, 43.27752770715361], [51.293185648469496, 43.271742110711436], [51.4950564128863, 43.28755350187445], [51.48032402144338, 43.261628940349794], [51.470470658056364, 43.23763559171394], [51.51391930829803, 43.24986282532722], [51.53519740642215, 43.25328168715222], [51.53931114779061, 43.24989420893231], [51.543438510677774, 43.24651216266612], [51.54718751363996, 43.24298019425476], [51.54700569646076, 43.23789033724584], [51.519035560726245, 43.2217797176797], [51.4150796383672, 43.160366646804626], [51.430294727500424, 43.16140462195106], [51.44588747447038, 43.16259068632858], [51.465699351353756, 43.16545275319319], [51.47735793112632, 43.165069046119314], [51.50924928082914, 43.1727240879624], [51.52476306276041, 43.17386630483978], [51.57401106148563, 43.18838606664888], [51.56399842158223, 43.179399140244335], [51.59211493513892, 43.18552724900182], [51.60647540030401, 43.18619960261293], [51.46636191109267, 43.11048996081884], [51.52072328237131, 43.12709327071823], [51.51695048251599, 43.12057492701289], [51.51125126468406, 43.11329020782688], [51.50877433346909, 43.107286123132326], [51.53159723780301, 43.11133998135457], [51.53037042515695, 43.105833952144465], [51.568604685553325, 43.116002110740105], [51.5648156271981, 43.109480638816244], [51.56680465351954, 43.105252988713346], [51.57561998753471, 43.10373534340392], [51.57832445027471, 43.099791857738104], [51.6704237721066, 43.13127603350418], [51.67043874847663, 43.12626808717151], [51.67153632178382, 43.12168856306345], [51.666561648363626, 43.1147057332937], [51.65716394800976, 43.10597083804544], [51.66147733767867, 43.1026646140277], [51.66611242754887, 43.09948578771227], [51.67017191264359, 43.096079074554275], [51.673395320035695, 43.092341391854546], [51.6789575908851, 43.08952968146554], [51.68399831533225, 43.086511464945325], [51.68971955444963, 43.083762561950174], [51.69501654291908, 43.08084568682407], [51.69973580586606, 43.07770015996539], [51.707460879320564, 43.07343274440081], [51.714293146313004, 43.07143060926419], [51.71888609170809, 43.068304585892264], [51.723907277729566, 43.06539350127332], [51.72896345956976, 43.062499996352905], [51.733769848193354, 43.05948118608265], [51.73859603383159, 43.05647234445118], [51.74274678729988, 43.0531247129104], [51.74721530603426, 43.04993655608688], [51.75157999358566, 43.04669637826543], [51.75560169546107, 43.04328423705736], [51.75980637149579, 43.03996394830655], [51.763265789044716, 43.036269971438536], [51.76648565457312, 43.03245595903428], [51.76987028507626, 43.02872468634351], [51.77175292054536, 43.024240258790535], [51.77498784979706, 43.02043413842613], [51.77760944053135, 43.0163205339102], [51.77934931661143, 43.01176484616151], [51.78348270042709, 43.00840965501823], [51.78668771986417, 43.00458898058337], [51.788221991382485, 42.99993053770458], [51.78990188950574, 42.99534522239303], [51.78973521611479, 42.98983383280045], [51.79321031305554, 42.986149114923705], [51.797416181042934, 42.98283101430696], [51.80185553253768, 42.979630082039485], [51.803115662073175, 42.97483481252922], [51.80405866704222, 42.96988056535855], [51.80490230234634, 42.96487653726236], [51.80692933116749, 42.96046617299294], [51.80850455582026, 42.955829281093166], [51.81237044091554, 42.952341529398815], [51.81644847747954, 42.94896027832037], [51.82009381834626, 42.94536208472126], [51.824478703392515, 42.94213489975421], [51.827531696341836, 42.93833892194746], [51.83001725169569, 42.93428925353934], [51.832132041821836, 42.9300537412922], [51.833595780164195, 42.92549179670128], [51.8346120011799, 42.92070547153486], [51.837261348301006, 42.91673838280115], [51.84184415521593, 42.913741160700596], [51.84495012538864, 42.91000330371264], [51.84805066306307, 42.90626282581543], [51.851094165322195, 42.902493846929616], [51.85496191879956, 42.899138344398175], [51.8592896178759, 42.896013576171], [51.86170768658536, 42.89193125713841], [51.866271287880465, 42.88892495268215], [51.86955362107034, 42.88527623316984], [51.87289121094719, 42.88165532063407], [51.875817690499034, 42.87782837058161], [51.878618374300885, 42.87393845086916], [51.88131047411026, 42.8699941928638], [51.88337308522318, 42.86573440636], [51.8852078445127, 42.86136046978224], [51.88702515606022, 42.8569778812448], [51.88983230158008, 42.85309174520632], [51.89303249136663, 42.849402803517314], [51.91240651308032, 42.85382170756964], [51.927749514664356, 42.85621680828303], [51.90299583024026, 42.83851848116637], [51.9285340899805, 42.846025767626394], [51.91229579426393, 42.83259522397852], [51.91926122307999, 42.83079432755835], [51.93326276234586, 42.832519167820934], [51.98940054129775, 42.850676330113416], [52.003969794208025, 42.85472508210123], [52.01835613159574, 42.85864181987012], [52.08437643648701, 42.66903143373757], [52.137068740311186, 42.67512328304594], [52.11823232736208, 42.655640113558576], [52.14548205179859, 42.66863343460602], [52.15874245900285, 42.671764603765745], [52.149127457753174, 42.64637071176289], [52.14276743273635, 42.6356810585941], [52.16931645200369, 42.635765543087636], [52.211896208238734, 42.647124969495124], [52.20919448117689, 42.63902084403509], [52.20602828467105, 42.63058923158585], [52.19419176703447, 42.59743892798209]]}, "properties": {"year": 2020, "sensor": "COPERNICUS/S2_SR_HARMONIZED", "scale_m": 30, "n_scenes": 59, "date_window": ["2020-07-01", "2020-08-01"], "otsu_threshold": 0.0664, "data_quality": "good", "length_km": 474.2}}]}