{"type": "FeatureCollection", "crs": {"type": "name", "properties": {"name": "EPSG:4326"}}, "features": [{"type": "Feature", "geometry": {"type": "MultiLineString", "coordinates": [[[50.24133221210906, 44.48601419039007], [50.2413550611161, 44.47719850595025], [50.24213040178966, 44.469294085276736], [50.24302452759624, 44.461533776450615], [50.24430866065411, 44.45424612749055]], [[50.2416297450151, 44.486488741607744], [50.2412946336667, 44.480892442281665], [50.241317514160805, 44.475469982074344], [50.24189284720403, 44.470315862446576], [50.24279474051538, 44.46532041444454], [50.24303799004219, 44.46000507178202], [50.24425062798293, 44.45516069953294], [50.244251351024545, 44.44972760043746], [50.24439038565079, 44.44436170559726], [50.24578975598176, 44.43960826060631]], [[50.3236476901921, 44.329823401814686], [50.330353405882484, 44.32732823693352], [50.33567458522391, 44.32429085819976], [50.34078602979599, 44.32117133754992], [50.34972066851319, 44.319548198464794], [50.35751524049687, 44.31747844805136], [50.36423794989515, 44.314989026705625], [50.37249936910282, 44.313101322385805], [50.3790150532528, 44.310530483318225], [50.38336770633135, 44.30711361561616], [50.43545101574863, 44.2975330854136], [50.44453414822706, 44.29768628146977], [50.452590813992096, 44.297133832370434], [50.460889259941794, 44.29674691854109], [50.46882422831513, 44.29610995974562], [50.477681593569834, 44.29610562851691], [50.48508882091364, 44.29510554449496], [50.49343636298026, 44.294829826768634], [50.49944887311615, 44.294195339993394], [50.53119741045541, 44.292636357971126], [50.53751513274508, 44.292278353462855], [50.543986505477385, 44.29214661258322], [50.550476521823306, 44.29204202123965], [50.556708947470874, 44.291557512413256], [50.56292424594079, 44.29104757654281], [50.56892189830018, 44.290216853130964], [50.574776535658266, 44.28917542545244], [50.58101011665355, 44.28869201607378], [50.587514541163515, 44.28860716584663], [50.61225720523656, 44.28557910854378], [50.618734566998384, 44.2869882619573], [50.62448946857455, 44.28287015762512], [50.630543248354535, 44.28104191908561], [50.63667952942433, 44.27984617317043], [50.64294021075204, 44.27960110577179], [50.64913688054655, 44.27886809330827], [50.65533763434415, 44.27816701166019], [50.66141789221637, 44.27654955895342], [50.66759009370227, 44.275633591289974], [50.67047087065302, 44.27553254495074], [50.67651713097973, 44.27418564685834], [50.68238896316994, 44.27201965730316], [50.68038861002539, 44.273354765682214], [50.67705303531281, 44.273768464555154], [50.67384718668807, 44.27479259312174], [50.67057824741518, 44.2755202657343], [50.66718141101345, 44.27564621004165], [50.66387567165799, 44.276201031956134], [50.660600296497144, 44.276899048330954], [50.647224590061086, 44.279101097048596], [50.64703055232732, 44.2790574191986], [50.646948523407225, 44.279108401201306], [50.64686568268835, 44.279158697200636]], [[50.87339536614486, 44.10876932278636], [50.87406801885781, 44.103773870064], [50.874433652187896, 44.09864134249207], [50.87513477122803, 44.09365867991478], [50.905612365208725, 44.012295617691365], [50.911966461487545, 44.01194849324693], [50.91859477487021, 44.010091450168176], [50.925637304733094, 44.00595045367449], [50.93264759501648, 44.001981315853456], [50.94029396708885, 43.99449792525449], [50.94752064710489, 43.98892541187863], [50.945677933475096, 43.99120131406028], [50.94404393046357, 43.99232465195245], [50.942334628557774, 43.99386309147996], [50.87329439450565, 44.06574420188344], [50.873747499977, 44.061598799911145], [50.87074031768165, 44.056368875910586], [50.86935825021786, 44.05164816684967], [50.86909372482311, 44.04727773726164], [50.86853504509131, 44.042815063251524], [50.86831411394612, 44.038458263927154], [50.86810008169299, 44.03410361439288], [50.87040850517546, 44.03053999506439], [50.87274874309226, 44.02785260201001], [50.87049485184348, 44.03038011858907], [50.872222495881445, 44.02858854329204], [50.873063864541834, 44.026609656684684], [50.87307052994257, 44.024454361204775], [50.87603055474629, 44.02216261646801], [50.88160694616479, 44.01892850702534], [50.88662954971857, 44.015577261413355], [50.89477182519501, 44.01288480053325], [50.91085183472339, 44.011867409790185], [50.920404215700415, 44.009471039590025], [50.94192084543531, 43.994013003196365], [50.94596891874429, 43.99063008721777], [50.94906290711249, 43.986597902168135], [50.94962424468179, 43.98084186853996], [50.95654887359715, 43.97941763891282], [50.95986021815342, 43.97553398721736], [50.96244805144527, 43.971158072640655], [50.967870610046575, 43.96871175945257], [50.97168867826152, 43.965173545704076], [50.9681577852468, 43.96841807487149], [50.97203316090027, 43.96485892192594], [50.97602461834259, 43.961344598009944], [50.979444997154246, 43.95761000304503], [50.98092674912661, 43.953127578163205], [50.9775979381075, 43.94678909629644], [50.97929609238433, 43.94239024390781], [50.99048296152426, 43.94165248729681], [50.99239545303836, 43.93733654768815], [50.994649051795115, 43.93316108771478], [50.99072748784523, 43.94016916914178], [50.99269754410142, 43.93586060887278], [50.99490664610741, 43.93158217126843], [50.99583909167417, 43.927142853665174], [50.99716040779748, 43.92275254682152], [50.99792566627016, 43.91829217399271], [50.99831167382409, 43.91378401287169], [50.998826446224335, 43.909292082404384], [50.99909740681756, 43.90476797615835], [51.00046306858248, 43.90037627420761], [51.00395135287183, 43.889258257434186], [51.00330273459405, 43.884300826571824], [51.005867539756046, 43.88024284587665], [51.00531868911421, 43.87531336277624], [51.00623009971972, 43.87079264314462], [51.01002326370349, 43.86707865334188], [51.00759177024831, 43.86162218061891], [50.998957260848535, 43.85442834773157], [51.014264191797814, 43.853938643166714], [51.01803739736558, 43.83481713144919], [51.02018736358722, 43.830916040682375], [51.02277448290592, 43.82721697924652], [51.024068464256395, 43.82229219559634], [51.02517583729241, 43.81724954541565], [51.023610064834415, 43.810516733769695], [51.02489893517589, 43.80558896529432], [51.029761072939536, 43.802920932558564], [51.031598954859426, 43.7983406814367], [51.034740944199704, 43.794585233643915], [51.03801217528958, 43.790785246852614], [51.038475677558274, 43.78533063701322], [51.044953099303235, 43.78369500152924], [51.04579721665314, 43.778482480866025], [51.04925783434231, 43.77493153099229], [51.054122649097806, 43.77227232077537], [51.057308600307834, 43.76854726533927], [51.0625117761755, 43.76610307977536], [51.048502708385186, 43.78100934161076], [51.04820544992415, 43.77696290542205], [51.050511076032905, 43.772887374583256], [51.058873945334945, 43.76874373524963], [51.064564860505435, 43.764629726322305]], [[51.58186096070788, 43.18800234854993], [51.58388362295419, 43.183308054838314], [51.595830009085354, 43.185136841191216], [51.60714804246029, 43.186551094261574], [51.617634152352416, 43.18741747162875]], [[51.66108783607273, 43.17968982036353], [51.66361884557108, 43.17690829605969], [51.66678860162131, 43.174312877877334], [51.666100397935885, 43.17059345820655], [51.66633348262209, 43.167142456847465], [51.66576882161722, 43.16345899699716], [51.66848024073053, 43.16055974436424], [51.66906567977723, 43.15718133994176], [51.6686653842601, 43.15378886192805], [51.67014171098643, 43.151407521717736], [51.67050662306413, 43.14711824325549], [51.67347394209594, 43.143382298256164], [51.67210738845877, 43.13835718195681], [51.672462219127894, 43.13384413092098], [51.67329538748072, 43.12947341046962], [51.67337218803763, 43.124877660816765], [51.67178659656194, 43.12025027338824], [51.66523275204235, 43.11375129685669], [51.66563950796117, 43.10002483964732], [51.66971254912308, 43.09675550905125], [51.67340378249811, 43.09351686296325], [51.67828981941909, 43.090621821863564], [51.6823759503292, 43.08749669277818], [51.68750926048556, 43.08467262688639], [51.69272717412838, 43.08315254050762], [51.697227145889634, 43.080148918759], [51.70202266323885, 43.07722296868214], [51.70645006410023, 43.07420013383349], [51.71373384592794, 43.07192827758372], [51.71830248981133, 43.068942376615205], [51.72357127802112, 43.066140443736174], [51.72833323050124, 43.063205196334955], [51.73282884238391, 43.06019988360383], [51.737625727730496, 43.05727367028024], [51.76152251132622, 43.03850803356363], [51.76535525385903, 43.034787032375434], [51.76813713604112, 43.030361222506166], [51.77127419196272, 43.02654104451615], [51.77396862979163, 43.02229443458674], [51.777058094841955, 43.01842895600392], [51.778919403345476, 43.01337971115863], [51.78237747826235, 43.009870198774976], [51.78574003356942, 43.00626887397362], [51.79047978939374, 42.990078502642284], [51.79337964233093, 42.98747577165584], [51.79730443968014, 42.98367154323217], [51.80157016262366, 42.98010830022448], [51.803013374930934, 42.97636848701725], [51.80383462004966, 42.972051824557795], [51.80495967368142, 42.96816715714434], [51.806080619798806, 42.964194618523145], [51.80775279756553, 42.95723163354452], [51.811727332596845, 42.953542138812914], [51.83105898128479, 42.931927948733254], [51.832725925971204, 42.92925675120931], [51.83409520855904, 42.92540620036109], [51.83529501654619, 42.92088451344965], [51.83699610968683, 42.91835048677013], [51.83881009956772, 42.91626443444959], [51.84099026999004, 42.91491135683461], [51.844311147261756, 42.91104789769387], [51.84752881094795, 42.90677707850647], [51.85098183875077, 42.90344021582383]], [[51.86008696902287, 42.8949225974658], [51.864203670469934, 42.89131013983635], [51.86818799269746, 42.88754686065243], [51.85833086736767, 42.89728432360458], [51.86100973780591, 42.893276043715474], [51.865521306381005, 42.890397309156185], [51.86877006404456, 42.886740508756965], [51.87190018369964, 42.88301074679422], [51.875066530483004, 42.87930345436071], [51.87803166493409, 42.875472321820155], [51.8806557789986, 42.87143120260591], [51.882947359439896, 42.867185323617946], [51.8849571238806, 42.86276592861388], [51.90112790565391, 42.852405479374205], [51.89867352150859, 42.843500764108576], [51.902231545892015, 42.839692599753505], [51.90616935503481, 42.83620662521549], [51.911107822412674, 42.833569061413996], [51.91669565036211, 42.831481992302656], [51.92415156524959, 42.83097798727389], [51.92929022389747, 42.83157595079421], [51.93470127057867, 42.83287211072184], [51.940502554858426, 42.83449835234921], [51.95217863160148, 42.838506531034966], [51.96226162472335, 42.841861642453175], [51.97649233547573, 42.84763948227283], [51.98743951682784, 42.85050625854887], [51.998436982081316, 42.853415600755206], [52.009894018427154, 42.85672960469485], [52.020627495625824, 42.85940138416783], [52.03134465904119, 42.862056917490506], [52.04213240926115, 42.86477303743455], [52.03038837935544, 42.86191109063702], [52.052281484353685, 42.8674342303066], [52.07048726040918, 42.87140880132405]]]}, "properties": {"year": 2000, "data_quality": "good", "length_km": 187.9, "spatial_outliers_removed": 9, "n_segments": 7}}]}