{"type": "FeatureCollection", "crs": {"type": "name", "properties": {"name": "EPSG:4326"}}, "features": [{"type": "Feature", "geometry": {"type": "LineString", "coordinates": [[50.2749264833716, 44.5572911753777], [50.268279557452715, 44.548123409519846], [50.2577415406214, 44.536874963696256], [50.26392685668763, 44.53456154472662], [50.24035489519691, 44.51634191569032], [50.24149288927387, 44.511330982218745], [50.24226793702481, 44.50612601091324], [50.24222371538684, 44.50048286651212], [50.2420999080652, 44.49479713962959], [50.24107859379445, 44.48863119891362], [50.241120090816004, 44.48303384916351], [50.24136702613857, 44.47754644096135], [50.24181732975169, 44.47216789499797], [50.24241455911794, 44.466868027846054], [50.24293716571587, 44.46152827030377], [50.24376271263093, 44.45635072423699], [50.24400120080114, 44.45085897087026], [50.24346455754132, 44.444952233176465], [50.245581171628594, 44.440466104885175], [50.24713484024184, 44.435678685751675], [50.24546786838711, 44.42916674625059], [50.24345210244426, 44.42246776741114], [50.24313003575899, 44.41667579417537], [50.24289957136335, 44.410932858229025], [50.244375186671434, 44.40610394966859], [50.24465056631421, 44.40063208534894], [50.315498880476426, 44.33184512926753], [50.321508459808406, 44.329447075519546], [50.32887481094657, 44.32777526189424], [50.3341092802525, 44.32496213075175], [50.33791561419714, 44.32138465111435], [50.345675625405065, 44.31992321846116], [50.35292951377453, 44.318190654911206], [50.36009650810991, 44.31641136710151], [50.36661552197906, 44.314285248648936], [50.37379370223151, 44.31251154927862], [50.37916646521922, 44.30977215443664], [50.38297813585337, 44.30619798206019], [50.39044344244723, 44.30457754895146], [50.3956930382936, 44.30177230900622], [50.40392271371429, 44.300560101594236], [50.41165927751431, 44.29908394364078], [50.41885036495599, 44.297315990023925], [50.42826878241718, 44.29673775954872], [50.44018160425745, 44.29749106588732], [50.44938256662422, 44.29679505533678], [50.46011957562504, 44.29691836972333], [50.469139121719216, 44.296124099032276], [50.478821530927874, 44.29568291678997], [50.48616217206191, 44.29399178071489], [50.4999321179211, 44.29328996965825], [50.5121499058648, 44.294572636954186], [50.52026134140279, 44.29348391337861], [50.52946983891283, 44.29302781274005], [50.53601495422295, 44.29103448653481], [50.54763172627254, 44.291966277205496], [50.556373265850816, 44.29123877293483], [50.56502955422843, 44.29046157081001], [50.572285791279825, 44.288876819697386], [50.58157110390832, 44.28846123989083], [50.59172937131325, 44.28854794606506], [50.61939620756393, 44.2698908494139], [50.60560107525014, 44.23311477655679], [50.60028696531679, 44.22428480262719], [50.59771659968015, 44.21703625193179], [50.59595144836705, 44.210251781504255], [50.61868578632509, 44.21183106922211], [50.62852326042613, 44.21173708564964], [50.62972483188255, 44.20666516998722], [50.63632439202049, 44.20470470961736], [50.65721186603918, 44.210975649828974], [50.67802364834781, 44.217196645795205], [50.67141614571285, 44.207630690335876], [50.677967541291586, 44.205640814071636], [50.68923952545363, 44.20636802108804], [50.6963814629797, 44.204717388097365], [50.70113731545801, 44.201693553969804], [50.70325986670383, 44.19715453639698], [50.70867343530824, 44.19450941457361], [50.71301250125887, 44.19124609003745], [50.71723772778013, 44.187917376985965], [50.72119862710605, 44.18443670720537], [50.72512290339229, 44.180935096120976], [50.728202434139504, 44.17694764901186], [50.72862674883117, 44.17143278260912], [50.71920006053963, 44.15448937265365], [50.737493576963814, 44.159257970208486], [50.747568388632594, 44.15929535526948], [50.71449140244931, 44.134499338958676], [50.7257913273766, 44.135246529145675], [50.743515884421214, 44.139689787085516], [50.74527158702037, 44.13494197627793], [50.75395141723982, 44.13417847650615], [50.76114438824464, 44.13255915165533], [50.75159451064998, 44.12130695943972], [50.76161503307264, 44.12131555514564], [50.666457389975754, 44.06071358168308], [50.66889813694024, 44.05636020607475], [50.675741292413115, 44.04878639344777], [50.68222235200436, 44.04676578338745], [50.69065700452125, 44.03435016370421], [50.692500493722065, 44.029653140074835], [50.694530766169564, 44.0250640723399], [50.776612844004354, 44.04346116387891], [50.78639601899322, 44.03758586710464], [50.79142617948836, 44.03472838404392], [50.820055232010255, 44.04549923282137], [50.8078561439312, 44.03269284531414], [50.822295853250246, 44.03526852885384], [50.82484743806488, 44.03098181423185], [50.83088346913635, 44.028707520132485], [50.83903451999381, 44.027653925936164], [50.848870233602746, 44.027572031083714], [50.856792757938486, 44.02638558361053], [50.85334205634958, 44.01863719689103], [50.84447868501767, 43.996247855241236], [50.83534157724127, 43.9736957632053], [50.832638414646404, 43.96637527291963], [50.828948083399126, 43.958483772193695], [50.82407171660747, 43.944146721979116], [50.81422282980218, 43.92117197214191], [51.76339144265255, 43.03633298996717], [51.76661535678578, 43.03252100684571], [51.76994931965168, 43.02876432257979], [51.77207714672011, 43.024402863573926], [51.77499494196894, 43.02043769521961], [51.777710752664824, 43.01637134295464], [51.7794192177348, 43.01179990340973], [51.78369543859966, 43.008516343269235], [51.78673431787799, 43.004612349148985], [51.7882594699983, 42.99994933369257], [51.7900325502605, 42.9954107524943], [51.790308452518026, 42.99012135286374], [51.79345236022486, 42.986270516718584], [51.7975508738642, 42.98289856780272], [51.80192135871605, 42.97966309439949], [51.80315718036041, 42.97485563529755], [51.803981712032545, 42.96984196757115], [51.80524148765266, 42.96504666946951], [51.807107519843825, 42.96055555300413], [51.80851872900669, 42.95583639069501], [51.81243826800093, 42.95237555164937], [51.81647378551308, 42.948972972305036], [51.82013228542318, 42.945381378371756], [51.824577906258625, 42.942184653277714], [51.82757016129619, 42.93835821313897], [51.83002939795951, 42.934295345241125], [51.83216544230971, 42.93007049287857], [51.83376479646245, 42.92557656777271], [51.83467676930961, 42.92073795817198], [51.83735950825059, 42.91678761814334], [51.84196356483898, 42.91380105049125], [51.84496732783371, 42.91001193145467], [51.848081019222036, 42.90627805043759], [51.85112452035311, 42.90250907076414], [51.85503274553824, 42.899173864307535], [51.85939585626755, 42.89606685204498], [51.861765356107746, 42.891960177165274], [51.866373472972164, 42.888976192883376], [51.86955362107035, 42.88527623316984], [51.873072299472305, 42.881746122156265], [51.87570438840439, 42.87777155889299], [51.87855160971158, 42.87390497415347], [51.88130845102644, 42.86999317846456], [51.88336903926981, 42.86573237763104], [51.8851421015248, 42.8613275039141], [51.88722945386167, 42.85708032571132], [51.89012558860949, 42.85323881184248], [51.909790935298794, 42.85780369037188], [51.912432812749344, 42.85383488765167], [51.92871062578956, 42.85669825373051], [51.93774727874638, 42.855932565438195], [51.922784838590935, 42.84314505694802], [51.91233725246819, 42.83261600820004], [51.91950593435581, 42.83091699002459], [51.933436713457525, 42.83260632793387], [51.989837117899334, 42.850984040360096]]}, "properties": {"year": 2017, "data_quality": "good", "length_km": 304.2, "spatial_outliers_removed": 8}}]}