{"type": "FeatureCollection", "crs": {"type": "name", "properties": {"name": "EPSG:4326"}}, "features": [{"type": "Feature", "geometry": {"type": "LineString", "coordinates": [[50.27498701170803, 44.55732349514398], [50.26831990089525, 44.548144958358975], [50.25770524203371, 44.53685556641118], [50.26387644108351, 44.53453460676366], [50.24041233871316, 44.516372636692374], [50.241554359334266, 44.51136385846376], [50.24243318753513, 44.50621439829737], [50.24258239604171, 44.5006747315964], [50.24157217956588, 44.488895287358446], [50.24115836511703, 44.4830543295484], [50.241306598571974, 44.47751410362358], [50.24182840718206, 44.47217382346162], [50.24220612001479, 44.466756465850146], [50.24297039236505, 44.46154605535932], [50.24373854974345, 44.45633778982159], [50.24428508973982, 44.45101094924496], [50.24379773985539, 44.445130620575995], [50.24566270088286, 44.440509757179264], [50.24738746382162, 44.4358139503429], [50.24546384302871, 44.429164590577386], [50.24351046246821, 44.42249902566985], [50.24329704946982, 44.41676525783254], [50.24289454133733, 44.41093016352743], [50.24458643380841, 44.40621712420224], [50.244474543500715, 44.40053777338667], [50.31549284846831, 44.331841899443724], [50.32176381921513, 44.32958379108124], [50.328944182860916, 44.32781239677068], [50.33413642579171, 44.324976660558434], [50.3379377322222, 44.321396489483355], [50.345558997794754, 44.31986080577468], [50.352924486529105, 44.31818796502899], [50.35982301683305, 44.31626505424758], [50.36639632139808, 44.31416799568852], [50.373838951794376, 44.31253574999243], [50.37933439207891, 44.30986195803136], [50.38285043457667, 44.30612969238207], [50.39057416597457, 44.30464744313069], [50.39588912385798, 44.30187714125891], [50.403958916064376, 44.30057945267279], [50.4113032726351, 44.29889368140245], [50.418273094460424, 44.29700752129704], [50.42795095687329, 44.29656796694746], [50.44057088987231, 44.29769896651469], [50.44947310447525, 44.29684339718416], [50.46006323538744, 44.29688829558365], [50.46882520516856, 44.2959565674164], [50.47846331521136, 44.29549178906005], [50.48642782690858, 44.29413349818129], [50.50025351758305, 44.29347555611328], [50.51247525943077, 44.294760445144036], [50.51994085528733, 44.29329894686352], [50.52924411172253, 44.29289756488583], [50.53599541009988, 44.29102321079525], [50.54712351530026, 44.291673158342945], [50.55678671020374, 44.29147718070946], [50.56538144694135, 44.29066444460232], [50.57242850941108, 44.28895908740345], [50.58160923042342, 44.28848321244338], [50.591639422830646, 44.288496121291466], [50.464897473178105, 44.20376400208375], [50.46690559131155, 44.19915270935858], [50.48054126855249, 44.20127077374335], [50.4931694236959, 44.2028038841523], [50.49607940538783, 44.198715034080614], [50.69528651782636, 44.11191384631376], [50.70113857310436, 44.10952605434828], [50.80559795188036, 44.10631888326349], [50.800570204190606, 44.06306371990013], [50.871571001897465, 44.05793507324748], [50.86997608474051, 44.051259203685746], [50.86934093516638, 44.04513646853534], [50.868394918318984, 44.03883439384224], [50.86891813887831, 44.033379487708814], [50.87115683220637, 44.028913953684985], [50.87292635054614, 44.0241779904493], [50.87719952396352, 44.02088603088468], [50.88194202442485, 44.017864817803414], [50.886893601854624, 44.01496423753105], [50.89177744302488, 44.012024665076], [50.900835562749755, 44.011491528303274], [50.91097561013347, 44.011581279050525], [50.91763421650001, 44.00966418904044], [50.89802281625604, 43.99260502786875], [50.9355564432122, 43.97396447277172], [50.99449937024901, 43.93315284163401], [50.995999025333695, 43.9282667614444], [50.99684375029804, 43.923003614506406], [50.997814965821064, 43.9178133957197], [50.99802623896681, 43.91218553228681], [50.99838162029106, 43.906640700905605], [50.99958422454604, 43.90158398598648], [51.00139819542507, 43.896879590104206], [51.00301030781623, 43.89205902872491], [51.004129461828484, 43.886954565499416], [51.00582287251631, 43.88218108174437], [51.006994174538875, 43.87710687596854], [51.007881015916105, 43.87186884510074], [51.0095999829084, 43.86711043950449], [51.01173917594469, 43.8625943385493], [51.01253194973168, 43.85730240628818], [51.014238449710184, 43.852537187415614], [51.01656946375013, 43.848132050109115], [51.017261388656465, 43.84278229705006], [51.01778777499985, 43.83733718045469], [51.01920723665826, 43.83240696320894], [51.02214704262694, 43.82841159981764], [51.021227412251534, 43.829172949532], [51.023432236878065, 43.82489431575138], [51.02451323050643, 43.82011135274323], [51.0250561198428, 43.815086908627805], [51.02564435869435, 43.81008285639473], [51.02832368058733, 43.806017589817415], [51.03035914136546, 43.80166338070186], [51.0322854789144, 43.79726027596051], [51.03629713056307, 43.7937934131462], [51.039248636855156, 43.78985072152579], [51.042373014523065, 43.78598572654491], [51.0463674828722, 43.7825113903332], [51.05046184680412, 43.77908195838429], [51.053596561662104, 43.77522186571866], [51.057459735452575, 43.7716888170237], [51.06172490442143, 43.76833625428922], [51.066341338070885, 43.765141379904556], [51.06958943442456, 43.76133250841647], [51.07198160279885, 43.75713963104705], [51.07387177710097, 43.75272157490224], [51.07644917245691, 43.74861201352443], [51.07837676688047, 43.74421093811831], [51.079423425626004, 43.73941459661238], [51.08162609080525, 43.73513714774563], [51.08305981247079, 43.730514679648216], [51.08829723496386, 43.72759942919293], [51.088022123559, 43.722210238054295], [51.09647322903977, 43.7207373578964], [51.099639953219466, 43.71689302319317], [51.10192903070171, 43.71265496051852], [51.10465057646997, 43.70861105523344], [51.1076789195927, 43.70470491339199], [51.11057387692023, 43.70073901334736], [51.11323625415011, 43.69666884737633], [51.11580011983645, 43.692554574927705], [51.11344802633123, 43.68623435585139], [51.117221606718786, 43.6826554211618], [51.120095019526765, 43.67865196459359], [51.122781291612974, 43.67456462280392], [51.12671432031422, 43.67103686528732], [51.13024490705775, 43.66732859127843], [51.13212395963067, 43.66287931270147], [51.13461882294838, 43.658706467122336], [51.13726313666275, 43.654600783918724], [51.140947177616546, 43.65096175694875], [51.14521726101103, 43.64758576742588], [51.14841835047869, 43.64373019589826], [51.15161270243345, 43.639871693254314], [51.162300673284896, 43.62879244768137], [51.1773269914014, 43.63024131680294], [51.19297880230251, 43.63197548901277], [51.19224558535977, 43.62636592582525], [51.1998211218503, 43.62448090853913], [51.20615248474167, 43.622038032847996], [51.2102670830293, 43.6186016749777], [51.22709286929299, 43.6208600976289], [51.23478583560327, 43.61902616343053], [51.24200777521232, 43.616981017392185], [51.24486134482344, 43.61297982228175], [51.24528395017968, 43.60789021064518], [51.2272398649064, 43.594528200515825], [51.23179112806148, 43.59128811118904], [51.23994735623236, 43.58966314965367], [51.24202577037342, 43.585315239178534], [51.247162894594744, 43.58233767024035], [51.252963836790045, 43.579657430612556], [51.25736843688181, 43.577328322579206], [51.26090372917062, 43.57358894382209], [51.26492401112963, 43.570031386646654], [51.26790145818407, 43.56608304099677], [51.27061656527992, 43.562036444144084], [51.271200612978525, 43.557191233030956], [51.275677017083346, 43.55380488428908], [51.277969578721404, 43.54960014125044], [51.27987778474732, 43.545251422651], [51.28109141460047, 43.54064245365508], [51.28292650025305, 43.53626646092773], [51.284931850527855, 43.53195435112992], [51.28597211684529, 43.52728058157772], [51.2852554971215, 43.52194828635689], [51.28683893638112, 43.51747820220811], [51.29002356105722, 43.51360842390413], [51.29248848963144, 43.50946892398573], [51.29427232886811, 43.50507417744801], [51.29515856790899, 43.50034300032519], [51.29498906247957, 43.495216046521264], [51.29552436436532, 43.490353346766845], [51.29787253807302, 43.48617043060074], [51.300145631293695, 43.481959433590795], [51.319859853580006, 43.48428606775871], [51.3395623717882, 43.48660435506284], [51.33924950303324, 43.48142516375971], [51.33783056483068, 43.47583164972982], [51.3373189096193, 43.47057789731485], [51.334903340388266, 43.46461077562351], [51.33787437498379, 43.46066180190699], [51.331444161803454, 43.45319002309526], [51.32872436663877, 43.44710823534788], [51.335586204623674, 43.4446179347406], [51.33756833044595, 43.44029867634517], [51.338240406167046, 43.43548846045437], [51.33987924710576, 43.43104065799276], [51.33981275982713, 43.42595366841421], [51.340650386800945, 43.42120561501415], [51.34095732677096, 43.41625863978231], [51.34214072601922, 43.411640293956395], [51.34151065869969, 43.406342024123454], [51.34074013654209, 43.40099103097681], [51.34002246083008, 43.395659795537725], [51.33933895124445, 43.390341317489906], [51.336535585326246, 43.38422751757378], [51.33349677629595, 43.378025081022415], [51.33347920383132, 43.372956162442044], [51.31360196376019, 43.36043121129642], [51.31448245897158, 43.355698951299495], [51.32732547133061, 43.355459000410065], [51.313689202225866, 43.34527505898835], [51.312822111774096, 43.339886309260244], [51.31178736895962, 43.3344344931213], [51.310316336232944, 43.328818632907364], [51.30948706975515, 43.32344385333727], [51.3077138969425, 43.3177141950921], [51.305700961642714, 43.31189423508066], [51.30426612373776, 43.30629146136647], [51.31141680069608, 43.30391677214187], [51.300811980937006, 43.29486571139405], [51.299049234583656, 43.2891391830885], [51.29737777072626, 43.28344683893823], [51.29562882966433, 43.277725191734525], [51.293587709930726, 43.27189342659556], [51.49493075629451, 43.28750366346329], [51.475211758658176, 43.25959938007308], [51.53522664515805, 43.25329327730421], [51.539432430914445, 43.24994228223588], [51.54354787886982, 43.246555510586454], [51.547326114182546, 43.24303512573163], [51.54687468696587, 43.23783840936354], [51.41602178339295, 43.160741968661746], [51.431244544664715, 43.16178282984654], [51.44848981530304, 43.163626402841565], [51.46646461544973, 43.1657571474316], [51.47789840808501, 43.16528395910368], [51.509254687361526, 43.17272623558654], [51.592366988502434, 43.20067619341909], [51.53873186628319, 43.17439303445131], [51.56375177087663, 43.179301327039454], [51.5882410932868, 43.18399230779778], [51.60647648252061, 43.18620003121235], [51.49935873760307, 43.13867778314426], [51.504057934620306, 43.13552653641441], [51.51550522203708, 43.13505734960883], [51.51918965569473, 43.13150263574028], [51.5285946155702, 43.130220918507945], [51.54049137941489, 43.1299282749658], [51.54459553796042, 43.126540150593264], [51.54950544224821, 43.1184541664882], [51.599813087775566, 43.13339918413937], [51.60284055059589, 43.12958331363456], [51.63961522054286, 43.13913857902839], [51.637319364471495, 43.133214482794585], [51.63212053624027, 43.12614020377758], [51.60310734581758, 43.10962469630336], [51.67049948991167, 43.13130599362716], [51.67062370123948, 43.12634127552311], [51.65726881901568, 43.10601236688821], [51.66144598535708, 43.10265219933858], [51.66616215771842, 43.09950547796358], [51.67032217983159, 43.096138568023925], [51.67341694031588, 43.092349951480664], [51.678955428880684, 43.08952882560724], [51.68405776943998, 43.08653499843262], [51.690040604360235, 43.08388962643585], [51.69516571534463, 43.08090472014009], [51.69999739263215, 43.07780367133332], [51.707902765350624, 43.07365453861009], [51.71441071462005, 43.07148961188392], [51.718794876370715, 43.0682588115404], [51.72390322374118, 43.06539146703592], [51.729167171461846, 43.06260220765271], [51.73369890467643, 43.0594455929768], [51.73861528974161, 43.05648200462362], [51.74281468829036, 43.053158775281595], [51.74712409735174, 43.04989080412399], [51.75188097778563, 43.04684734786118], [51.75554899928276, 43.043257806414466], [51.75977799720888, 43.03994971745507], [51.763453256214916, 43.036363990965945], [51.766725806541366, 43.03257639900451], [51.76994222680103, 43.02876076548392], [51.77172455083616, 43.024226030827435], [51.774985823462394, 43.020433122199336], [51.777716831398116, 43.016374391494395], [51.77943137445998, 43.011806000318025], [51.78353132623046, 43.00843404093971], [51.786952113409086, 43.00472157153605], [51.78826959935784, 42.999954413687185], [51.78998494514728, 42.9953868772037], [51.789893210069245, 42.98991307890525], [51.79341995218066, 42.98625426211523], [51.79751542835644, 42.982880790582676], [51.80178160475943, 42.97959300657372], [51.803121737918346, 42.974837859764584], [51.804173087167975, 42.96993795407643], [51.8052080752861, 42.965029910223], [51.80690908248676, 42.96045601615556], [51.80863920122255, 42.95589682223845], [51.812708564736994, 42.95251113244941], [51.81659020260077, 42.94903136456092], [51.82011406417323, 42.945372239275805], [51.82433496074629, 42.94206280775838], [51.82746691331486, 42.93830643148982], [51.829983849482474, 42.93427250135265], [51.83213204182183, 42.93005374129219], [51.83378301381556, 42.9255857047592], [51.834706117390695, 42.92075267866711], [51.8375133262165, 42.91686477025932], [51.84183201187734, 42.913735070206286], [51.84486816086306, 42.90996219502321], [51.848023342532706, 42.90624912364845], [51.85122975124204, 42.90256184666019], [51.85527355705516, 42.89929463166468], [51.859392820882405, 42.89606532987855], [51.8620081757378, 42.89208194537394], [51.86629658120431, 42.88893763590895], [51.86960724114332, 42.885303120098726], [51.872937747612674, 42.88167865513139], [51.875598167878564, 42.87771829783086], [51.87869626641254, 42.87397750698721], [51.88139645523374, 42.87003730479695], [51.883140443333026, 42.86561775420697], [51.885244256043656, 42.86137872778491], [51.887471173415776, 42.857201534277245], [51.89022368837332, 42.85328800292529], [51.90765048989116, 42.85673096645322], [51.91235998292394, 42.85379838894782], [51.92802874120725, 42.856356681705385], [51.92863296823305, 42.851367334462445], [51.9312116585445, 42.84736719417214], [51.91262341594916, 42.83275946960313], [51.91986289096038, 42.83109591406809], [51.93295430372187, 42.832364609979386], [51.98939082000573, 42.85066947824619], [52.00423586599039, 42.8549125391603], [52.018563024546914, 42.85878752408425], [51.99031214063127, 42.83266345367716], [52.00626110052875, 42.83768740888767], [51.99841390156331, 42.82593878904254], [52.002364291564824, 42.822505868870785], [52.01678455100641, 42.82645217498385], [52.01879169239857, 42.82165001011396], [52.03362252444382, 42.81966746905294], [52.03182224128824, 42.8121836547825], [52.03491015830535, 42.80814386288201], [52.03539919693461, 42.80227310161884], [52.04269462629983, 42.8011982270681], [52.042689020016105, 42.79497946070139], [52.048396662099954, 42.79278622154319], [52.08637030731336, 42.80709830677669], [52.06768637628837, 42.78773258768332], [52.07758818933586, 42.78849251100425], [52.08425373754581, 42.786973231932784], [52.08993792845544, 42.78476301118781], [52.09576047059636, 42.78265017893348], [52.09930499095774, 42.77893404095385], [52.104060775618805, 42.776070590301885], [52.10799683186836, 42.772630364872995], [52.10556610673409, 42.76470922942298], [52.10766607076588, 42.759977086239694], [52.11868179256743, 42.76152032038903], [52.14654169767808, 42.77490876744135], [52.15176713306578, 42.77237534202176], [52.15828991448406, 42.76454734486459], [52.16492253668701, 42.76300352590849], [52.17185824989091, 42.75546690096711], [52.17537808757386, 42.751735412165736], [52.18810883941179, 42.74827263130419], [52.193142864121754, 42.74560562365279], [52.19486680714936, 42.740612859321764], [52.19381792117884, 42.73367162132033], [52.19851369113497, 42.7307676621414], [52.18023134302559, 42.7117103448153], [52.18729256081705, 42.71047103816529], [52.19622792452254, 42.71054912374016], [52.17208309259542, 42.687361515101884], [52.223183042860065, 42.71708601626599], [52.22932971938248, 42.7152018995846], [52.19431023786651, 42.684383903253924], [52.20010390842877, 42.68225470239271], [52.207196717257744, 42.68103905991549], [52.21446947513126, 42.67994970229471], [52.18837713108942, 42.64298173150523], [52.1910882853332, 42.63868554713626], [52.178580138220475, 42.61746724175184], [52.172844416653724, 42.60722048202623], [52.172088062885635, 42.60048144748336], [52.17966348617944, 42.599613792408114]]}, "properties": {"year": 2015, "data_quality": "good", "length_km": 461.1, "spatial_outliers_removed": 12}}]}