{"type": "FeatureCollection", "crs": {"type": "name", "properties": {"name": "EPSG:4326"}}, "features": [{"type": "Feature", "geometry": {"type": "LineString", "coordinates": [[51.09938, 42.70047], [51.11208, 42.71715], [51.12477, 42.73378], [51.13744, 42.75031], [51.15009, 42.76671], [51.1627, 42.78292], [51.17527, 42.79889], [51.18778, 42.81459], [51.20024, 42.82997], [51.21262, 42.84499], [51.22493, 42.85961], [51.23715, 42.8738], [51.24928, 42.88752], [51.2613, 42.90074], [51.27321, 42.91343], [51.285, 42.92556], [51.29667, 42.93711], [51.30819, 42.94807], [51.31958, 42.95841], [51.33081, 42.96812], [51.34188, 42.9772], [51.35278, 42.98563], [51.36351, 42.99341], [51.37406, 43.00054], [51.38442, 43.00703], [51.39458, 43.01289], [51.40453, 43.01811], [51.41428, 43.02273], [51.42381, 43.02675], [51.43311, 43.03019], [51.44218, 43.03309], [51.451, 43.03546], [51.45959, 43.03734], [51.46792, 43.03876], [51.47599, 43.03975], [51.4838, 43.04035], [51.49134, 43.0406], [51.49859, 43.04054], [51.50557, 43.04021], [51.51225, 43.03967], [51.51864, 43.03895], [51.52473, 43.0381], [51.53052, 43.03717], [51.536, 43.0362], [51.54116, 43.03525], [51.546, 43.03436], [51.55051, 43.03359], [51.5547, 43.03296], [51.55854, 43.03255], [51.56205, 43.03237], [51.56519, 43.03248], [51.56798, 43.03291], [51.57041, 43.03368], [51.57249, 43.03482], [51.57423, 43.03638], [51.57567, 43.03839], [51.57681, 43.04092], [51.57763, 43.04401], [51.57812, 43.04768], [51.57827, 43.05196], [51.57807, 43.05686], [51.57753, 43.06239], [51.57665, 43.06856], [51.57541, 43.07537], [51.57382, 43.08284], [51.57188, 43.09096], [51.56959, 43.09973], [51.56696, 43.10915], [51.56397, 43.1192], [51.56064, 43.12987], [51.55697, 43.14115], [51.55295, 43.15302], [51.54859, 43.16546], [51.54389, 43.17844], [51.53885, 43.19193], [51.53348, 43.20591], [51.52778, 43.22033], [51.52175, 43.23517], [51.51539, 43.25039], [51.50871, 43.26595], [51.50172, 43.2818], [51.4944, 43.2979], [51.48678, 43.31421], [51.47885, 43.33068], [51.47061, 43.34727], [51.46208, 43.36392], [51.45325, 43.38059], [51.44414, 43.39724], [51.43474, 43.41381], [51.42506, 43.43026], [51.41511, 43.44654], [51.40489, 43.4626], [51.39441, 43.47841], [51.38368, 43.49391], [51.3727, 43.50907], [51.36147, 43.52385], [51.35001, 43.53821], [51.33832, 43.55211], [51.3264, 43.56552], [51.31427, 43.57841], [51.30193, 43.59076], [51.28939, 43.60254], [51.27666, 43.61372], [51.26373, 43.6243], [51.25063, 43.63426], [51.23736, 43.64357], [51.22392, 43.65225], [51.21032, 43.66028], [51.19658, 43.66766], [51.18269, 43.6744], [51.16867, 43.68049], [51.15453, 43.68596], [51.14027, 43.69081], [51.1259, 43.69506], [51.11143, 43.69873], [51.09686, 43.70184], [51.08221, 43.70442], [51.06748, 43.7065], [51.05269, 43.7081], [51.03783, 43.70926], [51.02293, 43.71002], [51.00798, 43.71041], [50.993, 43.71048], [50.97799, 43.71026], [50.96297, 43.70981], [50.94794, 43.70916], [50.93291, 43.70836], [50.91789, 43.70746], [50.90289, 43.70651], [50.88792, 43.70555], [50.87298, 43.70463], [50.85809, 43.70379], [50.84325, 43.7031], [50.82848, 43.70258], [50.81377, 43.70229], [50.79915, 43.70227], [50.78462, 43.70257], [50.77018, 43.70322], [50.75584, 43.70427], [50.74163, 43.70575], [50.72753, 43.70769], [50.71356, 43.71013], [50.69974, 43.7131], [50.68606, 43.71662], [50.67253, 43.72072], [50.65918, 43.72542], [50.64599, 43.73073], [50.63298, 43.73668], [50.62016, 43.74326], [50.60754, 43.75049], [50.59512, 43.75837], [50.58291, 43.76689], [50.57092, 43.77607], [50.55915, 43.78588], [50.54761, 43.79632], [50.53632, 43.80737], [50.52526, 43.81902], [50.51446, 43.83124], [50.50392, 43.84402], [50.49363, 43.85732], [50.48362, 43.87112], [50.47387, 43.88538], [50.46441, 43.90007], [50.45523, 43.91516], [50.44634, 43.9306], [50.43775, 43.94635], [50.42945, 43.96237], [50.42146, 43.97862], [50.41377, 43.99505], [50.4064, 44.01161], [50.39934, 44.02826], [50.3926, 44.04496], [50.38618, 44.06164], [50.38008, 44.07827], [50.37432, 44.0948], [50.36889, 44.11118], [50.36379, 44.12737], [50.35903, 44.14331], [50.35461, 44.15897], [50.35053, 44.17431], [50.34679, 44.18928], [50.3434, 44.20385], [50.34035, 44.21798], [50.33765, 44.23163], [50.3353, 44.24478], [50.33329, 44.2574], [50.33164, 44.26946], [50.33034, 44.28094], [50.32938, 44.29182], [50.32878, 44.30208], [50.32852, 44.31172], [50.32862, 44.32072], [50.32906, 44.32907], [50.32986, 44.33679], [50.331, 44.34386], [50.3325, 44.3503], [50.33434, 44.35611], [50.33653, 44.36131], [50.33907, 44.3659], [50.34197, 44.3699], [50.34521, 44.37333], [50.3488, 44.37621], [50.35271, 44.37855], [50.35696, 44.38039], [50.36151, 44.38177], [50.36637, 44.38271], [50.37154, 44.38326], [50.377, 44.38346], [50.38276, 44.38337], [50.38881, 44.38301], [50.39515, 44.38243], [50.40178, 44.38169], [50.40868, 44.38083], [50.41587, 44.37989], [50.42332, 44.37893], [50.43104, 44.37798], [50.43902, 44.37711], [50.44726, 44.37635], [50.45575, 44.37575], [50.46448, 44.37536], [50.47345, 44.37522], [50.48266, 44.37538], [50.49209, 44.37587], [50.50173, 44.37674], [50.5116, 44.37802], [50.52167, 44.37975], [50.53193, 44.38197], [50.5424, 44.38469], [50.55304, 44.38796], [50.56387, 44.39179], [50.57487, 44.3962], [50.58603, 44.40123], [50.59735, 44.40687], [50.60881, 44.41315], [50.62042, 44.42007], [50.63216, 44.42764], [50.64402, 44.43585], [50.656, 44.44472], [50.66808, 44.45422], [50.68027, 44.46436], [50.69254, 44.47512], [50.7049, 44.48648], [50.71732, 44.49843], [50.72982, 44.51094], [50.74236, 44.52399], [50.75496, 44.53755], [50.76759, 44.55159], [50.78025, 44.56608], [50.79293, 44.58098], [50.80562, 44.59625], [50.81831, 44.61185], [50.831, 44.62774], [50.84367, 44.64388], [50.85631, 44.66022], [50.86893, 44.67671], [50.8815, 44.69332], [50.89402, 44.70998], [50.90648, 44.72666], [50.91887, 44.74331], [50.93119, 44.75988], [50.94342, 44.77632], [50.95556, 44.79258], [50.96759, 44.80863], [50.97951, 44.82441], [50.99132, 44.83988], [51.003, 44.855], [51.01454, 44.86974], [51.02594, 44.88406], [51.03718, 44.89791], [51.04827, 44.91127], [51.05919, 44.92411], [51.06994, 44.93641], [51.0805, 44.94813], [51.09088, 44.95926], [51.10106, 44.96977], [51.11103, 44.97967], [51.1208, 44.98892], [51.13035, 44.99754], [51.13967, 45.0055], [51.14876, 45.01282], [51.15762, 45.0195], [51.16623, 45.02553], [51.17459, 45.03094], [51.1827, 45.03573], [51.19055, 45.03992], [51.19813, 45.04353], [51.20544, 45.04658], [51.21247, 45.04911], [51.21922, 45.05113], [51.22568, 45.05268], [51.23185, 45.05379], [51.23771, 45.0545], [51.24328, 45.05485], [51.24853, 45.05487], [51.25347, 45.05462], [51.25809, 45.05413], [51.26239, 45.05345], [51.26636, 45.05262], [51.27, 45.05171], [51.27331, 45.05074]]}, "properties": {"year": 2005, "sensor": "LANDSAT/LT05", "scale_m": 30, "acquisition_date": "2005-07-20", "cloud_pct": 1.6, "wind_ms": 7.1, "otsu_threshold": 0.083, "data_quality": "good", "length_km": 218.4}}]}