{"type": "FeatureCollection", "crs": {"type": "name", "properties": {"name": "EPSG:4326"}}, "features": [{"type": "Feature", "geometry": {"type": "LineString", "coordinates": [[51.09815, 42.70141], [51.11085, 42.71809], [51.12354, 42.73472], [51.13621, 42.75126], [51.14886, 42.76766], [51.16148, 42.78387], [51.17405, 42.79985], [51.18657, 42.81556], [51.19904, 42.83095], [51.21143, 42.84598], [51.22375, 42.86062], [51.23598, 42.87482], [51.24812, 42.88855], [51.26016, 42.90179], [51.27209, 42.9145], [51.2839, 42.92665], [51.29559, 42.93823], [51.30714, 42.94921], [51.31855, 42.95957], [51.32981, 42.96931], [51.34091, 42.97841], [51.35186, 42.98687], [51.36262, 42.99468], [51.37321, 43.00184], [51.38362, 43.00836], [51.39383, 43.01424], [51.40384, 43.0195], [51.41365, 43.02414], [51.42323, 43.02819], [51.4326, 43.03166], [51.44174, 43.03458], [51.45064, 43.03697], [51.45929, 43.03886], [51.4677, 43.04029], [51.47584, 43.04129], [51.48372, 43.0419], [51.49132, 43.04215], [51.49864, 43.04209], [51.50567, 43.04176], [51.5124, 43.04121], [51.51884, 43.04048], [51.52497, 43.03963], [51.53078, 43.03869], [51.53627, 43.03773], [51.54144, 43.03677], [51.54627, 43.03589], [51.55076, 43.03512], [51.5549, 43.0345], [51.55867, 43.03409], [51.56206, 43.03392], [51.56506, 43.03402], [51.56764, 43.03442], [51.5698, 43.03511], [51.57159, 43.03609], [51.57308, 43.03741], [51.57433, 43.03916], [51.57535, 43.04143], [51.57611, 43.0443], [51.57657, 43.04781], [51.57672, 43.05195], [51.57653, 43.05675], [51.576, 43.0622], [51.57512, 43.0683], [51.57389, 43.07507], [51.57231, 43.0825], [51.57038, 43.09059], [51.5681, 43.09933], [51.56547, 43.10872], [51.56249, 43.11875], [51.55917, 43.1294], [51.5555, 43.14066], [51.55148, 43.15252], [51.54713, 43.16494], [51.54244, 43.1779], [51.53741, 43.19138], [51.53204, 43.20534], [51.52634, 43.21976], [51.52032, 43.23458], [51.51397, 43.24979], [51.50729, 43.26533], [51.5003, 43.28116], [51.49299, 43.29725], [51.48538, 43.31354], [51.47745, 43.33], [51.46923, 43.34657], [51.4607, 43.3632], [51.45189, 43.37986], [51.44278, 43.39649], [51.43339, 43.41304], [51.42373, 43.42946], [51.41379, 43.44572], [51.40359, 43.46176], [51.39313, 43.47754], [51.38242, 43.49302], [51.37145, 43.50815], [51.36025, 43.5229], [51.34881, 43.53722], [51.33715, 43.55109], [51.32526, 43.56447], [51.31316, 43.57733], [51.30085, 43.58965], [51.28835, 43.60139], [51.27565, 43.61254], [51.26277, 43.62308], [51.24972, 43.633], [51.23649, 43.64229], [51.2231, 43.65093], [51.20956, 43.65893], [51.19587, 43.66628], [51.18205, 43.67299], [51.16809, 43.67906], [51.154, 43.6845], [51.1398, 43.68933], [51.12549, 43.69357], [51.11107, 43.69722], [51.09656, 43.70032], [51.08197, 43.70289], [51.06729, 43.70496], [51.05255, 43.70655], [51.03773, 43.70771], [51.02287, 43.70847], [51.00796, 43.70886], [50.99301, 43.70893], [50.97803, 43.70871], [50.96303, 43.70826], [50.94801, 43.70761], [50.933, 43.70681], [50.91799, 43.70591], [50.90299, 43.70496], [50.88801, 43.704], [50.87307, 43.70308], [50.85817, 43.70225], [50.84332, 43.70155], [50.82852, 43.70103], [50.81379, 43.70074], [50.79914, 43.70072], [50.78457, 43.70102], [50.77009, 43.70168], [50.75571, 43.70272], [50.74144, 43.70421], [50.72729, 43.70616], [50.71327, 43.70861], [50.69938, 43.71159], [50.68564, 43.71513], [50.67205, 43.71925], [50.65863, 43.72397], [50.64538, 43.72931], [50.6323, 43.73528], [50.61942, 43.7419], [50.60674, 43.74916], [50.59426, 43.75708], [50.58199, 43.76564], [50.56995, 43.77486], [50.55813, 43.78471], [50.54655, 43.79519], [50.53521, 43.80628], [50.52412, 43.81797], [50.51328, 43.83024], [50.5027, 43.84305], [50.49239, 43.85639], [50.48235, 43.87023], [50.47258, 43.88453], [50.4631, 43.89925], [50.4539, 43.91437], [50.44499, 43.92984], [50.43638, 43.94562], [50.42807, 43.96167], [50.42006, 43.97795], [50.41236, 43.9944], [50.40498, 44.01099], [50.3979, 44.02767], [50.39115, 44.04439], [50.38473, 44.0611], [50.37863, 44.07775], [50.37285, 44.0943], [50.36741, 44.1107], [50.36231, 44.12691], [50.35754, 44.14288], [50.35311, 44.15856], [50.34903, 44.17392], [50.34528, 44.18892], [50.34188, 44.20351], [50.33883, 44.21766], [50.33612, 44.23135], [50.33377, 44.24452], [50.33176, 44.25717], [50.3301, 44.26927], [50.32879, 44.28078], [50.32784, 44.2917], [50.32723, 44.30201], [50.32697, 44.3117], [50.32707, 44.32076], [50.32752, 44.32919], [50.32832, 44.33699], [50.32948, 44.34416], [50.331, 44.35071], [50.33288, 44.35665], [50.33514, 44.36198], [50.33776, 44.36673], [50.34077, 44.37089], [50.34416, 44.37447], [50.34791, 44.37748], [50.35201, 44.37993], [50.35643, 44.38185], [50.36114, 44.38327], [50.36615, 44.38424], [50.37143, 44.38481], [50.37699, 44.38501], [50.38282, 44.38491], [50.38893, 44.38455], [50.39531, 44.38397], [50.40196, 44.38323], [50.40888, 44.38237], [50.41607, 44.38143], [50.42351, 44.38046], [50.43122, 44.37952], [50.43918, 44.37865], [50.44739, 44.3779], [50.45584, 44.3773], [50.46453, 44.37691], [50.47345, 44.37677], [50.4826, 44.37693], [50.49198, 44.37742], [50.50157, 44.37828], [50.51137, 44.37956], [50.52137, 44.38128], [50.53158, 44.38347], [50.54197, 44.38618], [50.55256, 44.38943], [50.56332, 44.39324], [50.57426, 44.39763], [50.58537, 44.40263], [50.59663, 44.40824], [50.60804, 44.41449], [50.6196, 44.42139], [50.6313, 44.42892], [50.64312, 44.43711], [50.65506, 44.44595], [50.66711, 44.45542], [50.67926, 44.46554], [50.6915, 44.47627], [50.70383, 44.48761], [50.71624, 44.49953], [50.72871, 44.51202], [50.74124, 44.52505], [50.75381, 44.5386], [50.76643, 44.55262], [50.77907, 44.56709], [50.79174, 44.58197], [50.80442, 44.59723], [50.8171, 44.61282], [50.82978, 44.6287], [50.84245, 44.64483], [50.85509, 44.66116], [50.86769, 44.67765], [50.88026, 44.69425], [50.89278, 44.71091], [50.90524, 44.72759], [50.91763, 44.74424], [50.92994, 44.7608], [50.94218, 44.77724], [50.95431, 44.79351], [50.96635, 44.80956], [50.97828, 44.82534], [50.99009, 44.84082], [51.00177, 44.85596], [51.01332, 44.8707], [51.02473, 44.88503], [51.03599, 44.89889], [51.04708, 44.91227], [51.05802, 44.92513], [51.06878, 44.93744], [51.07936, 44.94918], [51.08976, 44.96032], [51.09996, 44.97086], [51.10995, 44.98078], [51.11975, 44.99006], [51.12932, 44.9987], [51.13868, 45.0067], [51.14781, 45.01405], [51.15671, 45.02075], [51.16536, 45.02682], [51.17378, 45.03226], [51.18194, 45.03708], [51.18985, 45.0413], [51.1975, 45.04495], [51.20488, 45.04803], [51.21199, 45.05058], [51.21882, 45.05263], [51.22536, 45.05419], [51.23162, 45.05532], [51.23757, 45.05604], [51.24322, 45.05639], [51.24857, 45.05642], [51.25359, 45.05616], [51.2583, 45.05566], [51.26267, 45.05497], [51.26671, 45.05413], [51.27041, 45.0532], [51.27377, 45.05222]]}, "properties": {"year": 2018, "sensor": "COPERNICUS/S2_SR_HARMONIZED", "scale_m": 10, "acquisition_date": "2018-07-18", "cloud_pct": 1.6, "wind_ms": 2.1, "otsu_threshold": 0.122, "data_quality": "good", "length_km": 218.4}}]}