{"type": "FeatureCollection", "crs": {"type": "name", "properties": {"name": "EPSG:4326"}}, "features": [{"type": "Feature", "geometry": {"type": "LineString", "coordinates": [[50.27451085727643, 44.55706924545647], [50.26899162360011, 44.54850374445369], [50.23995510414926, 44.52736730696115], [50.2618749792601, 44.53346515180345], [50.23994069900332, 44.5161204002488], [50.24113213195594, 44.511138035726255], [50.241836675857215, 44.50589534028212], [50.24194463122861, 44.5003335774578], [50.24181984372997, 44.49464731136224], [50.24103024277544, 44.488605328911426], [50.2408914527878, 44.482911505546845], [50.240967198316845, 44.47733247498759], [50.24144271252183, 44.47196740450945], [50.24209535559801, 44.46669718154429], [50.242602886613554, 44.46134934133293], [50.243493901110256, 44.45620682858027], [50.243362959430314, 44.4505172864382], [50.24168795506828, 44.44400099709079], [50.24484036818201, 44.440069459174055], [50.24683189478121, 44.43551647529231], [50.2444474495298, 44.42862027859321], [50.243184452098966, 44.422324410190804], [50.24242073623259, 44.41629584040385], [50.24267422665173, 44.41081213538242], [50.243222395261405, 44.405486333246735], [50.24396860680063, 44.40026669236356], [50.31574016134538, 44.331974321960224], [50.321523540055274, 44.329455149288954], [50.32742706928451, 44.32700026362239], [50.33229055973169, 44.32398861911157], [50.336312081142026, 44.32052635802951], [50.343921210383456, 44.31898432546977], [50.3504853213694, 44.31688280825275], [50.359382618302384, 44.316029446152314], [50.36536669368128, 44.31361722389664], [50.37179571981175, 44.31144293555681], [50.37742387727306, 44.30884022600296], [50.381007346057956, 44.30514404681529], [50.38995474032235, 44.30431625093346], [50.396038953811974, 44.301957243626454], [50.403666281083616, 44.300423031127934], [50.410724015384424, 44.298584099808906], [50.41880611404159, 44.297292344440244], [50.42792581252572, 44.296554533950946], [50.44011320293509, 44.2974545354082], [50.44936144114707, 44.296783775562126], [50.45948776340427, 44.29658110814416], [50.468199389690525, 44.29562257554247], [50.47844922812403, 44.295484272778154], [50.485959912980334, 44.29388388177677], [50.5000034313489, 44.29333114849352], [50.51204536326797, 44.29451228998243], [50.51934385756005, 44.292954387947105], [50.52686182246957, 44.29152288725956], [50.535877168315, 44.29095499249976], [50.54663876493605, 44.29139356594203], [50.555618714105975, 44.290803660807825], [50.56456036771785, 44.29019107073791], [50.57213232085777, 44.28878835354099], [50.581206459445355, 44.2882510915031], [50.59155534069664, 44.28844767633047], [50.58440841537488, 44.19205768515743], [50.58099820188463, 44.184321968303166], [50.57797233360404, 44.17680757263484], [50.584277521367646, 44.17468107193199], [50.599321117828865, 44.17759847431451], [50.59577511244763, 44.16978544594842], [50.6254334277529, 44.18113250817006], [50.59936731946621, 44.16032658293212], [50.59830601365844, 44.15394762647913], [50.602195499744546, 44.15042714498439], [50.644093675617434, 44.16883611270332], [50.612695741055774, 44.14495752731689], [50.61046569286145, 44.137904578492304], [50.628393395881325, 44.13095835927191], [50.64170319124774, 44.13287476303768], [50.64921709309188, 44.131445997177636], [50.65819227746905, 44.13085974868253], [50.68475358067326, 44.14041030839575], [50.69318700677553, 44.139508548549976], [50.68776564238333, 44.13062342775121], [50.749065270513924, 44.16015631382664], [50.673895613384694, 44.111103804384484], [50.68861923152317, 44.11383165602035], [50.76245761480778, 44.15058588977201], [50.76061298584724, 44.14376788711731], [50.770332479907445, 44.14360041981374], [50.76823707465312, 44.13663871012025], [50.77461618274814, 44.13455054266974], [50.782335220804185, 44.13323267053475], [50.78185935368026, 44.127203036798655], [50.785219450741664, 44.12337914092959], [50.780945015472, 44.11516508972418], [50.78932457682516, 44.11422813331063], [50.79315519735155, 44.11067526252552], [50.80739776467298, 44.11310813757978], [50.811430417221914, 44.10967143947695], [50.7505712285745, 44.06889780607199], [50.75983747322808, 44.06847718967936], [50.76251659382303, 44.06426283959978], [50.7675983055015, 44.06131114543108], [50.78672198061645, 44.06659428478586], [50.794849972594896, 44.06552426168369], [50.80231682674556, 44.06407213466919], [50.825340594488175, 44.07159739313926], [50.8267467116175, 44.06664683826698], [50.82262715197323, 44.05850785384975], [50.83450672979571, 44.059600767199115], [50.851606495177805, 44.06370257977035], [50.80347617648051, 44.03016295635776], [50.80618159077548, 44.025962714186925], [50.87132718969248, 44.05779453936761], [50.869690373438665, 44.05109449378854], [50.867861850638256, 44.04428367056174], [50.86831302610371, 44.03878717211681], [50.86821432093766, 44.03297360672198], [50.871071052354054, 44.02886448530664], [50.87253451816772, 44.023952015285836], [50.87738081805542, 44.0209905793781], [50.88198880971792, 44.01789179615963], [50.88694818466717, 44.01499570992869], [50.89107956921854, 44.01162229530697], [50.899114151828975, 44.01049921962598], [50.90988182322407, 44.01095093151454], [50.917626417328314, 44.00965969507387], [50.923124443750666, 44.0070738003954], [50.99446624166311, 43.93313376431426], [50.99553038683294, 43.927996878500906], [50.99642093756277, 43.922760105648315], [50.99734834944466, 43.91754464187913], [50.997722332672126, 43.91201047820035], [50.997636535222, 43.90621148220386], [50.99884308945882, 43.901157018999555], [51.00107585418932, 43.89669388465993], [51.00222739444731, 43.89160795871342], [51.00374776987813, 43.886734645031815], [51.00522116297858, 43.88183437843586], [51.006910447239754, 43.877058630235695], [51.00718010275954, 43.871464930495556], [51.00895946614598, 43.86674131592808], [51.01128266165383, 43.86233124853436], [51.01228278460039, 43.85715880247136], [51.013596113890976, 43.852166966989564], [51.016293077869825, 43.84797274909572], [51.01713585738514, 43.84270993926497], [51.014843475045446, 43.83563983285832], [51.01864097621295, 43.83208051973882], [51.02192229766936, 43.828282038075386], [51.02133734602291, 43.82922229034361], [51.02319229908985, 43.824786624117806], [51.02403550405156, 43.819896922132656], [51.023400077784956, 43.814343516155844], [51.025262872034155, 43.80991160016988], [51.02790628449213, 43.805830213778], [51.03021966481894, 43.80160076650313], [51.03079043604401, 43.7965890864715], [51.034511585209415, 43.792991840360386], [51.037269834770505, 43.78896239998921], [51.041091540513726, 43.785410466629294], [51.045102947404864, 43.78194376227535], [51.04987554597748, 43.77881879502838], [51.05303669358998, 43.77497057180692], [51.05763297339388, 43.77176656953164], [51.061678427142645, 43.76831539553686], [51.06577200432532, 43.76488588172512], [51.069276787856815, 43.761192206864024], [51.071301422517465, 43.756834393260284], [51.072202067343326, 43.751972245312544], [51.075628610260615, 43.74824376845292], [51.077296478555155, 43.74372612236753], [51.078613530125175, 43.73905111130782], [51.08105908841095, 43.73488267195945], [51.0820546937749, 43.730063552194274], [51.084025625203374, 43.72568227086328], [51.0870920601091, 43.72179279561114], [51.092122671678446, 43.71878496867153], [51.09891574975024, 43.71656805116382], [51.10056199158219, 43.712041515896544], [51.103906389806944, 43.70827711452047], [51.1065294409769, 43.70418910956862], [51.10921018728879, 43.70012709152889], [51.11206049593431, 43.69614125849697], [51.114539989553876, 43.691989125478], [51.11595538524061, 43.68735958345913], [51.117624706874984, 43.68283631952014], [51.11916540784327, 43.67823477941081], [51.122439428895895, 43.674411205941], [51.12649485914494, 43.670938383049844], [51.12983132240051, 43.66714300242038], [51.13125147792352, 43.662487789232216], [51.134349811423135, 43.65858574992059], [51.1365732368947, 43.65429119421552], [51.14021405175486, 43.650632781961704], [51.14419829581918, 43.647128552336554], [51.18508879515856, 43.6601733753354], [51.15089863891818, 43.63955130443828], [51.19346019939738, 43.65334419012207], [51.20421995797515, 43.65287483154827], [51.16213087615907, 43.62871627088005], [51.17548536257475, 43.62941542979909], [51.19126771577172, 43.63120849198309], [51.190554708813345, 43.625607901598016], [51.19587711795955, 43.62271303765495], [51.20485395718153, 43.62145607926444], [51.209775530345894, 43.61838139338958], [51.231046102592565, 43.62263067049177], [51.23503798979341, 43.61913908545547], [51.21897242979065, 43.60666262301236], [51.2178005140706, 43.60085753496829], [51.220861622711595, 43.596949562646216], [51.22648903032045, 43.594191741713935], [51.23073028165709, 43.59081276183111], [51.235987589687674, 43.58788909025614], [51.24034596839833, 43.58456266886363], [51.246826512924244, 43.582186984227626], [51.251818671602095, 43.5791444906287], [51.255468434036196, 43.57661613422024], [51.26044690615869, 43.57341772189192], [51.27595201459544, 43.574163701057685], [51.26772644835377, 43.56601745111221], [51.27056043283616, 43.56201540721938], [51.27294500691796, 43.557845005821015], [51.27525551875208, 43.55364691874356], [51.287201860709956, 43.55305954931987], [51.29048627065792, 43.54922647443115], [51.281028696530335, 43.54061894740643], [51.28290889625282, 43.53625986296055], [51.28478442585192, 43.53189909559052], [51.28563768498738, 43.527155228326215], [51.29429694405201, 43.52533704890596], [51.28550362693829, 43.51697761669199], [51.28955281140196, 43.51343195543296], [51.29229052103165, 43.50939471269556], [51.293639969913805, 43.50483712196704], [51.303566049363496, 43.50349441211163], [51.295233170617664, 43.49530756834719], [51.300442576010504, 43.49219726630163], [51.297493232304156, 43.486028208891106], [51.311497507764194, 43.48621497190234], [51.31408190509747, 43.48212073791365], [51.33877167085372, 43.48630824426747], [51.33758687614243, 43.48080245425005], [51.33724012420358, 43.475610484059324], [51.31158661610279, 43.460933822229016], [51.31314566310212, 43.45645550662601], [51.31428688866789, 43.45182057686021], [51.33113752274894, 43.45307509817607], [51.313993338387455, 43.441584774599576], [51.32913349056157, 43.44219920950142], [51.31528072763693, 43.431941938697115], [51.315758949765915, 43.42705849322452], [51.33039124049928, 43.42748363314484], [51.33645871466492, 43.42469627508917], [51.31666492094978, 43.41220991988951], [51.31589540925264, 43.406858346196415], [51.33699385553697, 43.40971039692338], [51.314951874263464, 43.3963785169239], [51.31488203880389, 43.391289414951615], [51.315555391732296, 43.38647928718121], [51.3363294414036, 43.389212402101656], [51.31536188564455, 43.37628087000402], [51.31499463406068, 43.37108007581308], [51.314416752525666, 43.36580015423505], [51.313946506458414, 43.3605606100177], [51.31363872587855, 43.355382049691585], [51.32732327679124, 43.355458176473675], [51.31284232697358, 43.34495691416569], [51.31180639674472, 43.33950469120516], [51.310951622285515, 43.334120454403944], [51.30955963406478, 43.32853425715592], [51.3083543182968, 43.323018103175535], [51.30689704035227, 43.31740713181381], [51.304952165583394, 43.311612712576355], [51.303586464953085, 43.30603589775474], [51.30145703189421, 43.30017174298214], [51.2997401004034, 43.29446254470912], [51.29784705791482, 43.28868694029147], [51.2966677141273, 43.28317968893129], [51.2944542943393, 43.277283218708156], [51.29266855872038, 43.271547500725], [51.494967586653694, 43.28751827128791], [51.487498215829966, 43.264476468628395], [51.46984407332194, 43.2373866880761], [51.52656744923198, 43.25487873187861], [51.53330016093304, 43.252529598915274], [51.538026857790804, 43.24938513900804], [51.54313422968829, 43.24639156047003], [51.54681719153108, 43.24283342338197], [51.538075903255795, 43.23435031086436], [51.414183962983614, 43.16000982553066], [51.43021260506294, 43.161371921008275], [51.44557623691207, 43.16246680925557], [51.46563017531128, 43.16542523707502], [51.47608890605905, 43.16456442029416], [51.50926333781412, 43.17272967178461], [51.59190914467505, 43.200494839328506], [51.53881081873215, 43.17442436929564], [51.56382316968451, 43.179329641443545], [51.59249042672375, 43.18567601976654], [51.606324972341454, 43.186140027191755], [51.557326119646056, 43.136612368424906], [51.56377984502501, 43.13415634782587], [51.566295062715945, 43.1301372198085], [51.66932270786286, 43.13585425695771], [51.66920256222897, 43.13079281250958], [51.66963296523926, 43.12594922210564], [51.67046995008698, 43.12126655653888], [51.665160215033424, 43.11415098217827], [51.65706015828703, 43.105929737239215], [51.661531393435126, 43.102686018643716], [51.66600972403812, 43.09944512299351], [51.67004002369531, 43.09602685709963], [51.673629900395525, 43.09243426357673], [51.67887759676131, 43.08949801468057], [51.68405776943998, 43.08653499843262], [51.68979306071005, 43.0837916542362], [51.69477765143925, 43.08075114755242], [51.69986227539163, 43.07775020479332], [51.70785310368887, 43.07362961228332], [51.71395564543865, 43.07126123037064], [51.71829522142204, 43.06800806849914], [51.72357586506123, 43.065227201883346], [51.728652318826995, 43.062343881863555], [51.73338371375404, 43.059287457350486], [51.73826260350253, 43.05630507041538], [51.74251977557679, 43.05301083244594], [51.74650489531112, 43.04958019717306], [51.75152121569801, 43.04666689589332], [51.75521458227855, 43.04309007291194], [51.75959052457006, 43.039855692006135], [51.7631745890059, 43.03622423209579], [51.76621510474209, 43.032320272882785], [51.76921369405838, 43.02839539853699], [51.77121389830224, 43.02396992626558], [51.77474469011184, 43.020312190949824], [51.77731664940081, 43.01617369525778], [51.77895827700515, 43.01156872799894], [51.783142320876365, 43.008238952977884], [51.78627441728126, 43.0043817107198], [51.78753319925169, 42.999585095696446], [51.78943191822426, 42.99510951596489], [51.789275415496306, 42.9896032050504], [51.79253886499529, 42.98581233650044], [51.79709312201452, 42.982668986842384], [51.801706664362165, 42.97955542317518], [51.803026549745994, 42.97479011970629], [51.803524034217986, 42.969612411218826], [51.80421178756452, 42.96453017539141], [51.80648386172389, 42.96024272172681], [51.80839623228842, 42.95577494336277], [51.81242611986077, 42.95236945811497], [51.81652946322333, 42.949000899051185], [51.820087744599455, 42.945359038354205], [51.82430358035386, 42.94204706934043], [51.82730293158095, 42.9382241898517], [51.829848216438315, 42.93420447721966], [51.8316765824221, 42.929825309576096], [51.83315755442645, 42.92527199986261], [51.83378216551338, 42.92028923318683], [51.83648012208473, 42.91634652732382], [51.84167516063442, 42.9136564012033], [51.844859053700254, 42.90995762738736], [51.847818944873, 42.90614661092873], [51.851074940476984, 42.902484205163496], [51.85463308143029, 42.8989734299471], [51.8591014246005, 42.89591920151854], [51.86159538293256, 42.89187493910624], [51.86597990953374, 42.888778841497796], [51.86912972061598, 42.88506367333852], [51.87273541453859, 42.88157720065456], [51.87560524924128, 42.877721848571476], [51.87830680683205, 42.87378222585559], [51.881089958361635, 42.86988362313367], [51.88313336294135, 42.865614203916486], [51.88464447993591, 42.86107797639973], [51.88647497126463, 42.85670198934406], [51.888623771366525, 42.852485721140745], [51.892322564785005, 42.84904681705504], [51.89569330201081, 42.84544350261303], [51.89931544385008, 42.84196634495776], [51.902354733912745, 42.83819703255217], [51.92227608983741, 42.84289011706819], [51.91170021482046, 42.832296639200194], [51.918553385968494, 42.8304395157614], [51.93287845347487, 42.83232660382261], [51.98915309089674, 42.85050191868138], [52.003242303826624, 42.85421253012628], [52.01795561082559, 42.85835975035399], [52.032927929929876, 42.68865005826844], [52.053964737712754, 42.69728251747389], [52.14192506476711, 42.753039122151065], [52.14838453382632, 42.75137503061471], [52.14012957103536, 42.739360106428705], [52.13192553569225, 42.727378103240994], [52.15089187494606, 42.73451681719591], [52.15899026076486, 42.734006563715454], [52.1703746468618, 42.735806563506145], [52.175333321675815, 42.733087507690016], [52.17309278586749, 42.72530642486116], [52.19635088199981, 42.73545169429343], [52.192970831870774, 42.72687202729988], [52.19720205059115, 42.7236419219992], [52.186035984077456, 42.70958742184914], [52.20914345066628, 42.719627015518654], [52.225033350386546, 42.72458780989435], [52.21837718200005, 42.71370960378453]]}, "properties": {"year": 2023, "sensor": "COPERNICUS/S2_SR_HARMONIZED", "scale_m": 30, "n_scenes": 60, "date_window": ["2023-07-01", "2023-08-01"], "otsu_threshold": 0.0743, "data_quality": "good", "length_km": 502.3}}]}