{"type": "FeatureCollection", "crs": {"type": "name", "properties": {"name": "EPSG:4326"}}, "features": [{"type": "Feature", "geometry": {"type": "MultiLineString", "coordinates": [[[50.240762552919165, 44.485324530626905], [50.24124562486852, 44.477065998439535], [50.242122083028185, 44.46928401165945], [50.24295862485181, 44.46145396284925], [50.24403164090046, 44.45391060302972]], [[50.24086691010965, 44.48611831045681], [50.24130920217059, 44.48089951735562], [50.24130606853268, 44.47546442309072], [50.24187620039355, 44.470307776738025], [50.242573147326134, 44.46521277502774], [50.2431815452487, 44.460074809439035], [50.243864722801, 44.45497321965721], [50.24345361248448, 44.4493400059933], [50.24279506240792, 44.44358651339802], [50.24577207737328, 44.43959967015829]], [[50.32225932364017, 44.32927969952145], [50.329287627987355, 44.32691093060417], [50.33465726712668, 44.3238925678382], [50.33985240370578, 44.32080584903099], [50.34753297926312, 44.31869195877231], [50.35693829953602, 44.31725268881028], [50.36276146955275, 44.3144113534656], [50.37081805960677, 44.31244364410926], [50.37741852329364, 44.30990606029363], [50.380752792502186, 44.306090941644825], [50.43486856896155, 44.297132936664006], [50.44394348450819, 44.29728057850719], [50.45225377979552, 44.29690238165008], [50.46067814106733, 44.296601966098756], [50.46809567666068, 44.29560982911736], [50.47725021570737, 44.295809565069995], [50.48457765721256, 44.294754779366436], [50.492149282193786, 44.293946783799505], [50.49913977045247, 44.29398330278857], [50.530357144738396, 44.29139717286104], [50.53671316235134, 44.29109586995555], [50.54377733082201, 44.29183825644801], [50.550266215279194, 44.291732058237045], [50.55650355239991, 44.291254844196146], [50.56229863900152, 44.29012584665339], [50.56870051416944, 44.28989073930933], [50.57415680587946, 44.288262660614514], [50.58072932633387, 44.28827853620575], [50.58720952413251, 44.288158100153936], [50.612244566312064, 44.285482301470985], [50.61837417913577, 44.28423017561229], [50.62448888253331, 44.28286567587366], [50.63050196006386, 44.28072640574624], [50.6365789292143, 44.27907801067359], [50.642899209492064, 44.279288285616396], [50.649093377818595, 44.27853645236671], [50.65531292402354, 44.27797878427689], [50.661364665980166, 44.27614442449496], [50.667576540967886, 44.27553051573252], [50.67035872007184, 44.27500478281309], [50.67641325396613, 44.27369704937997], [50.68224472218935, 44.27134150161813], [50.68038596026362, 44.2733423060888], [50.676992106875765, 44.27348189217362], [50.67389807481537, 44.27503199807154], [50.67046609589504, 44.27499250369809], [50.66716212524734, 44.27555543086668], [50.66385809205735, 44.27611826222163], [50.66054303553434, 44.27662937761775], [50.6467773680458, 44.278723142681365], [50.64669533937481, 44.27877412450604], [50.646612498912596, 44.278824420325556], [50.646424955721535, 44.278786229011715]], [[50.60977170431179, 44.21238936632783], [50.62017746890082, 44.208361918831386], [50.60419164395782, 44.18754248081535], [50.614811633995814, 44.190339690563306], [50.596776523229664, 44.167693029178736], [50.600662637701134, 44.16451323794656], [50.60540742438588, 44.16209642827602], [50.61022190908543, 44.159741668392726], [50.5969237659653, 44.16760797645369], [50.60002996165537, 44.16465338169261], [50.601043219397425, 44.16080538582959], [50.60769139684396, 44.16023389490651], [50.61291400704262, 44.1588333792782], [50.61419582851128, 44.155141938364395], [50.618559690673834, 44.15324228265578], [50.60980841545194, 44.14312491776037], [50.6269596070826, 44.14766776954816], [50.630829431131055, 44.14574436334506], [50.63079065750962, 44.14577949422578], [50.63171431482326, 44.14433295105512], [50.63153084820187, 44.142266012921795], [50.63542046178803, 44.14248152108144], [50.6402384271709, 44.142496297975626], [50.64616181348616, 44.1404166405366], [50.65218840146496, 44.13839471337255], [50.656680385999344, 44.13694698959681], [50.65946765331605, 44.135442309665805], [50.70825984705112, 44.153549878167176], [50.71523723257055, 44.151948791596936], [50.72054979442611, 44.149316142255664], [50.73138726759712, 44.15010572340641], [50.737124593599425, 44.14773591828449], [50.74776515432956, 44.14877429066607], [50.753057688930745, 44.146127351380045], [50.766928252122305, 44.148789538540825], [50.776021862642345, 44.148494072833536], [50.78152650418973, 44.145977831548855], [50.75452287689504, 44.12235803185569], [50.780292416644606, 44.13275029930495], [50.789769707389304, 44.132786937136316], [50.81114143966944, 44.14037347549093], [50.81694394321474, 44.138074859095624], [50.82069747587897, 44.134476021022465], [50.795649105249524, 44.11259121009643], [50.73990103369, 44.07115841831934], [50.73789488138679, 44.063903930554126], [50.8477253786705, 44.127721191430076], [50.739873614380585, 44.06445051152698], [50.75655022496374, 44.06681039655196]], [[50.905658162616746, 44.012043879947115], [50.91205491785534, 44.01146197379005], [50.91874270113756, 44.00927730219898], [50.925675070429804, 44.00574245068142], [50.93253891264664, 44.00258033579167], [50.94004117644282, 43.99589238373505], [50.94754846123231, 43.9887718587759], [50.94581703176872, 43.990433551001374], [50.944242259099205, 43.99123014620572], [50.942575060477814, 43.99253647586012], [50.87305390568021, 44.06566883990377], [50.87353794521939, 44.06153312815723], [50.87070138802009, 44.056356673599176], [50.86971545688902, 44.051760144758134], [50.86951615891821, 44.047410173592894], [50.86828091847434, 44.042735384075655], [50.86829351059273, 44.038451803431606], [50.86787575097965, 44.03403326612127], [50.87013268318196, 44.03045350087644], [50.872581652989496, 44.027800206525185], [50.87019305953761, 44.03031633229257], [50.87207998617797, 44.028558424234156], [50.872639941360475, 44.026520061398955], [50.87265859688331, 44.02436729688983], [50.87507259950663, 44.02196016379563], [50.88078193522123, 44.01875418533957], [50.88639726188169, 44.01552818888833], [50.8912289360588, 44.01213651889893], [50.90837325981016, 44.011344301556676], [50.91921881227644, 44.00922096310285], [50.941393661375436, 43.99365412737914], [50.94593262397631, 43.990605381110406], [50.94900120801578, 43.98655590342062], [50.951153909266544, 43.98188317316182], [50.955297712837854, 43.9785660033687], [50.95957896104954, 43.975342548279656], [50.96338615193495, 43.97179658831255], [50.96677737162977, 43.96796768961524], [50.97070886045573, 43.96450669435422], [50.96688121550911, 43.96792551122045], [50.9708401970734, 43.96439864251198], [50.975544147977494, 43.96115923175719], [50.979106372400096, 43.95747936615621], [50.98166002662251, 43.95341047063], [50.984883917352064, 43.94960021338658], [50.987840272256975, 43.94568681530057], [50.991394218492815, 43.94200401204825], [50.99329786204606, 43.937684665353416], [50.994601790894336, 43.933142855720966], [50.99206055775058, 43.940337175948684], [50.994002292540614, 43.93602503530938], [50.99515334062582, 43.931613258645974], [50.995772820377425, 43.927134502276104], [50.99676403558567, 43.92270259711549], [50.997626261407284, 43.918254443191], [50.997934991800705, 43.913736541208664], [50.99813448279584, 43.909204872713865], [50.99829876456319, 43.90466731535083], [50.99936762047751, 43.90023820573774], [51.003229174659914, 43.889056135404154], [51.005001235988125, 43.88477622782523], [51.00542175605958, 43.88011807095918], [51.00731063839093, 43.875870939467355], [51.00779707778829, 43.871231286912305], [51.009170178695484, 43.866839855288866], [51.01148779231031, 43.86271285706319], [51.012279012980635, 43.858158616897896], [51.01306895287184, 43.853604042764886], [51.01773385422853, 43.83462523985241], [51.01994753705769, 43.830764427104036], [51.02255433719048, 43.82707780763021], [51.0235701274686, 43.821977139496404], [51.024784314906235, 43.817002005089485], [51.02404555773691, 43.810792112293676], [51.02731603952692, 43.80711741712376], [51.02997365474114, 43.803055353605664], [51.03080018834439, 43.79783557508488], [51.03409670501135, 43.794177850382376], [51.03774298866188, 43.790614318100666], [51.0413917133461, 43.7871823142007], [51.044554011181006, 43.78344159959976], [51.04884586164458, 43.780418238398724], [51.05226902627435, 43.776843462009545], [51.055518886150026, 43.77315880955721], [51.05969543123553, 43.77006264612017], [51.063583700988154, 43.76678359416311], [51.06721641608175, 43.763342447086956], [51.070488925402536, 43.759672786208014], [51.047881420413844, 43.78101627906419], [51.05605841803013, 43.77282517621072], [51.061603319476, 43.768712964602706], [51.06624932762615, 43.76461065839896], [51.06981527588271, 43.76052042728575], [51.07188529667705, 43.75644710727353], [51.07273914126274, 43.75238759798461], [51.07600462656649, 43.748300573479774], [51.126600811763154, 43.671003159014546], [51.13130137807115, 43.66508024393242], [51.135608540146514, 43.657721071725], [51.14005659990067, 43.650881037441636], [51.145087250811095, 43.64617544037414], [51.11222990830335, 43.697099728379214], [51.113946278692936, 43.694401527455206], [51.115044042039656, 43.69142578974937], [51.115507631323105, 43.688491809864125], [51.11619876489339, 43.68688734989907], [51.118882265463625, 43.68617693562428], [51.11744584858605, 43.683617802155084], [51.11803135134467, 43.681965975006676], [51.11876982759228, 43.68038280723479], [51.11971824817174, 43.67889386643445], [51.075102139987976, 43.750424064879944], [51.07654279374145, 43.74628932947414], [51.0771613191381, 43.74543800375498], [51.07716618051261, 43.744835271512606], [51.07762314126197, 43.744049385916654], [51.07784808148737, 43.74335749189154], [51.07808168966028, 43.74266208355905], [51.07744986456622, 43.74430352056999], [51.13719391579413, 43.65420535555611], [51.13878367623337, 43.65237053690317], [51.140649105886766, 43.65063247638639], [51.14232016716506, 43.64882621075949], [51.144263534717396, 43.64711551695776], [51.14502787948127, 43.64499107503164], [51.14790321877267, 43.64360745200154], [51.1492144020167, 43.64167493883102], [51.15117073965554, 43.63996882695883], [51.16203100160271, 43.62883654657093], [51.170921800788506, 43.6298300029991], [51.17693628366373, 43.62952969891915], [51.18157194709212, 43.62860936218184], [51.18499656135181, 43.62797972283859], [51.187298713616, 43.627510269199014], [51.18893462856817, 43.6267413751765], [51.19077605356075, 43.62606483153369], [51.192387640293234, 43.625284992701665], [51.194244793689634, 43.624615498608556], [51.21085975136233, 43.61778461135297], [51.21141001757657, 43.617354580611696], [51.211885160966, 43.616877531291124], [51.212115235768145, 43.61624709120759], [51.21262134945724, 43.615789432776666], [51.21286267948921, 43.61516604341314], [51.21298476288491, 43.614468016850054], [51.21445606159193, 43.61461449197238], [51.21822678509901, 43.61267801560431], [51.21852213459482, 43.60698611465374], [51.21284166798821, 43.61523680086455], [51.21863261410197, 43.61242316617264], [51.21817300734824, 43.60767626282437], [51.213349139954, 43.60165758885107], [51.21959751863427, 43.5989979956696], [51.222024456625626, 43.595455437876375], [51.23019718695809, 43.593586812203434], [51.23304069441981, 43.5901656121692], [51.25471532884843, 43.59222730894502], [51.227044069786864, 43.59451116447212], [51.233066847770246, 43.59104194540391], [51.2775883036738, 43.5901832330226], [51.26536626093633, 43.58547685624589], [51.27653736013444, 43.58235429430098], [51.29939489041809, 43.58001972939173], [51.28956186252851, 43.575477064579076], [51.2907836190614, 43.571680726976595], [51.284724317193636, 43.56739236839009], [51.29844574414707, 43.56444036060926], [51.32740921399381, 43.52805964804856], [51.3289592928453, 43.51757842660667], [51.32972308770787, 43.51621258065547], [51.33345258557789, 43.50272586888088], [51.32835226406811, 43.519287130820956], [51.33095227832264, 43.51771656756592], [51.33279759347623, 43.51350908872953], [51.332853185655665, 43.50896860557485], [51.33241859568931, 43.50433689783836], [51.33578297967571, 43.500412163576996], [51.33800611194804, 43.49627505882288], [51.339185897467914, 43.48706083518076], [51.33715482385056, 43.48159804190152], [51.33786859122869, 43.477278258052614], [51.31128776960078, 43.46158504977393], [51.312985838106705, 43.45767509465003], [51.31404218688975, 43.45349766287493], [51.314677904409635, 43.449144902417615], [51.314538049370945, 43.44446878393973], [51.31468779389103, 43.43991341618674], [51.31494154332197, 43.43540142668925], [51.31636415036837, 43.42251813022938], [51.31687818686864, 43.41815733039875], [51.31678149013477, 43.413426331628806], [51.31583091261393, 43.40762883623883], [51.31542039443563, 43.40153334342783], [51.31510015538731, 43.39549253846444], [51.315219514099894, 43.38971829809157], [51.31579543271036, 43.384220985515284], [51.31575240610275, 43.37834828099767], [51.315322180561715, 43.372240665248086]], [[51.308370798940544, 43.32178264801457], [51.30748794494548, 43.31750881883402], [51.30607174197409, 43.31315790886301], [51.304806942844074, 43.308828824959065], [51.30349152538472, 43.30449238192115], [51.30184128692222, 43.300107497583426]], [[51.42580026490775, 43.16118809013944], [51.43383117799967, 43.16053526773235], [51.445541738313096, 43.16237744040368], [51.42174201989066, 43.16097087731016], [51.433729770883254, 43.16064789249142], [51.454974943988496, 43.16398483196503], [51.47311454646648, 43.166089667752445], [51.48076964136286, 43.164049221581166], [51.517732168711284, 43.17358043486023], [51.57054498379636, 43.18056197565909], [51.583962344847095, 43.18335980652681], [51.59489436327614, 43.18452193308277], [51.606652680971344, 43.186225640553424], [51.61748396789082, 43.18731882696108]], [[51.651714276424514, 43.18260113560349], [51.654209168406645, 43.181204408800866], [51.64254653956639, 43.174285418874746], [51.647414297414066, 43.172185420098664], [51.654861312887626, 43.17083715032847], [51.6585934461742, 43.16840586157571], [51.66343960909171, 43.166299189549854], [51.66552996337482, 43.16338939228351], [51.666113381364916, 43.15985575665096], [51.664304916520464, 43.15576520145611], [51.66771281308383, 43.153505510785514], [51.66854541263416, 43.15093268683031], [51.66912006770216, 43.14670577545972], [51.66911060504046, 43.14208428154946], [51.67101606420262, 43.138032510108], [51.68195129753935, 43.13666675161776], [51.66983853055898, 43.12844482608653], [51.6709656544974, 43.124161560171075], [51.67079568026561, 43.11996537621205], [51.66302696026169, 43.11311688141424], [51.6569701234622, 43.10675989690402], [51.66086809175578, 43.1032667389381], [51.6656772546933, 43.10003569799195], [51.66942088041693, 43.09667161350538], [51.6731933310111, 43.093456333349444], [51.677601295757164, 43.0904238124941], [51.6820637224156, 43.08740690938286], [51.686465096908236, 43.08437240543942], [51.69212013790944, 43.08299284336615], [51.696846747678215, 43.08004885709233], [51.701261889175406, 43.07702287571066], [51.706332135882, 43.07416912123733], [51.7137615935732, 43.07193557288518], [51.71753367424502, 43.06874026370237], [51.72304988264501, 43.066003396092206], [51.72767774778885, 43.06303292585769], [51.73275254493852, 43.06017983412082], [51.73727083929705, 43.05718042412878], [51.76106464473089, 43.038066589409475], [51.765080236271395, 43.03452188849914], [51.76795280513236, 43.03018350882892], [51.77078141346007, 43.02606595951319], [51.77345282502649, 43.02179714757197], [51.777081134946386, 43.018451168451406], [51.77827878119275, 43.012762069480786], [51.781753208488276, 43.009268339102626], [51.78548289421883, 43.00602097292845], [51.79018486627968, 42.989659263845084], [51.793258067640636, 42.98730295878887], [51.79669486817006, 42.982805097783675], [51.801648966576366, 42.98022030294959], [51.80282143776125, 42.976095682334446], [51.8036139884949, 42.97173822040142], [51.804029357601536, 42.966844744467046], [51.80513233236213, 42.962846613580126], [51.807337491360734, 42.956641237529325], [51.81165529843864, 42.95343974207552], [51.83106545815302, 42.93195362497516], [51.83263144791757, 42.928882233425774], [51.833847731317654, 42.92442519608917], [51.8349074997132, 42.91934837661769], [51.83665055963287, 42.91698080647577], [51.83838343505988, 42.914573368048416], [51.8408392417355, 42.91431284642971], [51.84413238984186, 42.910339606266156], [51.8475292579059, 42.90677884922275], [51.85077576029662, 42.90262392138745]], [[51.86008696902287, 42.8949225974658], [51.863800688891104, 42.89084976981844], [51.86772137784752, 42.887013816438945], [51.857970433249115, 42.89706219959985], [51.86014060433827, 42.89274041862759], [51.86472726158465, 42.889907989680545], [51.86825385398877, 42.88642240822924], [51.871601728782615, 42.882826835109576], [51.874750252716225, 42.879108562760074], [51.87782144556655, 42.87534278502717], [51.880451198717005, 42.871305140083315], [51.88278877014662, 42.86708759931992], [51.88445980056018, 42.86245946347352], [51.89477654316618, 42.84702184619398], [51.898278053909884, 42.84316552064323], [51.901978064691576, 42.83947772540255], [51.90578512459696, 42.83588092656017], [51.91060325820665, 42.83314139085169], [51.916225559741704, 42.83108358142063], [51.92419167936135, 42.83101197863863], [51.92930787549922, 42.831590906189405], [51.93424630070292, 42.832486690418314], [51.939486597363164, 42.833637834408684], [51.951067139436, 42.83752139791265], [51.961812088648905, 42.841463336016844], [51.97496035627362, 42.84628265821595], [51.98689511272643, 42.85002425746438], [51.99796444303475, 42.85299735918703], [52.009397901867594, 42.85629064048264], [52.01992152843244, 42.85877693133171], [52.030793551704626, 42.86156959299676], [52.04173622205308, 42.86442281155785], [52.029088389621116, 42.86126616758235], [52.05129582986878, 42.86694557071355], [52.06888410542035, 42.87061441800701]], [[52.025495105854084, 42.773501050276856], [52.040395945340194, 42.77991864891292], [52.06861754752423, 42.7913030631564], [52.05567272432656, 42.77238852434396], [52.07747824611658, 42.78507735410927], [52.09918593920635, 42.776251506772454]], [[52.0842600784893, 42.7826930485978], [52.04732947683455, 42.776331390220435], [52.055645770642045, 42.77240211267476], [52.05971418234803, 42.770772478602], [52.06425913005598, 42.76916683826827], [52.06323782454603, 42.76727931775175], [52.04675682174437, 42.764607750065366]]]}, "properties": {"year": 2021, "data_quality": "good", "length_km": 398.8, "spatial_outliers_removed": 31, "n_segments": 11}}]}