{"type": "FeatureCollection", "features": [{"type": "Feature", "geometry": {"type": "Polygon", "coordinates": [[[51.185, 43.653], [51.185, 43.717999999999996], [51.23653741497902, 43.699187374982756], [51.19466326530857, 43.649472632809264], [51.185, 43.653]]]}, "properties": {"zone_id": 1, "sector_deg": 0, "frequency": 0.16, "risk_level": "medium", "distance_km": 7.7}}, {"type": "Feature", "geometry": {"type": "Polygon", "coordinates": [[[51.1956066017178, 43.648606601717795], [51.241568542494925, 43.69456854249492], [51.2647084633898, 43.64482355215682], [51.19994533688559, 43.6392794160294], [51.1956066017178, 43.648606601717795]]]}, "properties": {"zone_id": 2, "sector_deg": 45, "frequency": 0.2, "risk_level": "high", "distance_km": 7.7}}, {"type": "Feature", "geometry": {"type": "Polygon", "coordinates": [[[51.2, 43.638], [51.265, 43.638], [51.24618737498276, 43.58646258502098], [51.19647263280927, 43.62833673469143], [51.2, 43.638]]]}, "properties": {"zone_id": 3, "sector_deg": 90, "frequency": 0.18, "risk_level": "high", "distance_km": 7.7}}, {"type": "Feature", "geometry": {"type": "Polygon", "coordinates": [[[51.1956066017178, 43.6273933982822], [51.241568542494925, 43.581431457505076], [51.191823552156826, 43.5582915366102], [51.18627941602941, 43.62305466311441], [51.1956066017178, 43.6273933982822]]]}, "properties": {"zone_id": 4, "sector_deg": 135, "frequency": 0.09, "risk_level": "low", "distance_km": 7.7}}, {"type": "Feature", "geometry": {"type": "Polygon", "coordinates": [[[51.185, 43.623], [51.185, 43.558], [51.133462585020986, 43.57681262501724], [51.175336734691435, 43.62652736719073], [51.185, 43.623]]]}, "properties": {"zone_id": 5, "sector_deg": 180, "frequency": 0.1, "risk_level": "low", "distance_km": 7.7}}, {"type": "Feature", "geometry": {"type": "Polygon", "coordinates": [[[51.174393398282206, 43.6273933982822], [51.12843145750508, 43.581431457505076], [51.1052915366102, 43.631176447843174], [51.17005466311441, 43.63672058397059], [51.174393398282206, 43.6273933982822]]]}, "properties": {"zone_id": 6, "sector_deg": 225, "frequency": 0.2, "risk_level": "high", "distance_km": 7.7}}, {"type": "Feature", "geometry": {"type": "Polygon", "coordinates": [[[51.17, 43.638], [51.105000000000004, 43.638], [51.123812625017244, 43.689537414979014], [51.17352736719074, 43.647663265308566], [51.17, 43.638]]]}, "properties": {"zone_id": 7, "sector_deg": 270, "frequency": 0.05, "risk_level": "low", "distance_km": 7.7}}, {"type": "Feature", "geometry": {"type": "Polygon", "coordinates": [[[51.174393398282206, 43.648606601717795], [51.12843145750508, 43.69456854249492], [51.17817644784318, 43.7177084633898], [51.1837205839706, 43.65294533688559], [51.174393398282206, 43.648606601717795]]]}, "properties": {"zone_id": 8, "sector_deg": 315, "frequency": 0.19, "risk_level": "high", "distance_km": 7.7}}]}