{"type": "FeatureCollection", "features": [{"type": "Feature", "geometry": {"type": "Polygon", "coordinates": [[[50.53632414259166, 44.304466195430635], [50.54235449622204, 44.30479657069179], [50.551568676535375, 44.30504291757205], [50.55984022694556, 44.30388607078392], [50.56434609121246, 44.30320057583303], [50.57197871942906, 44.30300261193483], [50.57729021627895, 44.301683011352004], [50.58159714203076, 44.301674229817856], [50.589085005278484, 44.301150193462085], [50.6166168337904, 44.29849154284419], [50.62426204117339, 44.296574236938774], [50.631010525404434, 44.295032576330236], [50.63700652166489, 44.29317558802489], [50.653452570276556, 44.289494939142045], [50.67167674528113, 44.20085152404528], [50.69131079055316, 44.204555088172704], [50.68800204078379, 44.19164290513675], [50.71984767498921, 44.18588192307256], [50.7189014382323, 44.1850611353048], [50.72577755903245, 44.184026379777436], [50.71792485036507, 44.17744242653514], [50.720067078719936, 44.17708209717577], [50.78857904329295, 44.2056814043468], [50.77270547848349, 44.17535081667821], [50.78254006790502, 44.178386510410455], [50.79156719372571, 44.17385341362124], [50.81214699402792, 44.17379791278205], [50.81294085603162, 44.16811949922], [50.825881095825366, 44.16790546278064], [50.82557496694224, 44.16532341206975], [50.84358891352789, 44.154904572305696], [50.84357333125124, 44.15470802806651], [50.84394024751162, 44.154684088681314], [50.85481836154437, 44.14058274302525], [50.85466461406036, 44.13967908622165], [50.85851415403463, 44.13696106005791], [50.859643131385376, 44.136335926936795], [50.87261775512044, 44.1331469650919], [50.87596855973567, 44.12647943662208], [50.889097784628035, 44.121498184504574], [50.890461840225804, 44.10931079119251], [50.89117437208155, 44.104457860030266], [50.89189264387388, 44.09918203793643], [50.89220370909546, 44.09563532501922], [50.91661597343096, 44.04356209681401], [50.95498048371325, 44.00281198306417], [50.98039029801703, 44.008335088686735], [51.002709398937384, 43.95965728690255], [51.05003068889077, 43.92691085835968], [51.025073507869266, 43.90786153580093], [51.02246773228531, 43.909624668091745], [51.036412788059245, 43.8713176952132], [51.02740978183322, 43.86957936383048], [51.029089088438134, 43.86648368692386], [51.03130700998234, 43.8587594020473], [51.03046887739972, 43.8538300171227], [51.03531004806064, 43.83794208199349], [51.03656550039902, 43.83520399777639], [51.037824472913535, 43.83319492503005], [51.04407388177995, 43.82678135039205], [51.043374169149445, 43.81906837848987], [51.0588607446184, 43.79199364050238], [51.061572371110806, 43.78950016999996], [51.062657163796715, 43.788774315674395], [51.0639230193684, 43.787338415706586], [51.070203372944626, 43.781561735430614], [51.07444754411876, 43.77839113687882], [51.07540764786568, 43.77726609336137], [51.08101124600241, 43.77245062714211], [51.08369012259142, 43.76915165621414], [51.142565993949404, 43.714896896361964], [51.13660729126408, 43.711482639743416], [51.22142913724353, 43.62916287203934], [51.30118856536612, 43.63952238691138], [51.30641636950088, 43.625944365394204], [51.23780720884837, 43.606650146992855], [51.23684828989044, 43.60477587614526], [51.341978185044255, 43.625119506263424], [51.29940671115491, 43.596016486378986], [51.30142994474372, 43.58896614346446], [51.3020696586461, 43.585529789148445], [51.30258025726535, 43.585111912495485], [51.32236842108236, 43.588576328665575], [51.34559879716968, 43.523505340241684], [51.34621852063397, 43.522411797380585], [51.34913395078816, 43.517040417822415], [51.35103042158161, 43.51003388664542], [51.35090469203491, 43.506520089412696], [51.35104033352651, 43.50598396520689], [51.35115145733847, 43.505737977707525], [51.35534517565114, 43.500600855908715], [51.35784443625374, 43.4853296032905], [51.3567923365485, 43.48324030750352], [51.35889385568271, 43.47492651736126], [51.35992923370623, 43.47289530290841], [51.35947483422297, 43.47262771055417], [51.36828340831165, 43.437752538762105], [51.33520495250884, 43.43286523182812], [51.33268486484158, 43.441148358994056], [51.33271892552537, 43.440509002367044], [51.33317803712807, 43.43626236350844], [51.334328957050154, 43.42322652762906], [51.33486762895187, 43.418708029740756], [51.33489022577956, 43.41829875416876], [51.577231951231816, 43.19601048148576], [51.58011398750669, 43.19662125076415], [51.59196480745952, 43.19784980665545], [51.638215666226394, 43.20385850578765], [51.61491082203663, 43.16767285923172], [51.6574488974763, 43.178727541191805], [51.66578981746688, 43.17248053550872], [51.681592479141784, 43.16893157729477], [51.68155673488213, 43.1614461781008], [51.685215303917275, 43.1604543944328], [51.687056952613865, 43.14575989320988], [51.68621523641882, 43.14273008293044], [51.68813117172442, 43.13921325041724], [51.6866969258551, 43.131365817938395], [51.686573692154084, 43.129620760093104], [51.688147214398214, 43.125944658502256], [51.68832195520966, 43.11517483818784], [51.68064877396863, 43.10783698649148], [51.68342239771175, 43.10542254300607], [51.68670566310408, 43.10263160256169], [51.690505229215844, 43.09982921084776], [51.69383043329587, 43.09732734386608], [51.69548641481632, 43.09637977545923], [51.702481872455344, 43.09456050677468], [51.708347534321675, 43.08986059461663], [51.71192765121713, 43.08789797959151], [51.71610197199238, 43.085731431146655], [51.72367777823698, 43.08280184614037], [51.733150165999284, 43.07628766658745], [51.73808401367055, 43.073902356886556], [51.74324199811449, 43.07093129321896], [51.75010326813148, 43.067445043868595], [51.77479904968489, 43.04667352981148], [51.780228122720736, 43.04199565096613], [51.78488184167841, 43.035574452483445], [51.78697026099609, 43.03111797918779], [51.78905578774511, 43.028498084708886], [51.794942665363195, 43.02137615007834], [51.794825446975494, 43.01841020779348], [51.80185884214803, 43.014964868943764], [51.810886203493055, 42.99138910265594], [51.8200161949216, 42.9887263456067], [51.81965190207327, 42.97943825346929], [51.81978145683158, 42.97935357847064], [51.828143738573104, 42.958893460709554], [51.84756091188679, 42.93798816973192], [51.8503598482633, 42.932186865368195], [51.85219564065343, 42.925145860250595], [52.010111056821565, 42.870396049726565], [52.0437351972766, 42.87882343646888], [52.04759489521022, 42.87965222303016], [52.122215461050494, 42.8979116596411], [52.13357087668284, 42.87352432319256], [52.1095313057193, 42.8672867796988], [52.11839955716646, 42.86203580220281], [52.12134533748782, 42.858783076012564], [52.1280648117598, 42.855783772036], [52.130780326968505, 42.851257402576515], [52.13730447619201, 42.84843433941509], [52.14415943042475, 42.8445641386956], [52.148187866856354, 42.84146933212258], [52.15322592171389, 42.83883030594667], [52.1592978385416, 42.83409912782395], [52.16401320982999, 42.82963220047684], [52.1644175468257, 42.82919956832421], [52.1717562400984, 42.82772877696156], [52.17809112715268, 42.81859594655279], [52.18236849322792, 42.81972113636616], [52.19600123302107, 42.808747319097954], [52.20060972742464, 42.803265688292115], [52.20253986791734, 42.800865071111026], [52.21331994992133, 42.7942104521285], [52.213061757218725, 42.79073659817794], [52.233623080469684, 42.78522858249598], [52.22815128999288, 42.76663036759136], [52.24110851532451, 42.767880405686796], [52.239164272309296, 42.746251809123706], [52.237969992602586, 42.741530370760906], [52.23804988962265, 42.73844752209409], [52.23927994821415, 42.73057315623228], [52.234359119523084, 42.72242835003456], [52.234024728741986, 42.71933253777017], [52.21476455716959, 42.7204619263768], [52.19834490792774, 42.71728948787746], [52.19103546472929, 42.735795478972655], [52.180903797890984, 42.73481308002502], [52.186728079218426, 42.74669564522828], [52.17850846725292, 42.767485220817576], [52.17827240116584, 42.767510641074416], [52.17812189603475, 42.76846261366918], [52.17052398702277, 42.78766654847808], [52.17035729127503, 42.787873748630005], [52.158264219578555, 42.78468889853364], [52.14634178911053, 42.80482524816198], [52.14181043549459, 42.80573270444844], [52.13438628112558, 42.81367358859542], [52.13140773029323, 42.81649396465676], [52.12901847893745, 42.81835505261322], [52.124085075990926, 42.82093852695969], [52.11959654697817, 42.824385910046956], [52.116755551710945, 42.82598954199741], [52.10197949566565, 42.83238107763157], [52.09914963311959, 42.8370950605294], [52.09532501535969, 42.838801481012844], [52.09098126337163, 42.84359600210139], [52.08154853464104, 42.84917906477356], [52.080332789095124, 42.850420566210765], [52.07466166135719, 42.85018603590015], [52.03360524354091, 42.847600161040084], [52.025265355277654, 42.84562258386706], [52.007718997749876, 42.841348409924706], [52.00764677677692, 42.841373530520045], [51.946359792122024, 42.82629847962269], [51.934787215318565, 42.85147283782813], [51.96019784944722, 42.85786348476666], [51.83117585678741, 42.90255940209402], [51.818953263944984, 42.909119193567065], [51.814781761912776, 42.92508608491181], [51.814507166278894, 42.92565458487711], [51.79455999756491, 42.94711635421149], [51.78754612413449, 42.96425655259057], [51.782388952704224, 42.96762512134989], [51.78250369223944, 42.97059749944117], [51.780393387476735, 42.97121242979548], [51.77022373809724, 42.99774152464675], [51.75737069394556, 43.002365408666606], [51.75783042008167, 43.01418180939151], [51.75742083270029, 43.014676953664384], [51.75333954715904, 43.01980043214088], [51.75100738516288, 43.024771399127495], [51.74959570896032, 43.02671783095374], [51.74690015168239, 43.02903939122474], [51.72535572648962, 43.04715436724122], [51.72135371610941, 43.049187290963346], [51.71652852981004, 43.05196615446817], [51.710241412148385, 43.05500501734082], [51.70209428421554, 43.06060679819948], [51.696778675117336, 43.06266189102425], [51.69024388502697, 43.066053034725144], [51.68350007784856, 43.069749092012934], [51.681496440993676, 43.07135420346173], [51.67752507361271, 43.07238664216169], [51.66917795827761, 43.077162140329655], [51.66423248512306, 43.08088200415551], [51.65964157694718, 43.084266921149734], [51.65536387981556, 43.08790181554367], [51.652085901391466, 43.09075414252061], [51.64125948555216, 43.09837300266562], [51.645384855404636, 43.11853073651676], [51.65055251937092, 43.12347624020263], [51.649400453882464, 43.12616365121723], [51.649938854033984, 43.133853525219614], [51.65028858397195, 43.13577357741564], [51.647871364343175, 43.14020490962364], [51.648274579942246, 43.14165982015268], [51.64411817738977, 43.14278536099917], [51.64427210525462, 43.146640346052386], [51.55956488715469, 43.12458428066877], [51.57459548558711, 43.16732713251379], [51.56372053014405, 43.165020321224006], [51.29835662888019, 43.40835753177142], [51.29787489527953, 43.41698875606997], [51.29737222672, 43.42118379907932], [51.29620372585346, 43.43432819176957], [51.29570474817, 43.43891768331186], [51.29541886309263, 43.444222992183725], [51.29564525225935, 43.448592700277636], [51.295235343122435, 43.45186258620817], [51.294737247119805, 43.45467127530195], [51.28961066088102, 43.46619830558514], [51.31676565873451, 43.482211494388046], [51.318892429993014, 43.4864411126558], [51.31492755879975, 43.499448532306396], [51.31363232239835, 43.502311678176845], [51.313675981803065, 43.5035533564703], [51.31037907156843, 43.51436358896982], [51.28346554518681, 43.555700984700664], [51.275591290282605, 43.56009152528534], [51.27286114851035, 43.568397552319134], [51.27267421116426, 43.56891342892199], [51.26821895792717, 43.57255769878936], [51.26572402917795, 43.57977858859791], [51.25908915184861, 43.581132207306716], [51.22683518297229, 43.57487280274374], [51.21596193372623, 43.58217540051861], [51.20805393957868, 43.5860347529511], [51.203799685128125, 43.59149957194478], [51.19932069040653, 43.595803502978924], [51.18576834695834, 43.591980028398275], [51.19025324870319, 43.60569023144107], [51.15984703115551, 43.6211237595968], [51.18049653959166, 43.623823346917014], [51.060067027203274, 43.740504946734134], [51.0532379093136, 43.74792874529308], [51.0527428091328, 43.75360866073898], [51.052413735774955, 43.75424780747195], [51.05216666031159, 43.75447297522252], [51.04766471934, 43.75842135667449], [51.04677628603776, 43.75946196934643], [51.046106467903904, 43.760078009318526], [51.0387272609829, 43.764436893087606], [51.0361969296107, 43.76861135055969], [51.03383123177559, 43.77129363411059], [51.02818140426057, 43.775072201156135], [51.00558144397939, 43.814544019909825], [51.00593638983093, 43.81848467680996], [50.997581538040905, 43.832238474248186], [50.99868864582511, 43.83272017059198], [50.992640765646634, 43.85252703108583], [50.993504363412285, 43.85762552674015], [50.993183182752546, 43.85874167810699], [50.99131804548819, 43.86217596222162], [50.98821968729637, 43.86898369270735], [50.98837993013684, 43.874001245225664], [50.98705725356477, 43.877212859779114], [50.98624223978293, 43.88139424677253], [50.98441789287136, 43.885110747887175], [50.980797699328164, 43.89707557287663], [50.97872129301495, 43.90295730862262], [50.978843007896145, 43.909177981957505], [50.978801827475905, 43.913446699994566], [50.97865994470987, 43.91714517090054], [50.977998280484215, 43.92078025424715], [50.977039058374054, 43.92536563795109], [50.976380917247326, 43.92971056032056], [50.97618684053513, 43.930532936850724], [50.97436426154313, 43.93538768653222], [50.974075159549244, 43.93610077553522], [50.97228951615376, 43.938005118607514], [50.96813872204347, 43.94233570524578], [50.964534361662245, 43.94733471977614], [50.962915993330355, 43.94987416079354], [50.92839964593089, 43.973163703122545], [50.903836618929, 43.96279441407839], [50.86472136898163, 44.010501397103795], [50.86137714202988, 44.0122403796128], [50.85403000384661, 44.01963996906827], [50.85369308089738, 44.023961974259684], [50.810060427231825, 44.08341681799036], [50.8388043175436, 44.0950339208885], [50.85297209091279, 44.077801871454284], [50.84973028867852, 44.106964344], [50.8442637021408, 44.11022537579528], [50.84348819072802, 44.11176722791008], [50.84169010291562, 44.11220892886343], [50.833875146277, 44.11653552964926], [50.83233611794613, 44.11762195870843], [50.81368196995646, 44.12081256806502], [50.815143452945804, 44.129439676794405], [50.80406683452969, 44.13015934436623], [50.80437092798744, 44.134028941362956], [50.783676108412266, 44.12933998923431], [50.78511537055943, 44.141558203768895], [50.77894027869194, 44.14165837113704], [50.778102650244506, 44.14762781309173], [50.74526778101046, 44.13748118976476], [50.742949146238026, 44.1532177845449], [50.73954203860444, 44.15398921018045], [50.726028740522366, 44.14834103145026], [50.68182693860708, 44.15577301276933], [50.67052926681265, 44.15868097664554], [50.631408429535995, 44.151393551156794], [50.65187319009421, 44.16918693658557], [50.64067568919053, 44.167069838437506], [50.61964367733333, 44.26914112273491], [50.61783948498923, 44.26969984312475], [50.61236661559205, 44.270949989155746], [50.607824161330896, 44.27208922452422], [50.58475795499198, 44.27431635278963], [50.57971685368501, 44.274669186553474], [50.570919347500656, 44.27468683030064], [50.56500198630123, 44.27615725663241], [50.55973811907977, 44.276293588321856], [50.55235026453428, 44.27741765155261], [50.548636042844336, 44.27793718702182], [50.54448484557449, 44.277826144083974], [50.53688795345478, 44.27740985761724], [50.52932285133473, 44.27766114456866], [50.53105812641582, 44.30464105020433], [50.53632414259166, 44.304466195430635]]]}, "properties": {"area_km2": 927.0, "period": "2000-2026", "note": "Индикативная полоса вдоль побережья, не векторизация MNDWI-маски по годам"}}]}