{"type": "FeatureCollection", "features": [{"type": "Feature", "geometry": {"type": "Point", "coordinates": [51.2806, 43.5995]}, "properties": {"object_id": 1, "name_ru": "Водозаборный канал МАЭК", "name_kk": "МАЭК су қабылдау арнасы", "name_en": "MAEK Water Intake Channel", "category": "water_supply", "criticality": 10, "nearest_transect_id": 329, "distance_to_shore_2000_m": 4123.9, "distance_to_shore_2010_m": 4150.5, "distance_to_shore_2020_m": 4308.4, "distance_to_shore_2026_m": 4605.3, "speed_m_per_year": -20.62, "risk_score": 82, "risk_level": "high", "risk_components": {"speed": {"raw": -20.62, "normalized": 41, "weight": 0.3}, "distance": {"raw": 4605.3, "normalized": 100, "weight": 0.25}, "criticality": {"raw": 10, "normalized": 100, "weight": 0.25}, "years_to_threshold": {"raw": 0, "normalized": 100, "weight": 0.2}}, "forecast": {"optimistic": {"2030": 4667.0, "2035": 4744.0, "2040": 4822.0}, "baseline": {"2030": 4688.0, "2035": 4791.0, "2040": 4894.0}, "pessimistic": {"2030": 4715.0, "2035": 4869.0, "2040": 5042.0}}, "description_ru": "Обеспечивает забор морской воды для опреснения. Питьевая вода Актау.", "description_kk": "Тұщыландыруға теңіз суын алуды қамтамасыз етеді.", "description_en": "Supplies seawater for desalination — Aktau's drinking water.", "recommendation_ru": "Требуется план поэтапного удлинения канала. Дноуглубление даёт временный эффект.", "recommendation_en": "Phased channel extension plan required; dredging is a temporary measure.", "source": "реальные спутниковые данные; координаты объекта — временные, см. README.md"}}, {"type": "Feature", "geometry": {"type": "Point", "coordinates": [51.2806, 43.6105]}, "properties": {"object_id": 2, "name_ru": "Энергоблоки МАЭК", "name_kk": "МАЭК энергоблоктары", "name_en": "MAEK Power Units", "category": "energy", "criticality": 9, "nearest_transect_id": 328, "distance_to_shore_2000_m": 4149.5, "distance_to_shore_2010_m": 4025.1, "distance_to_shore_2020_m": 4367.4, "distance_to_shore_2026_m": 4572.5, "speed_m_per_year": -28.58, "risk_score": 85, "risk_level": "high", "risk_components": {"speed": {"raw": -28.58, "normalized": 57, "weight": 0.3}, "distance": {"raw": 4572.5, "normalized": 100, "weight": 0.25}, "criticality": {"raw": 9, "normalized": 90, "weight": 0.25}, "years_to_threshold": {"raw": 0, "normalized": 100, "weight": 0.2}}, "forecast": {"optimistic": {"2030": 4658.0, "2035": 4765.0, "2040": 4873.0}, "baseline": {"2030": 4687.0, "2035": 4830.0, "2040": 4973.0}, "pessimistic": {"2030": 4724.0, "2035": 4937.0, "2040": 5178.0}}, "description_ru": "Тепловая и электрическая генерация, зависит от водозабора.", "description_kk": "Су қабылдауға тәуелді жылу және электр генерациясы.", "description_en": "Thermal and electric generation, dependent on the water intake.", "recommendation_ru": "Мониторинг совместно с водозаборным каналом.", "recommendation_en": "Monitor jointly with the intake channel.", "source": "реальные спутниковые данные; координаты объекта — временные, см. README.md"}}, {"type": "Feature", "geometry": {"type": "Point", "coordinates": [51.2207, 43.6018]}, "properties": {"object_id": 3, "name_ru": "Порт Актау", "name_kk": "Ақтау порты", "name_en": "Port of Aktau", "category": "port", "criticality": 8, "nearest_transect_id": 320, "distance_to_shore_2000_m": 4020.4, "distance_to_shore_2010_m": 4020.4, "distance_to_shore_2020_m": 4060.2, "distance_to_shore_2026_m": 4028.7, "speed_m_per_year": -0.54, "risk_score": 65, "risk_level": "medium", "risk_components": {"speed": {"raw": -0.54, "normalized": 1, "weight": 0.3}, "distance": {"raw": 4028.7, "normalized": 100, "weight": 0.25}, "criticality": {"raw": 8, "normalized": 80, "weight": 0.25}, "years_to_threshold": {"raw": 0, "normalized": 100, "weight": 0.2}}, "forecast": {"optimistic": {"2030": 4030.0, "2035": 4032.0, "2040": 4034.0}, "baseline": {"2030": 4031.0, "2035": 4034.0, "2040": 4036.0}, "pessimistic": {"2030": 4032.0, "2035": 4036.0, "2040": 4040.0}}, "description_ru": "Основной морской порт региона, грузовые и паромные перевозки.", "description_kk": "Аймақтың негізгі теңіз порты.", "description_en": "The region's main seaport, cargo and ferry traffic.", "recommendation_ru": "Периодический промер глубин на подходных каналах.", "recommendation_en": "Periodic depth surveys on approach channels.", "source": "реальные спутниковые данные; координаты объекта — временные, см. README.md"}}, {"type": "Feature", "geometry": {"type": "Point", "coordinates": [50.2487, 44.5482]}, "properties": {"object_id": 4, "name_ru": "Порт Баутино", "name_kk": "Баутино порты", "name_en": "Port of Bautino", "category": "port", "criticality": 8, "nearest_transect_id": 68, "distance_to_shore_2000_m": 5408.5, "distance_to_shore_2010_m": 5404.8, "distance_to_shore_2020_m": 5442.3, "distance_to_shore_2026_m": 5441.8, "speed_m_per_year": -1.82, "risk_score": 66, "risk_level": "medium", "risk_components": {"speed": {"raw": -1.82, "normalized": 4, "weight": 0.3}, "distance": {"raw": 5441.8, "normalized": 100, "weight": 0.25}, "criticality": {"raw": 8, "normalized": 80, "weight": 0.25}, "years_to_threshold": {"raw": 0, "normalized": 100, "weight": 0.2}}, "forecast": {"optimistic": {"2030": 5447.0, "2035": 5454.0, "2040": 5461.0}, "baseline": {"2030": 5449.0, "2035": 5458.0, "2040": 5467.0}, "pessimistic": {"2030": 5451.0, "2035": 5465.0, "2040": 5480.0}}, "description_ru": "Вспомогательный порт на полуострове Тюб-Караган.", "description_kk": "Түпқараған түбегіндегі қосалқы порт.", "description_en": "Auxiliary port on the Tyub-Karagan peninsula.", "recommendation_ru": "Отслеживать обмеление подходного канала.", "recommendation_en": "Track shoaling of the approach channel.", "source": "реальные спутниковые данные; координаты объекта — временные, см. README.md"}}, {"type": "Feature", "geometry": {"type": "Point", "coordinates": [51.199, 43.628]}, "properties": {"object_id": 5, "name_ru": "Набережная Актау", "name_kk": "Ақтау жағалауы", "name_en": "Aktau Waterfront", "category": "recreation", "criticality": 3, "nearest_transect_id": 319, "distance_to_shore_2000_m": 4261.7, "distance_to_shore_2010_m": 4261.7, "distance_to_shore_2020_m": 4250.4, "distance_to_shore_2026_m": 4266.4, "speed_m_per_year": -7.58, "risk_score": 57, "risk_level": "medium", "risk_components": {"speed": {"raw": -7.58, "normalized": 15, "weight": 0.3}, "distance": {"raw": 4266.4, "normalized": 100, "weight": 0.25}, "criticality": {"raw": 3, "normalized": 30, "weight": 0.25}, "years_to_threshold": {"raw": 0, "normalized": 100, "weight": 0.2}}, "forecast": {"optimistic": {"2030": 4289.0, "2035": 4318.0, "2040": 4346.0}, "baseline": {"2030": 4297.0, "2035": 4335.0, "2040": 4373.0}, "pessimistic": {"2030": 4307.0, "2035": 4363.0, "2040": 4427.0}}, "description_ru": "Городская рекреационная зона вдоль моря.", "description_kk": "Теңіз жағалауындағы қалалық демалыс аймағы.", "description_en": "Urban recreational zone along the sea.", "recommendation_ru": "Учитывать отступление берега при благоустройстве.", "recommendation_en": "Account for shoreline retreat in landscaping plans.", "source": "реальные спутниковые данные; координаты объекта — временные, см. README.md"}}, {"type": "Feature", "geometry": {"type": "Point", "coordinates": [51.196, 43.624]}, "properties": {"object_id": 6, "name_ru": "Городской пляж", "name_kk": "Қалалық жағажай", "name_en": "City Beach", "category": "recreation", "criticality": 3, "nearest_transect_id": 319, "distance_to_shore_2000_m": 4261.7, "distance_to_shore_2010_m": 4261.7, "distance_to_shore_2020_m": 4250.4, "distance_to_shore_2026_m": 4266.4, "speed_m_per_year": -7.58, "risk_score": 57, "risk_level": "medium", "risk_components": {"speed": {"raw": -7.58, "normalized": 15, "weight": 0.3}, "distance": {"raw": 4266.4, "normalized": 100, "weight": 0.25}, "criticality": {"raw": 3, "normalized": 30, "weight": 0.25}, "years_to_threshold": {"raw": 0, "normalized": 100, "weight": 0.2}}, "forecast": {"optimistic": {"2030": 4289.0, "2035": 4318.0, "2040": 4346.0}, "baseline": {"2030": 4297.0, "2035": 4335.0, "2040": 4373.0}, "pessimistic": {"2030": 4307.0, "2035": 4363.0, "2040": 4427.0}}, "description_ru": "Основной пляж города, сезонная нагрузка.", "description_kk": "Қаланың негізгі жағажайы.", "description_en": "The city's main beach, seasonal use.", "recommendation_ru": "Мониторинг ширины пляжной полосы.", "recommendation_en": "Monitor beach-strip width.", "source": "реальные спутниковые данные; координаты объекта — временные, см. README.md"}}, {"type": "Feature", "geometry": {"type": "Point", "coordinates": [51.2973, 43.5066]}, "properties": {"object_id": 7, "name_ru": "Rixos Water World Aktau", "name_kk": "Rixos Water World Aktau", "name_en": "Rixos Water World Aktau", "category": "tourism", "criticality": 4, "nearest_transect_id": 349, "distance_to_shore_2000_m": 369.4, "distance_to_shore_2010_m": 815.7, "distance_to_shore_2020_m": 1395.0, "distance_to_shore_2026_m": 1426.3, "speed_m_per_year": -41.96, "risk_score": 80, "risk_level": "high", "risk_components": {"speed": {"raw": -41.96, "normalized": 84, "weight": 0.3}, "distance": {"raw": 1426.3, "normalized": 100, "weight": 0.25}, "criticality": {"raw": 4, "normalized": 40, "weight": 0.25}, "years_to_threshold": {"raw": 0, "normalized": 100, "weight": 0.2}}, "forecast": {"optimistic": {"2030": 1552.0, "2035": 1710.0, "2040": 1867.0}, "baseline": {"2030": 1594.0, "2035": 1804.0, "2040": 2014.0}, "pessimistic": {"2030": 1649.0, "2035": 1962.0, "2040": 2315.0}}, "description_ru": "Курортный комплекс, площадка финала хакатона.", "description_kk": "Курорттық кешен, хакатон финалының алаңы.", "description_en": "Resort complex, hackathon final venue.", "recommendation_ru": "Долгосрочное планирование береговой инфраструктуры курорта.", "recommendation_en": "Long-term planning for the resort's shore infrastructure.", "source": "реальные спутниковые данные; координаты объекта — временные, см. README.md"}}, {"type": "Feature", "geometry": {"type": "Point", "coordinates": [51.215, 43.612]}, "properties": {"object_id": 8, "name_ru": "Прибрежная автодорога", "name_kk": "Жағалаудағы автожол", "name_en": "Coastal Highway", "category": "transport", "criticality": 5, "nearest_transect_id": 320, "distance_to_shore_2000_m": 4020.4, "distance_to_shore_2010_m": 4020.4, "distance_to_shore_2020_m": 4060.2, "distance_to_shore_2026_m": 4028.7, "speed_m_per_year": -0.54, "risk_score": 58, "risk_level": "medium", "risk_components": {"speed": {"raw": -0.54, "normalized": 1, "weight": 0.3}, "distance": {"raw": 4028.7, "normalized": 100, "weight": 0.25}, "criticality": {"raw": 5, "normalized": 50, "weight": 0.25}, "years_to_threshold": {"raw": 0, "normalized": 100, "weight": 0.2}}, "forecast": {"optimistic": {"2030": 4030.0, "2035": 4032.0, "2040": 4034.0}, "baseline": {"2030": 4031.0, "2035": 4034.0, "2040": 4036.0}, "pessimistic": {"2030": 4032.0, "2035": 4036.0, "2040": 4040.0}}, "description_ru": "Участок дороги, идущий вдоль береговой линии.", "description_kk": "Жағалау бойымен өтетін жол учаскесі.", "description_en": "Road segment running along the shoreline.", "recommendation_ru": "Оценить риск подмыва полотна на участках высокой скорости отступления.", "recommendation_en": "Assess embankment-erosion risk on high-retreat segments.", "source": "реальные спутниковые данные; координаты объекта — временные, см. README.md"}}]}