{"type": "FeatureCollection", "crs": {"type": "name", "properties": {"name": "EPSG:4326"}}, "features": [{"type": "Feature", "geometry": {"type": "LineString", "coordinates": [[50.27501424948134, 44.557338039028416], [50.27176735832889, 44.54998625445153], [50.25846550083541, 44.537261829381315], [50.26475872088572, 44.53500601792871], [50.24289758459339, 44.51770169683024], [50.2580600666358, 44.5201891350493], [50.24300249953096, 44.50651890179966], [50.243027727553894, 44.500912944557214], [50.24262478071127, 44.495077931059704], [50.241673919229186, 44.488949721652595], [50.24130139037436, 44.48313086140045], [50.24135695487283, 44.47754105140726], [50.24189487181148, 44.472209394221146], [50.2426511938476, 44.466994679896416], [50.24299153660687, 44.46155737311697], [50.24371640043932, 44.456325933269696], [50.244394820257206, 44.45106969247184], [50.24437250929257, 44.44543835004874], [50.24633507023999, 44.44086975167633], [50.246953676641404, 44.43558168291491], [50.246410816770265, 44.42967170882253], [50.24399948167172, 44.42276094715882], [50.245454188120256, 44.41792071849146], [50.24647000071058, 44.41284550201811], [50.24815663400277, 44.408129715233414], [50.24726683511017, 44.40203379886818], [50.247110432956376, 44.39633073307622], [50.315470731110906, 44.33183005675376], [50.32253995825723, 44.329999316789625], [50.32930009232339, 44.32800291417456], [50.33483014968643, 44.32534797566659], [50.33828659497901, 44.321583212286484], [50.346300994923375, 44.32025787757293], [50.35388469876016, 44.31870172854476], [50.360137733016145, 44.316433421556155], [50.36781108550459, 44.314924753998284], [50.37394956199389, 44.312594907217914], [50.379807003361655, 44.31011469737024], [50.383887136194346, 44.30668407141705], [50.390662655923414, 44.30469475602914], [50.39583582873792, 44.301848648423366], [50.40403936581657, 44.3006224550287], [50.41161905085879, 44.29906244513806], [50.41939545868527, 44.2976072592245], [50.42976842074708, 44.29753888935303], [50.44060307898696, 44.297716157205144], [50.45023463429273, 44.29725000300717], [50.460147745765454, 44.2969334067828], [50.46917333068219, 44.29614235563083], [50.479294459738085, 44.295935246630265], [50.487515616359225, 44.294713781843576], [50.50062474160016, 44.293689910167934], [50.512178239876576, 44.294588992659094], [50.52016558619382, 44.293428649086884], [50.52936430399819, 44.29296691769473], [50.537870702822, 44.2921051028181], [50.548022661234356, 44.29219175171912], [50.55697437399393, 44.291585393674886], [50.56552611464916, 44.290747847958784], [50.57301111633155, 44.28929491811119], [50.581864385526266, 44.288630259198904], [50.59172057199818, 44.28854287625338], [50.87157685340456, 44.057938446054166], [50.87000338829257, 44.05127494384313], [50.869265858659986, 44.04509318261479], [50.86844463865602, 44.038863064146774], [50.86894835842336, 44.033396914634345], [50.871495079151515, 44.029109015864854], [50.873105697702876, 44.024281421417314], [50.87774145873547, 44.0211985513288], [50.88248298196768, 44.018176753872254], [50.88741019150098, 44.01526210024545], [50.89366545341367, 44.01311317747597], [50.90122059739908, 44.011713473734204], [50.91173893504912, 44.01202116775572], [50.91854380297913, 44.010188294222196], [50.994586089294764, 43.9332027792782], [50.99573109220007, 43.92811246270107], [50.99710679221939, 43.92315510539774], [50.99795621795322, 43.91789475088827], [50.99826878084567, 43.91232523832975], [50.99869718895995, 43.90682248617568], [50.99998450033242, 43.90181457981072], [51.00211494928089, 43.897292514941554], [51.00353809936803, 43.89236310521294], [51.004816903904924, 43.88735064351235], [51.00489597011402, 43.881647000239134], [51.006398350652894, 43.87676354452553], [51.006648583260926, 43.87115862570104], [51.00985112993618, 43.86725517086254], [51.000002485874326, 43.8558291444622], [51.012035567253605, 43.85701632001875], [51.01464234675682, 43.85276997567032], [51.01694803693841, 43.848350246531524], [51.01623865821826, 43.84219277337848], [51.0169509774672, 43.83685479597955], [51.01934637032403, 43.832487171395485], [51.02205169616257, 43.82835663428439], [51.02101283050796, 43.829076639757204], [51.02374193758912, 43.82503331786078], [51.02461258112781, 43.82015594646781], [51.02515017834635, 43.81512912994019], [51.0251223248667, 43.80984850544883], [51.02497930162816, 43.80451616663562], [51.02983716245121, 43.80142905092917], [51.03265528266629, 43.79742629153132], [51.03607948165248, 43.793695708140746], [51.036824004909555, 43.788762250182906], [51.04253887898964, 43.78606018204929], [51.04684604764691, 43.782726203299816], [51.04656806051125, 43.77733411775255], [51.05060818804699, 43.773880493293234], [51.055811884785655, 43.77094920680372], [51.05919299606363, 43.76719989868011], [51.064958678806256, 43.76452087938126], [51.0078452742816, 43.70198178207587], [51.01780276161459, 43.701192858213254], [51.02534550057437, 43.69931718021779], [51.01996427682542, 43.68635983609888], [51.03630913286468, 43.688443845191976], [51.02239581229147, 43.67691708276483], [51.01061572186907, 43.655808916043945], [51.01480086053417, 43.63661070429064], [51.58598321396558, 43.203163847606255], [51.59240703643598, 43.20069205645467], [51.57167607253018, 43.18746046027135], [51.56503587764645, 43.17981055042334], [51.58749556320077, 43.183696880699934], [51.60720265326323, 43.18648761909199], [51.672286451440534, 43.13201303779433], [51.67387288442667, 43.12762694430505], [51.671726669582796, 43.12176388974114], [51.66800744353686, 43.1152780161844], [51.65762235427001, 43.10615236546559], [51.66148490548232, 43.1026676106755], [51.666314591696384, 43.09956583272799], [51.670470285184784, 43.09619720527682], [51.673998528098984, 43.09258020387014], [51.679371615835066, 43.08969357756869], [51.68464366506674, 43.08676690857889], [51.690164916969394, 43.08393882624409], [51.695792675028216, 43.08115282902373], [51.700303298927416, 43.07792471898244], [51.70846323545649, 43.073935848490585], [51.71446544477068, 43.07151707857873], [51.71932190018667, 43.06852328455127], [51.72436132611796, 43.065621334935955], [51.729409396927444, 43.062723742001054], [51.73371714728726, 43.05945474549401], [51.73876933723855, 43.05655928588431], [51.74326263401396, 43.05338348422405], [51.74760142428633, 43.05013023857581], [51.75212115815157, 43.046967817969914], [51.75609927121255, 43.04353380210083], [51.75984791958234, 43.03998478632615], [51.76366301745417, 43.036469190822864], [51.766803830799894, 43.032615529179644], [51.77012562791574, 43.02885274167557], [51.77276815944257, 43.02474941189374], [51.77501824482511, 43.02044938182362], [51.778100805932, 43.01656695692198], [51.779873070433, 43.01202752042624], [51.783935529703804, 43.00863674809673], [51.78699263359268, 43.004741891933534], [51.78869402101604, 43.00016726463951], [51.790059897895325, 42.995424468077644], [51.790380360640356, 42.99015741966144], [51.793725803774926, 42.986407664561696], [51.79800153995042, 42.983124591481484], [51.80181704957357, 42.979610782488045], [51.803328317009594, 42.974941465570694], [51.80399993821038, 42.96985110915714], [51.80579836308793, 42.965325988779924], [51.8075074338, 42.96075614915804], [51.80905022584347, 42.95610299947182], [51.81277537984265, 42.952544646704084], [51.81674205130535, 42.9491075281914], [51.82044204749338, 42.945536742550075], [51.82460017631166, 42.942195822424004], [51.82761571193095, 42.938381057953976], [51.829927166980106, 42.93424407337672], [51.832186697175025, 42.93008115297383], [51.8340228761315, 42.92570600813882], [51.83541047551025, 42.92110596824613], [51.83815693711276, 42.91718758866681], [51.84238453619398, 42.91401218636592], [51.84495012538864, 42.91000330371264], [51.84798489143632, 42.90622983910587], [51.851664842391315, 42.90278005364354], [51.855687390797186, 42.89950216763739], [51.85934830191735, 42.89604300476146], [51.86266581701163, 42.89241173163098], [51.86663652447797, 42.889108097923305], [51.86985814323277, 42.885428930293], [51.87310973124454, 42.88176489114949], [51.87611713274528, 42.87797851520728], [51.87908775162321, 42.874173801202176], [51.88144298624436, 42.87006063593324], [51.88359662455646, 42.86584649340856], [51.88569333334809, 42.861603908845076], [51.88806384542628, 42.857498721274006], [51.89065553144437, 42.853504544093354], [51.91090266075789, 42.85836082148468], [51.928719502889265, 42.861994706953496], [51.93448165177826, 42.85958878005909], [51.95510144594774, 42.864621124647705], [51.96782711163931, 42.86569883518984], [51.996107891156676, 42.87455307566857], [51.91986491338324, 42.83109692779882], [51.93294520168734, 42.83236004924329], [51.99017206523315, 42.851220116485244], [52.00428713582102, 42.854948660380444], [52.019137732291476, 42.85919225597827]]}, "properties": {"year": 2000, "sensor": "LANDSAT/LT05/C02/T1_L2", "scale_m": 30, "n_scenes": 11, "date_window": ["2000-07-01", "2000-08-01"], "otsu_threshold": 0.121, "data_quality": "good", "length_km": 300.0}}]}