{
  "type": "FeatureCollection",
  "crs": {
    "type": "name",
    "properties": {
      "name": "EPSG:4326"
    }
  },
  "features": [
    {
      "type": "Feature",
      "geometry": {
        "type": "LineString",
        "coordinates": [
          [
            51.65758775747717,
            43.106138665347835
          ],
          [
            51.6614254441877,
            43.102644065572015
          ],
          [
            51.666246482860934,
            43.099538865731006
          ],
          [
            51.67046163668928,
            43.096193781209
          ],
          [
            51.673921775559826,
            43.09254981757392
          ],
          [
            51.67898677795067,
            43.089541235548666
          ],
          [
            51.68453340393051,
            43.08672326520421
          ],
          [
            51.690118434840215,
            43.08392042981007
          ],
          [
            51.695813213447735,
            43.081160956669656
          ],
          [
            51.70022979483204,
            43.07789563340387
          ],
          [
            51.708435870613,
            43.07392211371506
          ],
          [
            51.7145384183806,
            43.071553700797004
          ],
          [
            51.71933811637568,
            43.06853142214316
          ],
          [
            51.724283286312776,
            43.06558217615578
          ],
          [
            51.72947223381483,
            43.062755269654645
          ],
          [
            51.733709039459555,
            43.059450677708945
          ],
          [
            51.738763256409,
            43.05655623531223
          ],
          [
            51.7432535129147,
            43.05337890872041
          ],
          [
            51.74757000775016,
            43.05011447968275
          ],
          [
            51.75209987630919,
            43.04695714342407
          ],
          [
            51.75607596309377,
            43.043522111730496
          ],
          [
            51.760132676734194,
            43.04012760258322
          ],
          [
            51.76365085736284,
            43.03646309229112
          ],
          [
            51.766849429438246,
            43.032638397438696
          ],
          [
            51.77016717189042,
            43.02887357601989
          ],
          [
            51.772651639159285,
            43.02469097662476
          ],
          [
            51.7750780217573,
            43.02047936048137
          ],
          [
            51.777973151863996,
            43.016502937954606
          ],
          [
            51.77992676304893,
            43.01205444821081
          ],
          [
            51.78393755579305,
            43.00863776416903
          ],
          [
            51.787007828668386,
            43.0047495120788
          ],
          [
            51.788655529194024,
            43.00014796080071
          ],
          [
            51.79004369188804,
            42.99541634032535
          ],
          [
            51.790185905065854,
            42.990059886806534
          ],
          [
            51.79375821197963,
            42.986423919076735
          ],
          [
            51.79795394135455,
            42.983100719403154
          ],
          [
            51.80177957934209,
            42.97959199080686
          ],
          [
            51.80327971010246,
            42.97491708776818
          ],
          [
            51.804061704741926,
            42.96988208895433
          ],
          [
            51.80557662481343,
            42.96521476924022
          ],
          [
            51.80760564091405,
            42.96080540926137
          ],
          [
            51.809001631657175,
            42.9560786239168
          ],
          [
            51.81278550334981,
            42.95254972461799
          ],
          [
            51.81639482448268,
            42.94893336705401
          ],
          [
            51.8202891908531,
            42.94546007601997
          ],
          [
            51.82455259938991,
            42.942171961060666
          ],
          [
            51.82760862627445,
            42.938377504317295
          ],
          [
            51.830038507658934,
            42.934299914016606
          ]
        ]
      },
      "properties": {
        "id": "main_shoreline"
      }
    }
  ]
}