{"type": "FeatureCollection", "crs": {"type": "name", "properties": {"name": "EPSG:4326"}}, "features": [{"type": "Feature", "geometry": {"type": "LineString", "coordinates": [[50.274185016703925, 44.55689525565829], [50.26945154662169, 44.54874939753777], [50.309207680385576, 44.53065653256187], [50.51272147432066, 44.29490256964678], [50.52029358554424, 44.29350252276496], [50.529354532257884, 44.29296127925968], [50.53772411674847, 44.29202053706455], [50.54809107516063, 44.292231209621825], [50.557083844856884, 44.29164851776269], [50.56509797762152, 44.29050101857655], [50.57304435249724, 44.28931407614942], [50.58204622097517, 44.28873505079248], [50.59170688417775, 44.288534989878286], [50.8718869842317, 44.0581172043786], [50.870062871081046, 44.05130923487767], [50.86935946055491, 44.045147149469145], [50.869272343077526, 44.03934033720235], [50.86772984242772, 44.03269420966303], [50.87164519522154, 44.02919558492518], [50.873568689171044, 44.02454842940312], [50.87783892962251, 44.02125475976791], [50.88227244646579, 44.018055352032235], [50.88771624893942, 44.01543856874708], [50.89320440991173, 44.01284737429375], [50.901925364464205, 44.012119714779445], [50.91201580153718, 44.01218071743737], [50.918535028756494, 44.01018323857996], [50.99499727595917, 43.933439561363535], [50.99625916537428, 43.92841657089201], [50.99714576150646, 43.92317754844091], [50.9980487626623, 43.91794805245512], [50.99868276056949, 43.91256369122206], [50.999097496423936, 43.90705308289502], [51.00056982401587, 43.90215177164541], [51.00224057699603, 43.89736488852978], [51.00367053499145, 43.892439404463154], [51.00469129412008, 43.88727827262822], [51.00646937727262, 43.8825535878933], [51.006988333095016, 43.87710350998918], [51.00873867392191, 43.87236307361121], [51.01005165905574, 43.86737073116028], [51.012285246286915, 43.86290903442821], [51.01309646890635, 43.857627756662055], [51.01457032633038, 43.85272846654467], [51.01664245322463, 43.848174118926366], [51.01776643613976, 43.84307340952645], [51.06996756972485, 43.76150219630766], [51.07193090589353, 43.75711688054489], [51.07400484874058, 43.75278129271403], [51.07721271619685, 43.74895466095526], [51.096097387171405, 43.72056870381141], [51.0995491634344, 43.71685228351245], [51.10237873460421, 43.71285675415139], [51.10568400682192, 43.70907477475153], [51.108395638451334, 43.70502651521727], [51.110612930359736, 43.70075653718317], [51.113831529181276, 43.69693595236783], [51.11504973789885, 43.69221786425002], [51.176542236188794, 43.62988939609658], [51.19118015825878, 43.63116924298263], [51.19424452410323, 43.62726199808212], [51.2005278813575, 43.62479768290346], [51.203420437124734, 43.620813596598005], [51.21764894468557, 43.611349459487585], [51.21970439331854, 43.60699062306008], [51.218205476326425, 43.601039027036215], [51.22068340543129, 43.59686969147422], [51.227221937578776, 43.59452016714728], [51.23405418217278, 43.59230209366168], [51.24081843058011, 43.590053376926086], [51.24538233601365, 43.58681888801483], [51.24946066873898, 43.583366937667364], [51.253957172590546, 43.580102347088754], [51.25776143261777, 43.57747562524358], [51.26118663049916, 43.573694976722834], [51.276234944834194, 43.57426969663348], [51.27451468583455, 43.56856123349516], [51.27802198691325, 43.56481142501716], [51.272190015396326, 43.557562051296], [51.284072224565634, 43.55695067119473], [51.28723047592831, 43.55307026988519], [51.29192468590019, 43.54976533928843], [51.28867295686839, 43.54348356786691], [51.28313004678381, 43.536342749725165], [51.28494175219481, 43.53195806231601], [51.28576419687645, 43.527202648257564], [51.285988103857086, 43.522222910536165], [51.28791137959392, 43.51788022615971], [51.2900972534238, 43.5136360484648], [51.29244009726237, 43.50945078348], [51.294066674197126, 43.504997083269274], [51.29549397067526, 43.500468738943006], [51.29593251151615, 43.495569763105586], [51.29629731638459, 43.49064316088209], [51.298340900688444, 43.48634604174629], [51.30070191867042, 43.48216801232495], [51.31793675710592, 43.4835654225965], [51.321184689782825, 43.47971989957991], [51.344204738159746, 43.4782189725807], [51.34322082178148, 43.472788591702425], [51.34952421262937, 43.47008743885792], [51.34446132226947, 43.46312943307893], [51.33149471889135, 43.45320897121029], [51.32851996440655, 43.44703161380639], [51.41743977944603, 43.368999087657954], [51.56976203988073, 43.18670166728091], [51.59073654088802, 43.18999752934323], [51.58761566988659, 43.183744475237994], [51.667500276734984, 43.115077269843034], [51.657304496812706, 43.1060264952352], [51.66151950116549, 43.102681309630405], [51.66629080765186, 43.09955641568608], [51.67037731390835, 43.09616039651302], [51.673643953619184, 43.09243982730499], [51.67934459064084, 43.089682879435955], [51.68445773461333, 43.08669331380637], [51.690105463088166, 43.08391529591809], [51.69580997053903, 43.08115967335739], [51.70022871388997, 43.077895205674416], [51.708403438221666, 43.07390583545392], [51.71473808272802, 43.07165390301312], [51.71927730568894, 43.06850090616147], [51.724173828051484, 43.06552725206109], [51.729376965010665, 43.06270746964998], [51.733688769894975, 43.05944050824373], [51.73880784917301, 43.05657860616647], [51.74321905544077, 43.053361623477784], [51.747368334238324, 43.05001331754708], [51.75208670183902, 43.04695053536987], [51.756104338196074, 43.043536343485044], [51.75992392225216, 43.04002290461489], [51.76362147048536, 43.03644835416734], [51.76684537622459, 43.03263636470531], [51.77003342065729, 43.02880649953933], [51.77255335700454, 43.0246416876517], [51.77500709997976, 43.02044379257883], [51.7780724383385, 43.01655273049732], [51.779862939755986, 43.0120224397093], [51.783834225326544, 43.00858594443468], [51.78717092271651, 43.00483130150862], [51.78865046448239, 43.000145420820935], [51.79000925413668, 42.99539906884398], [51.79026388978001, 42.99009900158569], [51.793682255276636, 42.98638582254241], [51.79795090314755, 42.983099195652784], [51.8017917318471, 42.979598085407524], [51.80329287446937, 42.97492369009177], [51.804056641909156, 42.96987954962798], [51.80554422476687, 42.96519851794659], [51.80747807294053, 42.96074142189396], [51.80898442122536, 42.95606999090269], [51.81268426835284, 42.95249894543784], [51.8163826766408, 42.94892727393354], [51.82031146133348, 42.94547124599096], [51.82458904128414, 42.942190237851406], [51.827617736404385, 42.93838207327866], [51.83013972663169, 42.93435067813875], [51.83217151512763, 42.93007353862049], [51.83400567078675, 42.92569737879956], [52.179405156917426, 42.71112929553187], [52.18655822788945, 42.709954664973004], [52.18372434494983, 42.70175680984629]]}, "properties": {"year": 2008, "data_quality": "good", "length_km": 276.8, "spatial_outliers_removed": 17}}]}