{
  "type": "FeatureCollection",
  "crs": {
    "type": "name",
    "properties": {
      "name": "EPSG:4326"
    }
  },
  "features": [
    {
      "type": "Feature",
      "geometry": {
        "type": "LineString",
        "coordinates": [
          [
            50.27438576654771,
            44.557002450720404
          ],
          [
            50.268887738016176,
            44.54844825677028
          ],
          [
            50.309957125858816,
            44.531056532955624
          ],
          [
            50.51193105058041,
            44.294446302997606
          ],
          [
            50.51904096449609,
            44.29277956963175
          ],
          [
            50.52640159811954,
            44.29125730601283
          ],
          [
            50.54621852137157,
            44.29115117570841
          ],
          [
            50.53574817758957,
            44.29088057240187
          ],
          [
            50.55539098241607,
            44.29067233712956
          ],
          [
            50.56387028039446,
            44.28979320672156
          ],
          [
            50.57200035621404,
            44.288712283751536
          ],
          [
            50.59119848201675,
            44.28824206621549
          ],
          [
            50.581064708279115,
            44.28816939811652
          ],
          [
            50.59038042949531,
            44.270470856946744
          ],
          [
            50.567266678126316,
            44.26867961684571
          ],
          [
            50.591566960893914,
            44.265388145324685
          ],
          [
            50.566706243817336,
            44.26258845254481
          ],
          [
            50.59250604222365,
            44.2601628997293
          ],
          [
            50.66231843415344,
            44.18510340062511
          ],
          [
            50.65099030259173,
            44.18433865444595
          ],
          [
            50.6694507280971,
            44.18344993770831
          ],
          [
            50.68307628263621,
            44.17977433515861
          ],
          [
            50.672851555464234,
            44.17964685863969
          ],
          [
            50.6843174425458,
            44.17472767786384
          ],
          [
            50.68732809407417,
            44.170700270727004
          ],
          [
            50.72507476541515,
            44.16362990010352
          ],
          [
            50.71144861217966,
            44.16154663266978
          ],
          [
            50.741053764597794,
            44.16130611864846
          ],
          [
            50.74987919389481,
            44.16062443774909
          ],
          [
            50.727234154380035,
            44.15911344800891
          ],
          [
            50.67470669218731,
            44.15766757352678
          ],
          [
            50.684522407057266,
            44.157561425238846
          ],
          [
            50.75361161547428,
            44.15701336534395
          ],
          [
            50.69178454275006,
            44.155983614618734
          ],
          [
            50.758039533567896,
            44.14804505827442
          ],
          [
            50.7658759848767,
            44.146794610424706
          ],
          [
            50.722755603814996,
            44.133498680844895
          ],
          [
            50.80333413649189,
            44.110772298631325
          ],
          [
            50.83109264618074,
            44.09220012599408
          ],
          [
            50.835605395653076,
            44.089040927762454
          ],
          [
            50.83866237225642,
            44.08504243806426
          ],
          [
            50.84183792895271,
            44.08111247432245
          ],
          [
            50.84600106806586,
            44.077752084739295
          ],
          [
            50.85090693343299,
            44.07482002292959
          ],
          [
            50.85192186851734,
            44.06964479590205
          ],
          [
            50.859120622786264,
            44.06803488554732
          ],
          [
            50.86348082514803,
            44.06478854562772
          ],
          [
            50.87141691244975,
            44.057846255896145
          ],
          [
            50.859299801583454,
            44.05661826666101
          ],
          [
            50.86975180611048,
            44.051129909287724
          ],
          [
            50.86774777666681,
            44.04421789694663
          ],
          [
            50.868393943410894,
            44.03883383167917
          ],
          [
            50.867992064637335,
            44.03284543287453
          ],
          [
            50.870923862258266,
            44.028779601915915
          ],
          [
            50.872529644649426,
            44.023949204640985
          ],
          [
            50.877203422754484,
            44.02088827924243
          ],
          [
            50.88222566091542,
            44.018028373792674
          ],
          [
            50.886904323473956,
            44.01497041961122
          ],
          [
            50.890928494427975,
            44.01153518955585
          ],
          [
            50.909510408876166,
            44.0107368806269
          ],
          [
            50.898830504690345,
            44.0103357053336
          ],
          [
            50.91607733020553,
            44.00876707035793
          ],
          [
            50.9230064802566,
            44.00700583473015
          ],
          [
            50.948963155119564,
            43.981688998642845
          ],
          [
            50.9927802218695,
            43.93791264801316
          ],
          [
            50.99451593454991,
            43.93316238029026
          ],
          [
            50.995514798099094,
            43.927987901072434
          ],
          [
            50.99638878834842,
            43.9227415899334
          ],
          [
            50.997301590623884,
            43.91751771028207
          ],
          [
            50.99755089913801,
            43.91191172938242
          ],
          [
            50.9971086513661,
            43.9059073791967
          ],
          [
            50.99876517836986,
            43.90111213388414
          ],
          [
            51.001044691396615,
            43.89667593121497
          ],
          [
            51.002135860571315,
            43.891555221319706
          ],
          [
            51.003500450573064,
            43.886592144859904
          ],
          [
            51.005137430489256,
            43.88178613144433
          ],
          [
            51.00694646943329,
            43.87707938712832
          ],
          [
            51.006965936738915,
            43.87134151128068
          ],
          [
            51.00888645941807,
            43.86669924234265
          ],
          [
            51.01123983322701,
            43.86230656622125
          ],
          [
            51.01216890874716,
            43.857093170857326
          ],
          [
            51.013393682431165,
            43.852050290707965
          ],
          [
            51.01621424977217,
            43.84792731452839
          ],
          [
            51.01697432146695,
            43.842616827492265
          ],
          [
            51.066065648954655,
            43.765017660362865
          ],
          [
            51.06907927202799,
            43.7611035699672
          ],
          [
            51.10076744590986,
            43.71739894713913
          ],
          [
            51.10360343958714,
            43.70814116846581
          ],
          [
            51.122201195402965,
            43.7059553137961
          ],
          [
            51.11191695774274,
            43.696076848249405
          ],
          [
            51.19328501723414,
            43.65326569584238
          ],
          [
            51.20421573640957,
            43.65287294052079
          ],
          [
            51.175263864219595,
            43.629316094298105
          ],
          [
            51.183386940632936,
            43.62767533851714
          ],
          [
            51.18946193781533,
            43.62511798607755
          ],
          [
            51.19551848770789,
            43.62255227233849
          ],
          [
            51.20460501405694,
            43.62134450888656
          ],
          [
            51.20968059569122,
            43.618338849489874
          ],
          [
            51.21262392257584,
            43.61437769047013
          ],
          [
            51.219350307732114,
            43.6121118112123
          ],
          [
            51.218814225461095,
            43.60659172900967
          ],
          [
            51.21780578700102,
            43.600859898155555
          ],
          [
            51.22075722318259,
            43.59690277424213
          ],
          [
            51.226310813787315,
            43.59411187927418
          ],
          [
            51.22989511411026,
            43.590438523547874
          ],
          [
            51.2349151709117,
            43.587408582204006
          ],
          [
            51.239191326489895,
            43.58404535092388
          ],
          [
            51.24395204697128,
            43.58089926306442
          ],
          [
            51.2512344972055,
            43.578882820657796
          ],
          [
            51.255056735948585,
            43.57646180879968
          ],
          [
            51.25854919194097,
            43.57270640919512
          ],
          [
            51.26614917559146,
            43.565426304955466
          ],
          [
            51.27055272838615,
            43.56201251979618
          ],
          [
            51.27280743505147,
            43.55779344742579
          ],
          [
            51.275025511450515,
            43.55356071756428
          ],
          [
            51.280993698133464,
            43.55073342850297
          ],
          [
            51.280941771566134,
            43.54058636851331
          ],
          [
            51.2827889691031,
            43.536214914236446
          ],
          [
            51.28473161707808,
            43.531879302514916
          ],
          [
            51.28558377998166,
            43.52713502326918
          ],
          [
            51.283339310845015,
            43.52122995271974
          ],
          [
            51.284078147910414,
            43.516443201648634
          ],
          [
            51.292245428251576,
            43.50937780896455
          ],
          [
            51.29366856342956,
            43.5048478410735
          ],
          [
            51.29497162270734,
            43.50027291607548
          ],
          [
            51.294759249634104,
            43.49512988360201
          ],
          [
            51.29317806583049,
            43.48947356586314
          ],
          [
            51.31148761197411,
            43.4862112629685
          ],
          [
            51.296227793141526,
            43.485553715124695
          ],
          [
            51.30930080948195,
            43.46513969976822
          ],
          [
            51.31152726614701,
            43.4609115684856
          ],
          [
            51.31302806988018,
            43.45641141276104
          ],
          [
            51.31416930362369,
            43.45177648410797
          ],
          [
            51.31439612830413,
            43.446798693277046
          ],
          [
            51.31379117070369,
            43.44150895071277
          ],
          [
            51.314537654742274,
            43.436726067076236
          ],
          [
            51.31505881627433,
            43.43185869949152
          ],
          [
            51.31530417729392,
            43.42688789524133
          ],
          [
            51.56380261547551,
            43.17932149033184
          ],
          [
            51.652553434853324,
            43.14426065427795
          ],
          [
            51.60041938787465,
            43.1436718831023
          ],
          [
            51.65937622098892,
            43.14194655399842
          ],
          [
            51.605083449103056,
            43.14050451588905
          ],
          [
            51.659413724894996,
            43.136947174574885
          ],
          [
            51.60540976182539,
            43.13561785320961
          ],
          [
            51.668214997634664,
            43.1354159675463
          ],
          [
            51.60887057181911,
            43.13197370157762
          ],
          [
            51.665822430843946,
            43.129455218762935
          ],
          [
            51.66714644633803,
            43.12496519823378
          ],
          [
            51.66959609854523,
            43.12092072624248
          ],
          [
            51.66516886577925,
            43.114154406621196
          ],
          [
            51.65693258360867,
            43.10587921736764
          ],
          [
            51.661269763921815,
            43.1025824200619
          ],
          [
            51.665912426099965,
            43.09940659843697
          ],
          [
            51.66993948554832,
            43.095987051887334
          ],
          [
            51.67346450495335,
            43.09236878264354
          ],
          [
            51.67874679573539,
            43.089446235085816
          ],
          [
            51.68407182223569,
            43.08654056088868
          ],
          [
            51.68967199161208,
            43.083743737504285
          ],
          [
            51.69456686544568,
            43.08066773012829
          ],
          [
            51.69981471417853,
            43.07773138453277
          ],
          [
            51.70790479235807,
            43.07365555601071
          ],
          [
            51.71083714389092,
            43.06969608074446
          ],
          [
            51.718029686366386,
            43.067874812672386
          ],
          [
            51.723442084306306,
            43.0651600715774
          ],
          [
            51.72853374117287,
            43.062284385235294
          ],
          [
            51.73323676033861,
            43.05921372821921
          ],
          [
            51.73818355341573,
            43.05626541259609
          ],
          [
            51.74216912518479,
            43.05283492689816
          ],
          [
            51.74649476112327,
            43.04957511356117
          ],
          [
            51.75114929484695,
            43.04648034292896
          ],
          [
            51.755129458239985,
            43.043047376952266
          ],
          [
            51.75939089217079,
            43.039755567265026
          ],
          [
            51.76296888274707,
            43.03612106419516
          ],
          [
            51.76602156607827,
            43.032223208606574
          ],
          [
            51.76860067943428,
            43.02808795815236
          ],
          [
            51.77103962896074,
            43.02388252497075
          ],
          [
            51.774595755278014,
            43.02023749786046
          ],
          [
            51.77694787639014,
            43.015988748601835
          ],
          [
            51.77601542890612,
            43.010092717293155
          ],
          [
            51.78215057092511,
            43.00774157418301
          ],
          [
            51.78603433837513,
            43.004261310614886
          ],
          [
            51.786609419518506,
            42.99912179036628
          ],
          [
            51.787577389738836,
            42.99417937074562
          ],
          [
            51.78843988348897,
            42.98918410795132
          ],
          [
            51.79160209068337,
            42.98534246547186
          ],
          [
            51.79531177044432,
            42.9817755334294
          ],
          [
            51.8015902031144,
            42.97949701644296
          ],
          [
            51.80101143029672,
            42.97377943356439
          ],
          [
            51.80350479562303,
            42.96960276168526
          ],
          [
            51.80359924058651,
            42.96422291533592
          ],
          [
            51.806407929752616,
            42.96020463326636
          ],
          [
            51.80823222879771,
            42.95569267482422
          ],
          [
            51.81240587296579,
            42.95235930222139
          ],
          [
            51.81649909355698,
            42.948985666283974
          ],
          [
            51.82014949438638,
            42.94539000973744
          ],
          [
            51.82414262955895,
            42.94196634634903
          ],
          [
            51.82715717040452,
            42.9381510859721
          ],
          [
            51.82960630450788,
            42.93408315018718
          ],
          [
            51.83133752037846,
            42.92965525365305
          ],
          [
            52.01747286878056,
            42.8580197705958
          ],
          [
            52.02238349025346,
            42.85526176763431
          ],
          [
            52.029260962945045,
            42.8538888247985
          ],
          [
            52.0025448790177,
            42.8537211483396
          ],
          [
            51.98866438044381,
            42.85015745447512
          ],
          [
            52.030395338075394,
            42.84847198491726
          ],
          [
            52.03440016301926,
            42.84507657596828
          ],
          [
            52.05733886348125,
            42.83636755463244
          ],
          [
            52.03080540480156,
            42.836329621951045
          ],
          [
            52.046620657038595,
            42.835036423789084
          ],
          [
            52.06150235197398,
            42.83308448590759
          ],
          [
            52.06612872683934,
            42.830127355775225
          ],
          [
            52.07510427402975,
            42.82401840826913
          ],
          [
            52.07939243567778,
            42.82082368063984
          ],
          [
            52.08472441851331,
            42.81836357043055
          ],
          [
            52.087651774476555,
            42.814211650384294
          ],
          [
            52.09141870980656,
            42.81065066340163
          ],
          [
            52.098322360437905,
            42.80929665102044
          ],
          [
            52.10091504173104,
            42.804909884805234
          ],
          [
            52.10621208081092,
            42.8024257767265
          ],
          [
            52.11146271313402,
            42.79990908569572
          ],
          [
            52.13422100811883,
            42.78486920847371
          ],
          [
            52.134185939086215,
            42.77863623373048
          ],
          [
            52.14783973803826,
            42.77582139540694
          ],
          [
            52.1520456649768,
            42.77257116019539
          ],
          [
            52.151816099649544,
            42.766202679744346
          ],
          [
            52.15580191155464,
            42.76279814243256
          ],
          [
            52.16558367778461,
            42.75105598450771
          ],
          [
            52.18010525738505,
            42.748852698439165
          ],
          [
            52.18296996672269,
            42.74466112163592
          ],
          [
            52.19745932871243,
            42.74243452998772
          ],
          [
            52.19659843916694,
            42.735625659900634
          ],
          [
            52.20356563437973,
            42.73431760334779
          ],
          [
            52.208891419511716,
            42.73185617387552
          ],
          [
            52.215237179277615,
            42.73011132437322
          ],
          [
            52.21765303049765,
            42.72560584057559
          ],
          [
            52.2210464253028,
            42.72178726630893
          ]
        ]
      },
      "properties": {
        "id": "main_shoreline"
      }
    }
  ]
}