{"type": "FeatureCollection", "crs": {"type": "name", "properties": {"name": "EPSG:4326"}}, "features": [{"type": "Feature", "geometry": {"type": "LineString", "coordinates": [[50.2754641791131, 44.55757828152056], [50.26879292998611, 44.548397617443406], [50.25780405491244, 44.53690837010483], [50.26391979850025, 44.53455777341313], [50.24090010715036, 44.51663349457316], [50.25650069499645, 44.519355585188286], [50.242525889260214, 44.50626398136029], [50.24264990081081, 44.500710840911566], [50.309168342347434, 44.53063553644406], [50.241552033120406, 44.48888450827965], [50.24125102932548, 44.483103913585474], [50.24132875533862, 44.477525960651114], [50.24181028047899, 44.47216412233873], [50.2426370964307, 44.4669871346815], [50.24299455721352, 44.461558989939164], [50.24403857302136, 44.45649839178696], [50.244345491832185, 44.45104328497911], [50.244193333582274, 44.44534242067834], [50.24570900150124, 44.44053454734529], [50.247353243826026, 44.435795627681685], [50.246346409959116, 44.429637218561595], [50.24352958042065, 44.42250926543784], [50.24386047298533, 44.41706706115515], [50.24314000714795, 44.41106166470883], [50.24688505665712, 44.40744854587719], [50.2447974200669, 44.40071076826597], [50.315493853802955, 44.33184243774772], [50.321808054823784, 44.32960747403433], [50.329104040215064, 44.32789796828321], [50.33445915712075, 44.32514940332485], [50.338120708953426, 44.321494424918384], [50.34631104915391, 44.32026325791672], [50.353789179513484, 44.31865062153847], [50.36002914064685, 44.31637532686333], [50.366881982579336, 44.31442778035445], [50.37392140664924, 44.31257984902516], [50.37967628068516, 44.31004479093902], [50.383557320172905, 44.30650770354345], [50.39056712700748, 44.304643679601746], [50.39595046358843, 44.30190993486926], [50.403925730575885, 44.30056171418455], [50.41149434841369, 44.29899579969015], [50.419463847209784, 44.297643802041165], [50.42949484182673, 44.2973927423852], [50.44066846318405, 44.297751075767344], [50.45008775982249, 44.29717158272653], [50.46023929882132, 44.2969822771783], [50.469323246682194, 44.29622236236889], [50.47885674889089, 44.295701707377184], [50.48745121379574, 44.294679426761434], [50.50034925404445, 44.29353083701081], [50.51238927990813, 44.29471081424071], [50.51987734455851, 44.29326229180747], [50.5293301029153, 44.292947183168444], [50.5362582791822, 44.291174869213265], [50.54767277430279, 44.29198995209212], [50.55695678048428, 44.29157524872244], [50.56550656493496, 44.29073657724562], [50.572554610009696, 44.289031775844975], [50.58186145270175, 44.28862856900954], [50.5916883078559, 44.28852428693806], [50.87157100189747, 44.05793507324747], [50.869994612149256, 44.05126988450753], [50.86929998433115, 44.04511285803937], [50.868394918318984, 44.03883439384224], [50.86895323254519, 44.03339972542805], [50.871415147396476, 44.02906292057014], [50.87306865856504, 44.02426006069709], [50.87763326626662, 44.0211361598636], [50.882046316698805, 44.01792495702943], [50.88694526058646, 44.01499402390805], [50.89228525936771, 44.01231744820846], [50.901113372271425, 44.0116516662768], [50.91174965872349, 44.01202734750946], [50.91810899329553, 44.00993775824785], [50.994742963442896, 43.93329311574711], [50.99604968920923, 43.928295937862984], [50.99688271938734, 43.92302605763988], [50.99790751027796, 43.91786669740172], [50.99819280374951, 43.91228147504673], [50.99892217890602, 43.90695209180481], [50.99976439696287, 43.90168778143482], [51.00185785164976, 43.89714440111823], [51.00315540126844, 43.89214262195237], [51.00451310401686, 43.88717560671691], [51.00591926352767, 43.88223662129833], [51.00703311751472, 43.87712931582325], [51.008162357331905, 43.872030970717965], [51.009660335959175, 43.867145219959085], [51.01178492493292, 43.86262070354552], [51.01273537058888, 43.857419644936165], [51.0144730015885, 43.852672373058994], [51.01653345564717, 43.84811129614199], [51.017743081234535, 43.843059947727404], [51.018218828292206, 43.8375856621428], [51.01927534400054, 43.83244622597892], [51.02217720327966, 43.8284289868574], [51.021393370033756, 43.82924743513943], [51.02360981253663, 43.82497401672266], [51.024516401268656, 43.82011277594853], [51.02508993861534, 43.81510208933334], [51.02563590467272, 43.81007906125679], [51.028363835285965, 43.806035615786044], [51.03042782310525, 43.8016942133884], [51.032329855256535, 43.79728019789248], [51.03641018149059, 43.79384416266918], [51.03963848784863, 43.79002572582117], [51.04249133817689, 43.78603884132435], [51.046593559402844, 43.782612869557305], [51.05056748713933, 43.779129374883844], [51.05366839413138, 43.77525410700218], [51.05800269001313, 43.77193250387946], [51.06170694728716, 43.76832819522806], [51.06590720744782, 43.76494655687555], [51.06928206903671, 43.76119457682982], [51.071813669447046, 43.75706426992207], [51.07378306282151, 43.752681762941194], [51.076230566101486, 43.74851391020376], [51.078201469643176, 43.74413226881145], [51.080814103458806, 43.74003871633], [51.082698868242396, 43.73561860630107], [51.083653177435295, 43.73078099231409], [51.088529510231055, 43.727703669483645], [51.09063185973267, 43.72338150016934], [51.095851401920925, 43.720458319987394], [51.0996061709595, 43.716877864250684], [51.10169256788766, 43.71254885235459], [51.1050348122489, 43.70878347094228], [51.10809058339137, 43.70488963369689], [51.11031528039443, 43.700622976798556], [51.1134948392862, 43.69678487740997], [51.11507823326222, 43.69223065082197], [51.11606724771127, 43.6874097817181], [51.116711931190615, 43.68242669160933], [51.12081043887161, 43.678973016797336], [51.123304640378535, 43.67479948119408], [51.12653495295887, 43.67095637502872], [51.13017421766297, 43.667296870840495], [51.13199313940234, 43.66282060827942], [51.13408818556099, 43.65846834591335], [51.13701312629559, 43.65448859363877], [51.14049253315482, 43.65075774567954], [51.14434386132968, 43.647193869337535], [51.14792681785565, 43.643509649310154], [51.151625359462216, 43.6398773721884], [51.19346758660705, 43.65334750011586], [51.20415135756723, 43.65284410233226], [51.16213087615907, 43.62871627088005], [51.176710999978624, 43.62996507842676], [51.19568055084701, 43.63318645954605], [51.19201035794637, 43.62626047542924], [51.19847197017788, 43.62387618824128], [51.20569150986808, 43.62183144339072], [51.207797752658756, 43.61749504573734], [51.22728171610813, 43.62094468377338], [51.22887894492283, 43.6163806038223], [51.23600371343876, 43.61429236327888], [51.24393610824073, 43.61256553612173], [51.25002810642467, 43.61001441583198], [51.22717342836319, 43.59449842978292], [51.2329047183665, 43.59178707558757], [51.240763592638395, 43.5900288107576], [51.24525578951377, 43.586762201830545], [51.24929616280658, 43.58329325141349], [51.25381586915471, 43.58003905801471], [51.25768547530971, 43.57744715508671], [51.26096317139095, 43.57361122316709], [51.26488328361934, 43.5700161225707], [51.26784422222304, 43.56606159024659], [51.27051750805252, 43.5619993201406], [51.272904285621095, 43.55782974455339], [51.28413275950788, 43.55697335093913], [51.28716774257822, 43.553046767097946], [51.290699775207116, 43.54930646011388], [51.288711471595455, 43.54349799894018], [51.282934202004355, 43.53626934753751], [51.284787726401426, 43.531900332656924], [51.285576079269475, 43.52713213683036], [51.28541609803082, 43.52200848965949], [51.28714471874216, 43.51759283160796], [51.28996526714308, 43.513586571605856], [51.29239500439904, 43.50943387980837], [51.294090868837195, 43.50500615319198], [51.2949903172081, 43.50027992451431], [51.29575547653587, 43.495503390311306], [51.29596526496966, 43.490518661010604], [51.298195773954916, 43.48629162723169], [51.30036110974566, 43.48204022725782], [51.30248326988456, 43.47777270854044], [51.305235008284484, 43.473741320786544], [51.342872872018624, 43.4827821083728], [51.34167238204925, 43.47727059306364], [51.340545777532576, 43.471786651443516], [51.33969531923523, 43.466406063584806], [51.340408175845205, 43.46161109445551], [51.34198819375976, 43.457141041537575], [51.314865741665876, 43.44191196702635], [51.33645327218964, 43.4449429023928], [51.338740837520504, 43.440738123299], [51.338828261651074, 43.4357088001014], [51.340653849581635, 43.43133100075724], [51.34154202027673, 43.426601889467285], [51.3411952687196, 43.42140988204813], [51.34120008701244, 43.41634965373939], [51.34303921013285, 43.411977157731954], [51.342145469950516, 43.40658005721147], [51.34115964353408, 43.401148350464695], [51.34036396495175, 43.39578787750142], [51.34003727006389, 43.390603250698746], [51.337313965716994, 43.384519534867614], [51.334435331347144, 43.37837725667143], [51.33397972333497, 43.37314399080129], [51.33177254748112, 43.36725330106033], [51.32898747881005, 43.361145464308315], [51.32779071501308, 43.35563367396893], [51.31112776068548, 43.344312775194176], [51.326409342459584, 43.34498988622199], [51.31119071953844, 43.33421029812966], [51.31051483463384, 43.328893229189994], [51.309449786300256, 43.32342984044303], [51.32175634088721, 43.3229914675205], [51.31930876223469, 43.31700900577557], [51.314646972867216, 43.3101940717839], [51.311559311186556, 43.30397034865564], [51.30066950111571, 43.29481212131332], [51.298741291556965, 43.28902334088589], [51.29722874598804, 43.28339077078625], [51.29540422038537, 43.27764067357811], [51.29255681518094, 43.27150544486783], [51.465225856449266, 43.31091698183034], [51.469571204313354, 43.30756268933693], [51.49472493990447, 43.28742203128166], [51.470051852152785, 43.23746922645417], [51.51400809037337, 43.24989804165141], [51.53520390391806, 43.25328426274221], [51.5392331801684, 43.249863304597085], [51.54342118503775, 43.24650529565913], [51.54733477672469, 43.243038558943326], [51.546989455602265, 43.237883899913285], [51.416193574837074, 43.16081040379849], [51.433557003858105, 43.1627035757407], [51.44902585651801, 43.16383973237388], [51.57789984997002, 43.20999475397118], [51.47755250239675, 43.16514641509082], [51.5873697505451, 43.20371312050349], [51.5924254368448, 43.20069934487168], [51.571641448569764, 43.18744673451287], [51.56411633820515, 43.179445901630324], [51.58759619311411, 43.18373675721346], [51.607206982170254, 43.186489333461786], [51.670838057567416, 43.131439957556076], [51.67084651041312, 43.1264294435445], [51.67164771845074, 43.121732646328546], [51.66749703260827, 43.115075985743964], [51.65731206483235, 43.10602949215583], [51.66145679650103, 43.10265648026685], [51.66617188753791, 43.09950933040151], [51.67026920791216, 43.09611759552866], [51.673475315102266, 43.09237306245049], [51.67898893995596, 43.089542091406365], [51.68444368174821, 43.08668775139834], [51.69014221639122, 43.08392984194149], [51.695761326924604, 43.08114042366224], [51.70026222310089, 43.07790846528267], [51.70815411478445, 43.073780696008896], [51.71466814945644, 43.07161880684581], [51.71918710328097, 43.06845564072801], [51.72399849253867, 43.065439271576054], [51.72921075170541, 43.06262407370371], [51.73369079685113, 43.05944152519041], [51.738722717560655, 43.05653589815666], [51.74298494781955, 43.05324418522587], [51.747264964151526, 43.04996146545775], [51.75198130617905, 43.04689767088047], [51.75566249879974, 43.04331473392228], [51.75983981263643, 43.03998072037232], [51.763633630570894, 43.03645445270226], [51.76677545833082, 43.032601300031324], [51.769960465561496, 43.028769912300945], [51.772304106056616, 43.0245166863651], [51.774979744458776, 43.02043007351874], [51.77772797574406, 43.01637998048311], [51.7796339868991, 43.011907615262345], [51.783762299319626, 43.008549873779124], [51.786966295470314, 43.00472868367683], [51.788532963289065, 43.00008649322607], [51.790009254136685, 42.99539906884398], [51.789974232766795, 42.989953717847065], [51.79358908184856, 42.98633909072343], [51.79791647014532, 42.98308192647622], [51.80179274455597, 42.97959859329087], [51.803135914892735, 42.97484496997911], [51.80413764728337, 42.969920178822306], [51.80524553763772, 42.965048700892666], [51.80733835593827, 42.96067134032513], [51.80896822317626, 42.95606186571053], [51.81268325600371, 42.952498437645566], [51.816398873763845, 42.948935398093866], [51.82017176481645, 42.94540117973616], [51.82445238429147, 42.9421216998251], [51.82753675751867, 42.938341460262876], [51.83000510543426, 42.934283161836234], [51.83217050299127, 42.930073030996866], [51.83395304270311, 42.92567098315719], [51.834810353791134, 42.92080496174291], [51.8378968608351, 42.91705714205069], [51.8420667835122, 42.91385281952984], [51.844887387100066, 42.909971837807596], [51.84802030691897, 42.90624760118505], [51.85150193581252, 42.90269835308706], [51.855512345869826, 42.899414383659334], [51.85938978549741, 42.896063807712025], [51.86230158405964, 42.89222908125762], [51.86657177323455, 42.889075629047674], [51.86961938154362, 42.8853092077017], [51.87289728094506, 42.88165836426524], [51.876005853363395, 42.87792271831142], [51.87883181915167, 42.87404547464795], [51.8812892317334, 42.86998354167014], [51.88354503848502, 42.86582062720616], [51.88570648205685, 42.8616105019571], [51.887997093688455, 42.85746524985767], [51.89032482231268, 42.85333871529189], [51.90967258171272, 42.8577443773105], [51.912436858853255, 42.853836915356055], [51.925818232080026, 42.85524933138109], [51.937101776902516, 42.85560928900153], [51.92219113021267, 42.84284754238986], [51.912903513635584, 42.832899888713676], [51.92040490264063, 42.8313675925933], [51.93334164709203, 42.832558693952144], [51.98995642602398, 42.851068130916865], [52.00434989724675, 42.85499287770372], [52.01914392149264, 42.85919661461316], [52.23816847085549, 42.715208387482996], [52.2419582693632, 42.70546805820959], [52.23881590377308, 42.69705990244034], [52.225028061393296, 42.68116979542267], [52.23225896340837, 42.68005012029731], [52.218853814297, 42.66442434118967], [52.225937144079936, 42.663202595204616], [52.22268613756003, 42.654714381223286], [52.199141526579176, 42.63194578000202], [52.21631663978512, 42.6378289193101], [52.20288679619497, 42.62217428356665], [52.19947439564934, 42.61356786159091], [52.19647320775682, 42.60525023860134], [52.203702081900914, 42.60413680371094]]}, "properties": {"year": 2011, "sensor": "LANDSAT/LT05/C02/T1_L2", "scale_m": 30, "n_scenes": 16, "date_window": ["2011-07-01", "2011-08-01"], "otsu_threshold": 0.113, "data_quality": "good", "length_km": 430.6}}]}