{"type": "FeatureCollection", "crs": {"type": "name", "properties": {"name": "EPSG:4326"}}, "features": [{"type": "Feature", "geometry": {"type": "LineString", "coordinates": [[50.274468487803915, 44.55704662144818], [50.268896815389404, 44.54845310521237], [50.23979382991567, 44.52728107181171], [50.261876995809345, 44.53346622935743], [50.239888294843034, 44.51609237385812], [50.25769012763562, 44.519991391129544], [50.241814508319294, 44.5058834833369], [50.24182272126844, 44.50026836433744], [50.2416677230572, 44.49456592953601], [50.240887204595246, 44.48852879670283], [50.24069907527752, 44.4828085640906], [50.24096216272065, 44.47732978019317], [50.241336974253144, 44.47191081423178], [50.24193827190164, 44.46661310543703], [50.24245286442922, 44.46126903855782], [50.24323012480039, 44.456065626989094], [50.24319383678492, 44.45042674486047], [50.241469532580595, 44.44388404436087], [50.24472763810407, 44.44000909962653], [50.246560151113876, 44.43537097021576], [50.24446455698659, 44.42862944035426], [50.2430154104516, 44.422233868468126], [50.24231207839553, 44.41623763433402], [50.242659136637286, 44.41080405124748], [50.243140916160904, 44.405442679293564], [50.24399777598606, 44.400282321349685], [50.31575122007733, 44.331980243279844], [50.321594919946776, 44.3294933651039], [50.32740394594311, 44.32698788502993], [50.332230238359735, 44.32395632967561], [50.3363050437962, 44.32052259117673], [50.34379855423942, 44.31891868266655], [50.35042399173828, 44.31684999037104], [50.35917348051146, 44.31591755861221], [50.3654260174103, 44.313648958068605], [50.37181784101081, 44.311454767403646], [50.3769734076736, 44.308599307718936], [50.38087663290825, 44.30507414175192], [50.390009040343834, 44.304345284149214], [50.39597258613096, 44.30192176206494], [50.40369946641551, 44.30044076969111], [50.410674738573526, 44.29855776373992], [50.4183243847993, 44.29703492891462], [50.42787854118338, 44.2965292799026], [50.44012426784912, 44.29746044475318], [50.449377536747974, 44.296792369676496], [50.459106466223986, 44.296377568023935], [50.468173230355895, 44.29560861439303], [50.47837778652229, 44.29544615446473], [50.48589953727893, 44.29385167306941], [50.499962401693324, 44.29330745656631], [50.5123111168316, 44.29466569518172], [50.51904878106867, 44.292784081082196], [50.52673968184438, 44.291452404094024], [50.535909416047325, 44.29097359750155], [50.54657817146435, 44.291358616747665], [50.555412484935616, 44.29068473680953], [50.56409705027048, 44.289923950029966], [50.572082467507826, 44.28875961608286], [50.58121428021081, 44.28825559871932], [50.59159933714485, 44.288473025445676], [50.539623243066636, 44.24696035196014], [50.48691505696118, 44.18186847226247], [50.6153628429819, 44.24450674429983], [50.63042478576497, 44.24741952094433], [50.63302453065381, 44.24315266342439], [50.64344487981037, 44.24339012242533], [50.65072256989526, 44.2418172357632], [50.65390414317502, 44.23788589039642], [50.65982998344058, 44.2355346424387], [50.659866263145986, 44.22979276419646], [50.66446766580412, 44.22667931915138], [50.66941946111729, 44.22376767846857], [50.674821341808425, 44.22111518283507], [50.67261135685661, 44.214080950873395], [50.68480557129063, 44.21533858930019], [50.688548358301254, 44.21173138648378], [50.681417963559255, 44.20186562602141], [50.69628959477292, 44.204664520219104], [50.68775273837266, 44.19398980351016], [50.70529163740089, 44.19832367636217], [50.70269679079539, 44.19107011175582], [50.71124955597952, 44.19023171839493], [50.713912271786775, 44.18600400245865], [50.71882988792266, 44.18307387764464], [50.712084735193834, 44.17343262146933], [50.716829449607935, 44.17040361024228], [50.7196061433516, 44.166242089111506], [50.72527894201484, 44.16374739583105], [50.72691374337328, 44.15892905801927], [50.734052817581386, 44.157278287590984], [50.75023877039094, 44.16083124214627], [50.7373760398056, 44.14767335584856], [50.742693692620115, 44.144974872908804], [50.748021606179805, 44.14228232189184], [50.765841788789125, 44.14677494621589], [50.77027972078612, 44.14357008278667], [50.77420033703137, 44.14006787227233], [50.77893334296342, 44.137032881039666], [50.74423303523947, 44.111311779575246], [50.7463587799071, 44.1067774938013], [50.75791646666216, 44.10767267724688], [50.75297828985019, 44.099072661205575], [50.758938047119706, 44.09674595688106], [50.76367617446449, 44.09371606379136], [50.80173807783923, 44.10985476840865], [50.77073413983913, 44.08626469698685], [50.76769695014019, 44.07875964977482], [50.78452145907412, 44.082686421186295], [50.813989959544934, 44.093879657199345], [50.78557568793509, 44.071696314573856], [50.79791341117308, 44.07305645450148], [50.80660361116782, 44.072309746752836], [50.816835973515644, 44.07245242082085], [50.81414742015779, 44.06513846621719], [50.81799126390633, 44.06159454763994], [50.80342237909033, 44.04742115887416], [50.8068506143125, 44.043637885351515], [50.81745225137103, 44.04399656721567], [50.87158855642075, 44.057945191666654], [50.86978886077334, 44.051151271001345], [50.86932240978451, 44.0451257875985], [50.868378344883965, 44.03882483706923], [50.86831082726123, 44.03302926102061], [50.87153017118068, 44.02912925280578], [50.87259689924258, 44.023987991521565], [50.87738276745772, 44.020991703553875], [50.88216717903712, 44.01799465096615], [50.88693356426529, 44.01498727982475], [50.89096845610374, 44.01155823045146], [50.899080036111265, 44.01047955299594], [50.90987499931432, 44.010946998832], [50.9176537144344, 44.009675423954526], [50.92315271603307, 44.00709008966889], [50.812963086445535, 43.93196275933716], [50.800799151031875, 43.91916431012342], [50.94911131500397, 43.981774343684044], [50.994510088325455, 43.93315901370598], [50.99551772098633, 43.92798958434043], [50.996413143812006, 43.92275561699098], [50.997350297729774, 43.9175457640286], [50.99756940613997, 43.91192238977864], [50.99752258197902, 43.90614583655951], [50.99881484667555, 43.901140748151406], [51.001081697215035, 43.8966972509299], [51.00218454878312, 43.89158327313406], [51.0037020059808, 43.8867082769304], [51.00520461119672, 43.88182484124476], [51.006940627994794, 43.87707602114652], [51.00705257652262, 43.87139144001174], [51.009151230973764, 43.866851828988864], [51.01129920901002, 43.86234078487827], [51.012181561607406, 43.85710046326454], [51.013646721879255, 43.852196136003556], [51.016276533691254, 43.84796321345032], [51.017220517976675, 43.842758738716675], [51.01488142100893, 43.83566170927158], [51.018682813113706, 43.832104638511105], [51.02196413323718, 43.82830615566285], [51.02141451118215, 43.82925692373448], [51.022912196595705, 43.824660904169804], [51.024042902444045, 43.81990024297599], [51.024400884506456, 43.814792780473944], [51.0253907385112, 43.80996900198332], [51.02802674790748, 43.80588429208327], [51.03020170195153, 43.80159270254086], [51.03062667013055, 43.79651556275412], [51.03441121573339, 43.792946780703225], [51.03724447943797, 43.788951017108694], [51.04098378372027, 43.785362092919875], [51.045082875606184, 43.78193475219283], [51.04983857222381, 43.77880219903977], [51.052946903863614, 43.77493026969672], [51.057685789928655, 43.77179027451205], [51.06166258262317, 43.76830828459419], [51.06575616022728, 43.7648787713454], [51.06913419615717, 43.76112821769487], [51.07124650142986, 43.756809746553394], [51.0721355332822, 43.75194238537118], [51.07535509176323, 43.748121018779756], [51.0771581437722, 43.74366403867081], [51.07854595128228, 43.73902078111289], [51.08105908841095, 43.73488267195945], [51.08192166448931, 43.73000384348302], [51.08405518558085, 43.7256955389465], [51.087233521821915, 43.72185628905002], [51.09236653189822, 43.71889441299686], [51.09895375440254, 43.716585105204274], [51.10049654330411, 43.71201214593462], [51.1039834470498, 43.70831169300486], [51.106665604081996, 43.70425021090404], [51.10910991708635, 43.70008209663169], [51.11211537826517, 43.69616588589664], [51.11447139017571, 43.69195834265297], [51.11598598910556, 43.687373316956005], [51.11766375073597, 43.68285384101293], [51.119379607805065, 43.67833090788547], [51.12253333545653, 43.67445334832988], [51.12635980647412, 43.67087777838531], [51.129834487579544, 43.667144422749004], [51.17084633268125, 43.680243992410894], [51.151589824504185, 43.666319831113285], [51.13680003802482, 43.65439297110928], [51.140275233175664, 43.65066023617036], [51.14417403493141, 43.647117666151594], [51.18501069782618, 43.66013837827309], [51.15092500745085, 43.63956313571517], [51.193590003342415, 43.65340235137175], [51.204255841293275, 43.652890905275505], [51.16210661946178, 43.62870538845912], [51.17546004844014, 43.62940407719229], [51.18411263803656, 43.62800072741542], [51.19031526809163, 43.62550055614368], [51.19678846930514, 43.62312156559566], [51.20561872464991, 43.62179882383155], [51.222869354594735, 43.62424790892261], [51.231196977841776, 43.62269823966515], [51.23495780676884, 43.61910317725729], [51.21914961908027, 43.60674202403349], [51.21772774767292, 43.60082492295915], [51.220857404545676, 43.5969476722075], [51.22640888554909, 43.59415582727863], [51.230696537313456, 43.590797641211594], [51.235917992672064, 43.58785790715038], [51.240281645361776, 43.584533850547835], [51.264556847441014, 43.59012710807121], [51.25166999135771, 43.5790778926003], [51.268905913912505, 43.58165193572666], [51.27114384686523, 43.577426308435285], [51.27611384616724, 43.57422432896358], [51.27501994633699, 43.568750546949694], [51.27882112615186, 43.56511083671806], [51.27292629713037, 43.55783799388905], [51.28768679030838, 43.5583048015582], [51.28785671150956, 43.55330488352833], [51.29054790077926, 43.54924956312306], [51.28102539558062, 43.54061771023449], [51.28294630475789, 43.53627388363756], [51.28475142036424, 43.531886724921144], [51.285708091579515, 43.52718161856627], [51.29426063983779, 43.52532344416892], [51.285618018318225, 43.517020501074306], [51.2895935069417, 43.51344721096197], [51.29241260161101, 43.50944047636528], [51.29413705862469, 43.50502346848466], [51.303525357032555, 43.503479161519735], [51.29522657309075, 43.49530509479123], [51.300364506828316, 43.492167999401374], [51.29761746849097, 43.48607479179351], [51.311470019461396, 43.486204669306254], [51.31393567501337, 43.48206593126877], [51.33877387028931, 43.48630906794909], [51.33869419066253, 43.48121718478717], [51.33791192942496, 43.47586212669502], [51.311607498504955, 43.460941652242475], [51.31315995014069, 43.45646086381626], [51.31426051443755, 43.451810686907685], [51.33121885342479, 43.45310558013499], [51.31396367244582, 43.4415736482909], [51.32957852676187, 43.44236604411923], [51.32945684706276, 43.437258047126214], [51.334418899795345, 43.43405597259551], [51.33542515145424, 43.42937098154511], [51.33702668441012, 43.42490921109645], [51.338415969706745, 43.42036792808665], [51.34028067761587, 43.416004951080005], [51.34037124660256, 43.41097684095626], [51.33785125516531, 43.40496976415716], [51.337174414474156, 43.39965375273303], [51.33835778602736, 43.39503543273363], [51.33713862737693, 43.38951595268093], [51.32906285390091, 43.38142363284355], [51.314980366963084, 43.37107471871045], [51.331890952902114, 43.372360122313175], [51.31383568205543, 43.360518988250064], [51.327206444797504, 43.36047685311037], [51.327677695666324, 43.35559124165235], [51.31271288308764, 43.344908285255514], [51.3116703840321, 43.33945358831368], [51.310946138411815, 43.334118393762125], [51.30933481811034, 43.32844976773653], [51.30813829681828, 43.3229369084931], [51.30689594390598, 43.31740671964438], [51.30493791330942, 43.31160735412063], [51.303517403168556, 43.30600992896655], [51.30138907375903, 43.300146185083605], [51.29964146180003, 43.2944254429722], [51.29774623807166, 43.28864901233189], [51.296526361006855, 43.2831265057613], [51.294296522229054, 43.27722384827197], [51.29261597350623, 43.271527709747076], [51.44075673602274, 43.2810601976698], [51.47654338284505, 43.26012806794016], [51.47165674600459, 43.238106736603754], [51.514188902963674, 43.24996976248658], [51.535243971821565, 43.25330014553887], [51.53911947752669, 43.24981823567855], [51.54724598571364, 43.24300336849227], [51.547078239003596, 43.237919090636055], [51.41383282649364, 43.15986993588664], [51.43019963837026, 43.161366757696065], [51.44586694139843, 43.162582513909136], [51.46563666056264, 43.1654278167129], [51.47591163334453, 43.1644939262872], [51.50928172002909, 43.17273697370334], [51.59210721862386, 43.200573297708715], [51.57595982473588, 43.18915851217268], [51.597306706150455, 43.192600269284384], [51.60065646474856, 43.188910939524355], [51.606324972341454, 43.186140027191755], [51.55691534098261, 43.13644931923366], [51.56380146503566, 43.13416492810494], [51.566177239622576, 43.130090459739534], [51.66901224452308, 43.13573141717345], [51.66909006910074, 43.13074829901688], [51.66955617290864, 43.125918833322835], [51.67035422908556, 43.12122076009344], [51.66516994712254, 43.114154834676526], [51.65692934018736, 43.10587793296223], [51.66142760641579, 43.10264492175813], [51.665950264172615, 43.09942158021891], [51.6700616448191, 43.09603541734865], [51.67351531266628, 43.092388897727226], [51.67879760271944, 43.089466347838965], [51.684106413743585, 43.08655425308076], [51.68948065958074, 43.08366801169007], [51.69458740354314, 43.08067585799719], [51.69989254163322, 43.07776218131232], [51.707921008420115, 43.07366369521439], [51.713913077892315, 43.07123986719496], [51.71824454670461, 43.06798263804631], [51.723406612185215, 43.06514227184834], [51.728633062611216, 43.062334220026464], [51.73330668985117, 43.05924881314012], [51.73831023629613, 43.05632896676682], [51.74263328133374, 43.05306777273553], [51.746528203949495, 43.04959188947691], [51.75146345127686, 43.046637921808], [51.75523383654167, 43.043099730322446], [51.759450680486495, 43.039785553899854], [51.76311176239098, 43.0361927227277], [51.7661006027367, 43.03226284746126], [51.768865136235426, 43.028220589869356], [51.77115411980985, 43.023939945619354], [51.77467782136646, 43.02027865530149], [51.77727713790137, 43.01615387960259], [51.77650876404399, 43.010340164057794], [51.78309369537951, 43.00821456688784], [51.78632000198918, 43.00440457144119], [51.787114863076546, 42.99937528841331], [51.78897309195455, 42.994879395505976], [51.78891993322404, 42.9894248990449], [51.792503419222115, 42.985794557739], [51.79705160044375, 42.98264816192839], [51.80165704171671, 42.979530536843185], [51.802933386995896, 42.97474339531574], [51.80351593375622, 42.96960834825772], [51.804183438148904, 42.96451595516511], [51.80648386172389, 42.96024272172681], [51.80838104676175, 42.95576732591555], [51.81246965070741, 42.952391293273806], [51.816559832904595, 42.94901613181017], [51.82011305188172, 42.94537173154815], [51.824315727600656, 42.942053161632295], [51.82727560133422, 42.93821048288871], [51.829865423599095, 42.93421310715605], [51.83147820559799, 42.929725814294805], [51.832558414788956, 42.92497148963544], [51.833711326398586, 42.920253700360455], [51.83634755747437, 42.916280033172924], [51.84169843530988, 42.913668074682114], [51.844806434563544, 42.90993123658792], [51.84783918223497, 42.90615676071958], [51.85096970985095, 42.902431429122146], [51.85452279482639, 42.89891811996135], [51.85909838922977, 42.89591767934414], [51.86161865304211, 42.89188660861765], [51.86606489474344, 42.88882145733816], [51.86909431140127, 42.88504591767146], [51.87264436487057, 42.88153154602081], [51.87549093591315, 42.87766452941843], [51.87822385731508, 42.87374063333585], [51.881124350674526, 42.869900867982516], [51.88287948085913, 42.86548690034751], [51.88455749771003, 42.86103435957478], [51.88636473261801, 42.85664670920818], [51.88835476282076, 42.85235082195997], [51.892221436302655, 42.84899610636674], [51.91238830562367, 42.85381258289384], [51.899134434780265, 42.84187558361111], [51.902158563802935, 42.8380986705712], [51.92269785540762, 42.84310146898129], [51.91139282121128, 42.83214252968838], [51.91924706625879, 42.83078723136625], [51.932914861581885, 42.83234484678426], [51.989328957288656, 42.85062587543469], [52.003238768058274, 42.85421003897496], [52.017598416568575, 42.85810819044294], [51.99345385599926, 42.74160282912118], [52.12021243799889, 42.756388067973695], [52.069978862148744, 42.696152014785945], [52.09120863897099, 42.67385017233588], [52.21444756142193, 42.72955662558851], [52.216179982703046, 42.724571007466274], [52.258588194251615, 42.63654781433812], [52.25150414253599, 42.62536772691209], [52.252928897524825, 42.62016918867589]]}, "properties": {"year": 2024, "sensor": "COPERNICUS/S2_SR_HARMONIZED", "scale_m": 30, "n_scenes": 64, "date_window": ["2024-07-01", "2024-08-01"], "otsu_threshold": 0.0196, "data_quality": "good", "length_km": 527.4}}]}