{
  "type": "FeatureCollection",
  "crs": {
    "type": "name",
    "properties": {
      "name": "EPSG:4326"
    }
  },
  "features": [
    {
      "type": "Feature",
      "geometry": {
        "type": "LineString",
        "coordinates": [
          [
            50.27495069469811,
            44.55730410328804
          ],
          [
            50.268262411498675,
            44.54811425125893
          ],
          [
            50.512145997726485,
            44.29457038099434
          ],
          [
            50.51954904420649,
            44.29307281280269
          ],
          [
            50.54701503245987,
            44.29161058844754
          ],
          [
            50.526894067643426,
            44.29154149479355
          ],
          [
            50.55633416963145,
            44.29121622838718
          ],
          [
            50.53587814551871,
            44.29095555628783
          ],
          [
            50.564690371048265,
            44.2902660219921
          ],
          [
            50.57214991616937,
            44.28879849616809
          ],
          [
            50.591709817281824,
            44.28853667981594
          ],
          [
            50.58125436165254,
            44.288278698194034
          ],
          [
            50.609748722530306,
            44.212443444185375
          ],
          [
            50.61732233749865,
            44.2110449935279
          ],
          [
            50.757226334453414,
            44.153334738805356
          ],
          [
            50.70508111147877,
            44.152120295885496
          ],
          [
            50.74344900464459,
            44.15116762952134
          ],
          [
            50.71199535243507,
            44.15034155992176
          ],
          [
            50.73146989203502,
            44.15003318946357
          ],
          [
            50.720998197475424,
            44.14976500496228
          ],
          [
            50.7651735040956,
            44.14639064933408
          ],
          [
            50.75249255518689,
            44.144854448581235
          ],
          [
            50.77078093462195,
            44.14385828355819
          ],
          [
            50.78261267958718,
            44.13339219152926
          ],
          [
            50.78187205287774,
            44.12721033888865
          ],
          [
            50.785515431173096,
            44.12354932681855
          ],
          [
            50.75151248669853,
            44.1212597549588
          ],
          [
            50.78213850127673,
            44.11585149048966
          ],
          [
            50.794494266209995,
            44.11144521375893
          ],
          [
            50.78404665820607,
            44.111192927736795
          ],
          [
            50.84703493190299,
            44.078348171995565
          ],
          [
            50.81334040402454,
            44.07619771423702
          ],
          [
            50.85133510593336,
            44.07506687590902
          ],
          [
            50.82106654040424,
            44.07489346267375
          ],
          [
            50.79983477709472,
            44.07416563996927
          ],
          [
            50.789601191423195,
            44.07402088001311
          ],
          [
            50.778956871513905,
            44.073728009778684
          ],
          [
            50.827729488984644,
            44.0729755601955
          ],
          [
            50.85634972437824,
            44.07219755654675
          ],
          [
            50.854583733462995,
            44.06541925552067
          ],
          [
            50.86453999745972,
            44.06539909304813
          ],
          [
            50.86207504848478,
            44.058218365498135
          ],
          [
            50.87119065536165,
            44.05771584016674
          ],
          [
            50.86979763688161,
            44.05115633035282
          ],
          [
            50.86843417428967,
            44.04461366124679
          ],
          [
            50.86833447405228,
            44.038799539717274
          ],
          [
            50.86875826803156,
            44.033287293517674
          ],
          [
            50.87110321978194,
            44.0288830359561
          ],
          [
            50.87275382696781,
            44.024078494088336
          ],
          [
            50.87737204574597,
            44.02098552058668
          ],
          [
            50.881905960790405,
            44.017844021974064
          ],
          [
            50.88708171786276,
            44.015072704791066
          ],
          [
            50.89132421384985,
            44.01176335000106
          ],
          [
            50.900045032258326,
            44.01103583372552
          ],
          [
            50.91000270406069,
            44.0110205961087
          ],
          [
            50.91765468933131,
            44.00967598570015
          ],
          [
            50.923336973701,
            44.00719625062387
          ],
          [
            50.99454126819681,
            43.93317696881869
          ],
          [
            50.99577493570896,
            43.92813771162961
          ],
          [
            50.9966937195778,
            43.92291720831767
          ],
          [
            50.99765325695614,
            43.917720257862676
          ],
          [
            50.99795026222611,
            43.912141768841465
          ],
          [
            50.99805533989072,
            43.906452742991
          ],
          [
            50.999129413716446,
            43.90132197133943
          ],
          [
            51.00133684331343,
            43.896844244425516
          ],
          [
            51.00275323048149,
            43.891910916779246
          ],
          [
            51.0040973294897,
            43.88693605183606
          ],
          [
            51.00542075841094,
            43.88194938555032
          ],
          [
            51.00516875534137,
            43.876054992787815
          ],
          [
            51.007602596501066,
            43.87170840176185
          ],
          [
            51.00908893166267,
            43.86681592630414
          ],
          [
            51.011565914184594,
            43.862494487970906
          ],
          [
            51.01237232818178,
            43.85721041015601
          ],
          [
            51.0140428284146,
            43.85242443885267
          ],
          [
            51.01636606695583,
            43.848014818090725
          ],
          [
            51.016978213892806,
            43.84261907115214
          ],
          [
            51.01742678278286,
            43.837129082792515
          ],
          [
            51.06584171840124,
            43.764917167369624
          ],
          [
            51.06948592289918,
            43.761286057322
          ],
          [
            51.071703826476295,
            43.757014976976606
          ],
          [
            51.095757442127876,
            43.72041615606862
          ],
          [
            51.099141666611054,
            43.716669427773155
          ],
          [
            51.10437929044632,
            43.70848932138192
          ],
          [
            51.107288369093354,
            43.704529664544836
          ],
          [
            51.109443448023754,
            43.700231763526396
          ],
          [
            51.112723308624936,
            43.69643867993565
          ],
          [
            51.11489459668834,
            43.69214824834408
          ],
          [
            51.17612771192561,
            43.629703500308246
          ],
          [
            51.18437950256576,
            43.6281203823407
          ],
          [
            51.19094604327877,
            43.625783341759856
          ],
          [
            51.197483593953436,
            43.62343315779756
          ],
          [
            51.205341297654996,
            43.621674490880835
          ],
          [
            51.21016687350042,
            43.61855676795979
          ],
          [
            51.215844249969635,
            43.615820748118765
          ],
          [
            51.21913302029032,
            43.61201445091283
          ],
          [
            51.218868014891505,
            43.60661583299533
          ],
          [
            51.217749893959564,
            43.60083484835818
          ],
          [
            51.220433480215796,
            43.59675768231766
          ],
          [
            51.22705004638501,
            43.5944431411757
          ],
          [
            51.232298357730926,
            43.59151538704821
          ],
          [
            51.23797113479219,
            43.588777790818654
          ],
          [
            51.24266058400763,
            43.5855996315269
          ],
          [
            51.24777239292351,
            43.58261069752736
          ],
          [
            51.252259441908954,
            43.57934192193616
          ],
          [
            51.272616892460846,
            43.57797819914586
          ],
          [
            51.25643824450667,
            43.576979659595104
          ],
          [
            51.26787614227324,
            43.56607355316851
          ],
          [
            51.27056703665106,
            43.56201788215314
          ],
          [
            51.273013242650556,
            43.557870578723225
          ],
          [
            51.27522800588253,
            43.55363660762225
          ],
          [
            51.28784350438226,
            43.55329993564883
          ],
          [
            51.29059192232323,
            43.54926605502535
          ],
          [
            51.28110131745808,
            43.54064616516485
          ],
          [
            51.28293090125371,
            43.5362681104191
          ],
          [
            51.284804229150986,
            43.531906517987544
          ],
          [
            51.285752095730686,
            43.52719811244414
          ],
          [
            51.28505419643155,
            43.52187282573224
          ],
          [
            51.28607338560559,
            43.517191212761674
          ],
          [
            51.28984318002489,
            43.51354080537475
          ],
          [
            51.29222893089928,
            43.50937162466824
          ],
          [
            51.29413815838186,
            43.5050238807533
          ],
          [
            51.30365073346905,
            43.50352614978316
          ],
          [
            51.29538491388489,
            43.49536446002856
          ],
          [
            51.29523079846007,
            43.49024327373999
          ],
          [
            51.33880026352106,
            43.48631895212521
          ],
          [
            51.31163714848625,
            43.48626730898769
          ],
          [
            51.29766474425809,
            43.486092517995
          ],
          [
            51.31436007282714,
            43.48222499364299
          ],
          [
            51.33720861128587,
            43.48066077619874
          ],
          [
            51.34220897544897,
            43.477471557054116
          ],
          [
            51.311642668878655,
            43.460954839624875
          ],
          [
            51.31328303857717,
            43.45650701799625
          ],
          [
            51.31445832137399,
            43.45188486140229
          ],
          [
            51.314420302701144,
            43.446807759052476
          ],
          [
            51.31437350289535,
            43.4417273554988
          ],
          [
            51.3147507939633,
            43.43680601054042
          ],
          [
            51.31558173708808,
            43.43205484662931
          ],
          [
            51.316021488656766,
            43.42715697770433
          ],
          [
            51.60638449416235,
            43.18616360022406
          ],
          [
            51.59229997543384,
            43.18560056270454
          ],
          [
            51.563761507073835,
            43.17930518809721
          ],
          [
            51.66962224956177,
            43.13095888108986
          ],
          [
            51.67019106388436,
            43.12617007422627
          ],
          [
            51.67135678962614,
            43.12161751601666
          ],
          [
            51.66527267480396,
            43.11419549988472
          ],
          [
            51.65713043256338,
            43.10595756592052
          ],
          [
            51.66152058228084,
            43.102681737722584
          ],
          [
            51.66611134645858,
            43.09948535966307
          ],
          [
            51.67018704745518,
            43.09608506671134
          ],
          [
            51.673554229234725,
            43.09240430500991
          ],
          [
            51.67894461885946,
            43.08952454631507
          ],
          [
            51.684038311727015,
            43.0865272965675
          ],
          [
            51.68973036418947,
            43.08376684023052
          ],
          [
            51.694937632983006,
            43.08081445897575
          ],
          [
            51.69981363324221,
            43.07773095679933
          ],
          [
            51.70774972648079,
            43.07357772475722
          ],
          [
            51.71432355188811,
            43.07144586857419
          ],
          [
            51.71870771517469,
            43.06821507153498
          ],
          [
            51.72363160712829,
            43.06525517279715
          ],
          [
            51.728956365137904,
            43.062496436748745
          ],
          [
            51.73363809601271,
            43.0594150845647
          ],
          [
            51.73832949211677,
            43.05633862698826
          ],
          [
            51.74265050990442,
            43.05307641544802
          ],
          [
            51.74708862734501,
            43.04987301167399
          ],
          [
            51.75156479240244,
            43.04668875351699
          ],
          [
            51.75557838753049,
            43.04327254658375
          ],
          [
            51.75974151600204,
            43.03993142063549
          ],
          [
            51.7632982157577,
            43.03628623429809
          ],
          [
            51.76641675038362,
            43.032421402323486
          ],
          [
            51.76966053996337,
            43.02861949760054
          ],
          [
            51.77135675900181,
            43.02404157479964
          ],
          [
            51.774948336282996,
            43.02041432199707
          ],
          [
            51.77769555583419,
            43.016363721603796
          ],
          [
            51.77911226121752,
            43.01164595603905
          ],
          [
            51.78341482697398,
            43.00837561630092
          ],
          [
            51.78644865234644,
            43.00446908937728
          ],
          [
            51.788221991382485,
            42.99993053770458
          ],
          [
            51.789828962693086,
            42.995308647386636
          ],
          [
            51.7897331905539,
            42.989832816823316
          ],
          [
            51.793148535478096,
            42.98611812944474
          ],
          [
            51.79739491378221,
            42.982820347950735
          ],
          [
            51.801876799449175,
            42.97964074757538
          ],
          [
            51.803104523025254,
            42.974829225930236
          ],
          [
            51.804052591643234,
            42.96987751816672
          ],
          [
            51.80429076100515,
            42.96456978884114
          ],
          [
            51.80655169436377,
            42.96027674737466
          ],
          [
            51.80849240737733,
            42.9558231871473
          ],
          [
            51.81233197185539,
            42.952322233178805
          ],
          [
            51.816483908729396,
            42.9489780498973
          ],
          [
            51.82009989209366,
            42.94536513108801
          ],
          [
            51.82450603477853,
            42.942148607366384
          ],
          [
            51.82743047289198,
            42.93828815559096
          ],
          [
            51.829901862308304,
            42.93423138230679
          ],
          [
            52.189852442200284,
            42.69365736287936
          ],
          [
            52.19238981676784,
            42.68923750641381
          ],
          [
            52.21483613230787,
            42.68020749151864
          ]
        ]
      },
      "properties": {
        "id": "main_shoreline"
      }
    }
  ]
}