{"type": "FeatureCollection", "crs": {"type": "name", "properties": {"name": "EPSG:4326"}}, "features": [{"type": "Feature", "geometry": {"type": "LineString", "coordinates": [[50.27498701170803, 44.55732349514398], [50.26831990089525, 44.548144958358996], [50.25770524203371, 44.53685556641119], [50.26387644108351, 44.53453460676367], [50.24041233871316, 44.51637263669236], [50.241554359334266, 44.51136385846375], [50.24243318753513, 44.50621439829737], [50.24258239604171, 44.5006747315964], [50.309201628377856, 44.53065330239079], [50.24157217956587, 44.488895287358446], [50.24115836511703, 44.4830543295484], [50.241306598571974, 44.47751410362358], [50.24182840718205, 44.47217382346163], [50.242206120014785, 44.466756465850146], [50.24297039236505, 44.46154605535933], [50.24373854974345, 44.456337789821596], [50.24428508973981, 44.45101094924496], [50.24379773985538, 44.445130620575995], [50.24566270088287, 44.440509757179264], [50.24738746382161, 44.4358139503429], [50.2454638430287, 44.429164590577386], [50.2435104624682, 44.42249902566986], [50.24329704946982, 44.41676525783254], [50.24289454133733, 44.41093016352743], [50.24458643380841, 44.40621712420225], [50.24447454350072, 44.40053777338667], [50.31549284846832, 44.331841899443724], [50.32176381921513, 44.32958379108124], [50.32894418286092, 44.32781239677068], [50.33413642579171, 44.32497666055843], [50.33793773222221, 44.32139648948335], [50.345558997794754, 44.31986080577469], [50.3529244865291, 44.318187965028976], [50.35982301683305, 44.31626505424759], [50.36639632139807, 44.314167995688514], [50.373838951794376, 44.31253574999243], [50.37933439207891, 44.30986195803138], [50.38285043457668, 44.306129692382086], [50.39057416597457, 44.30464744313069], [50.39588912385798, 44.30187714125893], [50.40395891606437, 44.30057945267279], [50.4113032726351, 44.29889368140245], [50.418273094460424, 44.29700752129704], [50.427950956873296, 44.29656796694746], [50.44057088987231, 44.29769896651469], [50.44947310447525, 44.29684339718417], [50.46006323538744, 44.29688829558365], [50.46882520516856, 44.29595656741641], [50.47846331521135, 44.29549178906005], [50.48642782690858, 44.29413349818129], [50.500253517583054, 44.29347555611327], [50.512475259430765, 44.29476044514405], [50.51994085528733, 44.29329894686352], [50.52924411172253, 44.29289756488583], [50.53599541009988, 44.29102321079525], [50.54712351530026, 44.291673158342945], [50.55678671020374, 44.29147718070946], [50.56538144694135, 44.290664444602335], [50.57242850941108, 44.28895908740345], [50.58160923042342, 44.28848321244338], [50.591639422830646, 44.288496121291466], [50.464897473178105, 44.203764002083766], [50.46690559131155, 44.19915270935858], [50.48054126855249, 44.20127077374334], [50.4931694236959, 44.2028038841523], [50.49607940538783, 44.198715034080614], [50.69528651782636, 44.11191384631376], [50.70113857310436, 44.10952605434828], [50.80559795188035, 44.106318883263484], [50.800570204190606, 44.06306371990013], [50.87157100189747, 44.05793507324747], [50.86997608474051, 44.05125920368573], [50.869340935166385, 44.045136468535325], [50.868394918318984, 44.03883439384224], [50.86891813887831, 44.033379487708814], [50.87115683220636, 44.028913953684985], [50.87292635054614, 44.0241779904493], [50.87719952396352, 44.0208860308847], [50.881942024424845, 44.017864817803414], [50.886893601854624, 44.01496423753105], [50.89177744302488, 44.01202466507599], [50.900835562749755, 44.011491528303274], [50.91097561013346, 44.011581279050525], [50.91763421650001, 44.009664189040436], [50.89802281625604, 43.99260502786875], [50.9355564432122, 43.97396447277173], [50.99449937024901, 43.933152841634], [50.99599902533368, 43.92826676144442], [50.99684375029804, 43.923003614506406], [50.997814965821064, 43.917813395719705], [50.99802623896681, 43.91218553228681], [50.998381620291056, 43.906640700905605], [50.99958422454604, 43.90158398598648], [51.00139819542506, 43.896879590104206], [51.00301030781623, 43.89205902872492], [51.004129461828484, 43.886954565499416], [51.00582287251631, 43.88218108174437], [51.00699417453887, 43.87710687596855], [51.007881015916105, 43.87186884510074], [51.0095999829084, 43.86711043950449], [51.01173917594468, 43.8625943385493], [51.01253194973168, 43.85730240628818], [51.014238449710184, 43.852537187415614], [51.01656946375013, 43.848132050109115], [51.017261388656465, 43.842782297050064], [51.01778777499985, 43.83733718045469], [51.01920723665826, 43.83240696320895], [51.02214704262695, 43.82841159981764], [51.021227412251534, 43.829172949532], [51.02343223687806, 43.82489431575138], [51.024513230506436, 43.82011135274322], [51.0250561198428, 43.815086908627805], [51.02564435869434, 43.81008285639473], [51.02832368058734, 43.806017589817415], [51.03035914136546, 43.80166338070186], [51.0322854789144, 43.797260275960525], [51.03629713056307, 43.7937934131462], [51.039248636855156, 43.789850721525795], [51.042373014523065, 43.78598572654491], [51.0463674828722, 43.7825113903332], [51.05046184680412, 43.77908195838429], [51.0535965616621, 43.77522186571866], [51.057459735452575, 43.7716888170237], [51.06172490442143, 43.76833625428922], [51.06634133807089, 43.76514137990456], [51.06958943442456, 43.76133250841647], [51.07198160279885, 43.75713963104705], [51.07387177710097, 43.75272157490225], [51.07644917245691, 43.74861201352443], [51.07837676688047, 43.74421093811831], [51.079423425626004, 43.73941459661238], [51.08162609080525, 43.73513714774563], [51.083059812470786, 43.730514679648216], [51.08829723496386, 43.727599429192935], [51.08802212355901, 43.722210238054295], [51.09647322903977, 43.72073735789641], [51.099639953219466, 43.71689302319317], [51.101929030701704, 43.71265496051852], [51.10465057646997, 43.70861105523344], [51.10767891959269, 43.704704913392], [51.11057387692023, 43.70073901334736], [51.1132362541501, 43.69666884737633], [51.11580011983645, 43.692554574927705], [51.11344802633123, 43.68623435585138], [51.117221606718786, 43.682655421161805], [51.120095019526765, 43.67865196459359], [51.122781291612974, 43.67456462280393], [51.12671432031422, 43.67103686528732], [51.13024490705775, 43.66732859127843], [51.13212395963067, 43.66287931270147], [51.13461882294838, 43.658706467122336], [51.13726313666275, 43.65460078391873], [51.140947177616546, 43.65096175694875], [51.145217261011034, 43.647585767425895], [51.14841835047869, 43.64373019589827], [51.151612702433454, 43.639871693254314], [51.19346019939738, 43.65334419012207], [51.20367010128507, 43.652628523897036], [51.16230067328489, 43.62879244768137], [51.1773269914014, 43.63024131680294], [51.19297880230251, 43.63197548901277], [51.192245585359764, 43.62636592582525], [51.1998211218503, 43.62448090853913], [51.20615248474167, 43.622038032847996], [51.2102670830293, 43.618601674977704], [51.22709286929299, 43.6208600976289], [51.23478583560327, 43.61902616343053], [51.24200777521232, 43.616981017392185], [51.244861344823434, 43.61297982228175], [51.24528395017968, 43.60789021064518], [51.2272398649064, 43.59452820051583], [51.23179112806148, 43.59128811118904], [51.239947356232356, 43.58966314965367], [51.242025770373424, 43.585315239178534], [51.247162894594744, 43.58233767024035], [51.252963836790045, 43.579657430612556], [51.25736843688181, 43.577328322579206], [51.26090372917062, 43.57358894382209], [51.26492401112962, 43.57003138664667], [51.26790145818406, 43.56608304099677], [51.270616565279916, 43.562036444144084], [51.27120061297852, 43.557191233030956], [51.275677017083346, 43.55380488428908], [51.277969578721404, 43.549600141250444], [51.27987778474732, 43.545251422651], [51.28109141460046, 43.54064245365509], [51.28292650025305, 43.536266460927735], [51.284931850527855, 43.53195435112992], [51.28597211684529, 43.527280581577706], [51.28525549712149, 43.52194828635689], [51.28683893638112, 43.51747820220812], [51.29002356105721, 43.51360842390413], [51.29248848963144, 43.50946892398572], [51.294272328868104, 43.50507417744801], [51.29515856790899, 43.5003430003252], [51.29498906247957, 43.495216046521264], [51.29552436436532, 43.490353346766845], [51.29787253807302, 43.48617043060075], [51.3001456312937, 43.48195943359081], [51.31985985358001, 43.4842860677587], [51.3395623717882, 43.48660435506284], [51.33924950303324, 43.48142516375971], [51.33783056483069, 43.47583164972982], [51.337318909619306, 43.47057789731485], [51.334903340388266, 43.46461077562351], [51.33787437498379, 43.46066180190697], [51.33144416180346, 43.45319002309526], [51.32872436663877, 43.44710823534788], [51.335586204623674, 43.4446179347406], [51.33756833044595, 43.44029867634517], [51.338240406167046, 43.43548846045438], [51.33987924710576, 43.43104065799276], [51.33981275982713, 43.425953668414216], [51.340650386800945, 43.42120561501415], [51.34095732677097, 43.41625863978232], [51.34214072601921, 43.411640293956374], [51.34151065869969, 43.406342024123454], [51.34074013654208, 43.40099103097681], [51.34002246083007, 43.395659795537725], [51.33933895124445, 43.390341317489906], [51.336535585326246, 43.38422751757378], [51.33349677629595, 43.378025081022415], [51.333479203831324, 43.372956162442044], [51.31360196376019, 43.36043121129642], [51.31448245897158, 43.3556989512995], [51.3273254713306, 43.355459000410065], [51.313689202225866, 43.34527505898835], [51.31282211177409, 43.339886309260244], [51.311787368959614, 43.3344344931213], [51.310316336232944, 43.328818632907364], [51.30948706975516, 43.323443853337274], [51.3077138969425, 43.31771419509211], [51.30570096164272, 43.31189423508066], [51.30426612373777, 43.30629146136648], [51.31141680069608, 43.30391677214187], [51.30081198093701, 43.29486571139405], [51.299049234583656, 43.289139183088515], [51.297377770726264, 43.283446838938225], [51.29562882966433, 43.277725191734525], [51.293587709930726, 43.27189342659556], [51.49493075629451, 43.2875036634633], [51.475211758658176, 43.25959938007308], [51.46989493579661, 43.23740689281848], [51.514343730846775, 43.25003117590628], [51.53522664515805, 43.253293277304216], [51.539432430914445, 43.24994228223588], [51.54354787886982, 43.24655551058647], [51.547326114182546, 43.243035125731645], [51.54687468696587, 43.23783840936354], [51.41602178339294, 43.160741968661746], [51.431244544664715, 43.16178282984654], [51.448489815303034, 43.16362640284157], [51.46646461544973, 43.16575714743161], [51.47789840808501, 43.16528395910368], [51.50925468736152, 43.17272623558654], [51.592366988502434, 43.20067619341909], [51.53873186628319, 43.17439303445131], [51.56375177087662, 43.179301327039454], [51.5882410932868, 43.18399230779778], [51.60647648252061, 43.18620003121235], [51.49935873760307, 43.13867778314425], [51.50405793462031, 43.13552653641441], [51.51550522203708, 43.135057349608836], [51.51918965569474, 43.13150263574029], [51.5285946155702, 43.13022091850794], [51.54049137941489, 43.129928274965785], [51.544595537960426, 43.126540150593264], [51.54950544224822, 43.1184541664882], [51.599813087775566, 43.13339918413937], [51.6028405505959, 43.12958331363457], [51.639615220542865, 43.13913857902839], [51.637319364471495, 43.13321448279461], [51.632120536240265, 43.12614020377757], [51.60310734581758, 43.10962469630336], [51.67049948991167, 43.13130599362715], [51.67062370123947, 43.12634127552311], [51.67154821850765, 43.12169327099021], [51.66740079024368, 43.11503789076264], [51.65726881901566, 43.10601236688819], [51.66144598535708, 43.102652199338564], [51.66616215771842, 43.09950547796359], [51.670322179831594, 43.096138568023925], [51.67341694031588, 43.092349951480664], [51.67895542888068, 43.089528825607225], [51.68405776943998, 43.08653499843262], [51.690040604360235, 43.08388962643585], [51.69516571534463, 43.0809047201401], [51.69999739263215, 43.07780367133332], [51.707902765350624, 43.073654538610086], [51.71441071462006, 43.07148961188391], [51.71879487637071, 43.06825881154042], [51.72390322374118, 43.06539146703592], [51.72916717146184, 43.0626022076527], [51.73369890467643, 43.059445592976786], [51.73861528974161, 43.05648200462362], [51.742814688290345, 43.053158775281595], [51.747124097351744, 43.049890804124004], [51.75188097778563, 43.046847347861174], [51.75554899928276, 43.043257806414466], [51.75977799720888, 43.03994971745507], [51.763453256214916, 43.03636399096596], [51.766725806541366, 43.032576399004526], [51.769942226801035, 43.02876076548393], [51.77172455083616, 43.024226030827435], [51.77498582346239, 43.020433122199336], [51.777716831398116, 43.0163743914944], [51.77943137445998, 43.01180600031803], [51.78353132623045, 43.00843404093971], [51.786952113409086, 43.00472157153605], [51.78826959935784, 42.999954413687185], [51.78998494514728, 42.9953868772037], [51.78989321006924, 42.98991307890525], [51.79341995218066, 42.98625426211523], [51.79751542835644, 42.982880790582676], [51.80178160475943, 42.97959300657373], [51.803121737918346, 42.97483785976458], [51.804173087167975, 42.96993795407643], [51.8052080752861, 42.965029910223], [51.80690908248676, 42.960456016155575], [51.80863920122255, 42.95589682223845], [51.812708564736994, 42.95251113244941], [51.81659020260077, 42.94903136456092], [51.820114064173225, 42.9453722392758], [51.8243349607463, 42.94206280775838], [51.82746691331486, 42.93830643148982], [51.82998384948248, 42.93427250135265], [51.832132041821836, 42.9300537412922], [51.83378301381556, 42.9255857047592], [51.834706117390695, 42.920752678667114], [51.8375133262165, 42.91686477025932], [51.84183201187733, 42.91373507020629], [51.844868160863065, 42.90996219502321], [51.84802334253271, 42.90624912364846], [51.85122975124204, 42.90256184666021], [51.85527355705516, 42.89929463166468], [51.859392820882405, 42.89606532987855], [51.86200817573779, 42.89208194537394], [51.86629658120431, 42.88893763590895], [51.869607241143314, 42.885303120098726], [51.87293774761267, 42.88167865513139], [51.87559816787855, 42.87771829783087], [51.87869626641253, 42.873977506987195], [51.88139645523374, 42.87003730479695], [51.883140443333026, 42.86561775420697], [51.885244256043656, 42.86137872778491], [51.88747117341577, 42.85720153427724], [51.89022368837331, 42.85328800292529], [51.90765048989116, 42.85673096645322], [51.91235998292394, 42.85379838894781], [51.92802874120725, 42.856356681705385], [51.92863296823305, 42.851367334462445], [51.9312116585445, 42.84736719417216], [51.912623415949156, 42.83275946960313], [51.91986289096038, 42.8310959140681], [51.93295430372187, 42.832364609979386], [51.989390820005724, 42.85066947824619], [52.00423586599039, 42.85491253916032], [52.01856302454691, 42.85878752408425], [51.99031214063127, 42.832663453677185], [52.00626110052874, 42.83768740888765], [51.99841390156331, 42.82593878904255], [52.002364291564824, 42.82250586887078], [52.01678455100641, 42.82645217498385], [52.01879169239857, 42.82165001011396], [52.04119265314035, 42.83121442753807], [52.03362252444382, 42.81966746905294], [52.031822241288246, 42.8121836547825], [52.03491015830535, 42.80814386288202], [52.03539919693461, 42.80227310161884], [52.04269462629983, 42.8011982270681], [52.0426890200161, 42.7949794607014], [52.048396662099954, 42.79278622154319], [52.08427957060178, 42.81183876704553], [52.08637030731336, 42.80709830677669], [52.06768637628837, 42.78773258768332], [52.07758818933586, 42.78849251100425], [52.08425373754581, 42.7869732319328], [52.08993792845544, 42.78476301118781], [52.09576047059636, 42.782650178933494], [52.099304990957734, 42.77893404095385], [52.104060775618805, 42.77607059030189], [52.10799683186836, 42.772630364872995], [52.10556610673409, 42.76470922942298], [52.10766607076587, 42.75997708623969], [52.118681792567436, 42.761520320389046], [52.14654169767808, 42.77490876744135], [52.15176713306578, 42.77237534202176], [52.11796749844362, 42.74238900044249], [52.15828991448406, 42.764547344864596], [52.164922536686994, 42.76300352590849], [52.12423142267654, 42.72817063293127], [52.17185824989091, 42.75546690096711], [52.17537808757386, 42.751735412165736], [52.125221196287036, 42.710240099292676], [52.18810883941178, 42.74827263130419], [52.193142864121754, 42.745605623652786], [52.19486680714935, 42.740612859321764], [52.19381792117884, 42.73367162132033], [52.19851369113497, 42.7307676621414], [52.18023134302559, 42.7117103448153], [52.18729256081705, 42.71047103816529], [52.19622792452254, 42.710549123740165], [52.17208309259543, 42.687361515101884], [52.223183042860065, 42.717086016266], [52.22932971938248, 42.715201899584606], [52.19431023786651, 42.68438390325394], [52.20010390842878, 42.68225470239271], [52.207196717257744, 42.6810390599155], [52.21446947513125, 42.67994970229471], [52.188377131089425, 42.642981731505245], [52.1910882853332, 42.63868554713627], [52.17858013822048, 42.61746724175184], [52.17284441665371, 42.607220482026236], [52.17208806288564, 42.600481447483354], [52.17966348617945, 42.59961379240812]]}, "properties": {"year": 2015, "sensor": "LANDSAT/LC08/C02/T1_L2", "scale_m": 30, "n_scenes": 17, "date_window": ["2015-07-01", "2015-08-01"], "otsu_threshold": 0.1446, "data_quality": "good", "length_km": 517.9}}]}