{"type": "FeatureCollection", "crs": {"type": "name", "properties": {"name": "EPSG:4326"}}, "features": [{"type": "Feature", "geometry": {"type": "LineString", "coordinates": [[50.2749264833716, 44.5572911753777], [50.268279557452715, 44.54812340951985], [50.25774154062141, 44.536874963696256], [50.26392685668763, 44.53456154472662], [50.24035489519691, 44.516341915690305], [50.24149288927388, 44.51133098221874], [50.24226793702482, 44.50612601091324], [50.24222371538684, 44.50048286651214], [50.2420999080652, 44.49479713962959], [50.241078593794434, 44.48863119891363], [50.24112009081601, 44.48303384916351], [50.241367026138576, 44.47754644096135], [50.24181732975168, 44.47216789499797], [50.24241455911793, 44.466868027846054], [50.24293716571587, 44.46152827030377], [50.24376271263093, 44.456350724237005], [50.24400120080114, 44.45085897087026], [50.24346455754132, 44.44495223317648], [50.2455811716286, 44.440466104885175], [50.24713484024184, 44.435678685751675], [50.2454678683871, 44.42916674625057], [50.24345210244426, 44.422467767411156], [50.243130035758995, 44.41667579417537], [50.24289957136336, 44.410932858229025], [50.244375186671434, 44.40610394966859], [50.24465056631421, 44.40063208534894], [50.315498880476426, 44.33184512926752], [50.321508459808406, 44.329447075519546], [50.32887481094659, 44.32777526189424], [50.3341092802525, 44.32496213075174], [50.33791561419715, 44.32138465111435], [50.34567562540506, 44.31992321846117], [50.35292951377451, 44.318190654911206], [50.36009650810991, 44.316411367101516], [50.36661552197906, 44.31428524864893], [50.3737937022315, 44.31251154927862], [50.37916646521922, 44.309772154436644], [50.382978135853385, 44.30619798206019], [50.39044344244723, 44.30457754895146], [50.3956930382936, 44.30177230900622], [50.40392271371428, 44.300560101594236], [50.41165927751431, 44.29908394364078], [50.41885036495599, 44.29731599002394], [50.428268782417184, 44.296737759548726], [50.44018160425745, 44.29749106588732], [50.44938256662422, 44.29679505533679], [50.46011957562504, 44.29691836972333], [50.46913912171922, 44.29612409903228], [50.47882153092787, 44.29568291678997], [50.48616217206191, 44.29399178071489], [50.499932117921105, 44.29328996965825], [50.5121499058648, 44.294572636954186], [50.52026134140278, 44.29348391337861], [50.52946983891283, 44.293027812740064], [50.53601495422295, 44.29103448653482], [50.54763172627255, 44.291966277205496], [50.556373265850816, 44.29123877293483], [50.565029554228424, 44.29046157081002], [50.572285791279825, 44.288876819697386], [50.58157110390832, 44.288461239890836], [50.59172937131326, 44.28854794606506], [50.61939620756392, 44.2698908494139], [50.605601075250135, 44.233114776556796], [50.60028696531679, 44.22428480262719], [50.59771659968015, 44.21703625193179], [50.59595144836705, 44.210251781504255], [50.61868578632509, 44.211831069222114], [50.62852326042613, 44.211737085649645], [50.62972483188255, 44.20666516998722], [50.63632439202049, 44.20470470961737], [50.657211866039184, 44.21097564982899], [50.6780236483478, 44.217196645795205], [50.67141614571285, 44.207630690335876], [50.677967541291586, 44.20564081407163], [50.68923952545363, 44.20636802108804], [50.6963814629797, 44.204717388097365], [50.70113731545801, 44.20169355396982], [50.70325986670383, 44.197154536396965], [50.70867343530824, 44.194509414573616], [50.71301250125887, 44.19124609003745], [50.71723772778014, 44.187917376985965], [50.72119862710605, 44.18443670720537], [50.72512290339229, 44.180935096120976], [50.728202434139504, 44.176947649011844], [50.72862674883117, 44.17143278260912], [50.703841897744574, 44.15140666389774], [50.71920006053962, 44.15448937265365], [50.737493576963814, 44.15925797020848], [50.74756838863259, 44.15929535526948], [50.714491402449305, 44.13449933895868], [50.7257913273766, 44.13524652914568], [50.74351588442121, 44.139689787085516], [50.745271587020376, 44.13494197627793], [50.75395141723982, 44.13417847650615], [50.76114438824464, 44.13255915165533], [50.75159451064998, 44.12130695943972], [50.76161503307264, 44.12131555514564], [50.666457389975754, 44.06071358168308], [50.668898136940236, 44.05636020607475], [50.74521087707746, 44.09460042009684], [50.675741292413115, 44.04878639344777], [50.68222235200436, 44.04676578338745], [50.74006884135137, 44.0743639334789], [50.690657004521256, 44.03435016370421], [50.692500493722065, 44.029653140074835], [50.69453076616956, 44.0250640723399], [50.771213392910795, 44.05187027564111], [50.70603612556077, 44.00839325655709], [50.77661284400435, 44.04346116387891], [50.71643725806718, 44.00288120373606], [50.78639601899322, 44.03758586710464], [50.79142617948836, 44.03472838404393], [50.820055232010255, 44.04549923282137], [50.8078561439312, 44.03269284531415], [50.822295853250246, 44.035268528853855], [50.82484743806488, 44.03098181423184], [50.83088346913635, 44.02870752013247], [50.83903451999381, 44.027653925936164], [50.848870233602746, 44.02757203108372], [50.856792757938486, 44.026385583610534], [50.853342056349575, 44.01863719689103], [50.844478685017656, 43.99624785524124], [50.83534157724127, 43.9736957632053], [50.8326384146464, 43.96637527291962], [50.82894808339912, 43.95848377219368], [50.82407171660747, 43.944146721979116], [50.81422282980218, 43.92117197214193], [51.76339144265255, 43.03633298996718], [51.766615356785785, 43.03252100684572], [51.76994931965168, 43.0287643225798], [51.772077146720115, 43.024402863573926], [51.774994941968934, 43.02043769521961], [51.777710752664824, 43.01637134295465], [51.77941921773479, 43.01179990340973], [51.78369543859965, 43.008516343269235], [51.78673431787799, 43.004612349148985], [51.7882594699983, 42.99994933369257], [51.7900325502605, 42.99541075249431], [51.79030845251801, 42.99012135286374], [51.79345236022486, 42.986270516718584], [51.7975508738642, 42.98289856780272], [51.80192135871605, 42.97966309439949], [51.80315718036041, 42.974855635297544], [51.803981712032545, 42.96984196757115], [51.805241487652665, 42.96504666946952], [51.807107519843825, 42.960555553004134], [51.80851872900669, 42.95583639069501], [51.812438268000925, 42.95237555164937], [51.81647378551308, 42.94897297230503], [51.82013228542317, 42.94538137837174], [51.824577906258625, 42.94218465327772], [51.82757016129619, 42.93835821313897], [51.83002939795951, 42.934295345241125], [51.832165442309716, 42.930070492878585], [51.83376479646245, 42.92557656777271], [51.83467676930961, 42.92073795817198], [51.837359508250586, 42.91678761814334], [51.84196356483897, 42.91380105049125], [51.84496732783371, 42.91001193145467], [51.84808101922204, 42.90627805043759], [51.85112452035311, 42.90250907076414], [51.85503274553823, 42.89917386430754], [51.85939585626755, 42.89606685204498], [51.86176535610774, 42.89196017716529], [51.866373472972164, 42.888976192883376], [51.86955362107034, 42.88527623316984], [51.873072299472305, 42.881746122156265], [51.87570438840438, 42.87777155889299], [51.87855160971158, 42.87390497415346], [51.881308451026435, 42.86999317846456], [51.88336903926981, 42.86573237763105], [51.8851421015248, 42.8613275039141], [51.887229453861664, 42.85708032571131], [51.890125588609486, 42.85323881184248], [51.9097909352988, 42.85780369037188], [51.912432812749344, 42.85383488765167], [51.92871062578956, 42.85669825373051], [51.93774727874638, 42.855932565438195], [51.922784838590935, 42.84314505694803], [51.912337252468184, 42.83261600820004], [51.91950593435581, 42.83091699002459], [51.93343671345752, 42.83260632793387], [51.98983711789932, 42.850984040360096], [52.00405818997056, 42.85478736026504], [52.01838796121724, 42.858664235928295]]}, "properties": {"year": 2017, "sensor": "COPERNICUS/S2_SR_HARMONIZED", "scale_m": 30, "n_scenes": 37, "date_window": ["2017-07-01", "2017-08-01"], "otsu_threshold": 0.1055, "data_quality": "good", "length_km": 364.0}}]}