{"type": "FeatureCollection", "crs": {"type": "name", "properties": {"name": "EPSG:4326"}}, "features": [{"type": "Feature", "geometry": {"type": "LineString", "coordinates": [[50.275491417124805, 44.55759282529211], [50.27180266109779, 44.550005108617235], [50.258125702156065, 44.537080250928724], [50.266686677975, 44.53603609514427], [50.24324931751482, 44.51788978738528], [50.257721375792, 44.520008094340376], [50.24304885085782, 44.5065436931114], [50.2427758427676, 44.500778208931116], [50.30982700605486, 44.530987085054434], [50.24176054919112, 44.4889960715748], [50.241421249857744, 44.48319499711154], [50.240825194682444, 44.477256481700785], [50.241998597076794, 44.47226490608741], [50.24153348138391, 44.46639644678898], [50.24329359809905, 44.46171905494522], [50.243936887094726, 44.456443959664746], [50.24356832334717, 44.45062722944882], [50.24442686608501, 44.44546745216221], [50.24535772170405, 44.44034646496858], [50.246916437531354, 44.43556174340761], [50.24658391045169, 44.42976440122041], [50.24397130760695, 44.42274585708824], [50.24346305758014, 44.416854182312115], [50.2463462541151, 44.412779216129955], [50.247988631184846, 44.40803971977026], [50.24591291796756, 44.401308428970104], [50.32225342896346, 44.329845917364445], [50.32913319663808, 44.32791357564206], [50.33434152585563, 44.32508644111298], [50.33835395490232, 44.321619265270684], [50.3460144501275, 44.320104537405236], [50.353877660494206, 44.31869796276806], [50.36010555747692, 44.316416208324526], [50.36694030243037, 44.31445897589064], [50.3745257441813, 44.312903060861935], [50.37988945936375, 44.3101587921196], [50.38388009741711, 44.306680307478416], [50.3906455612631, 44.30468561604271], [50.39595850814831, 44.30191423566817], [50.4041359056746, 44.30067405778144], [50.41160798853368, 44.299056533047356], [50.41953625868135, 44.297682494390905], [50.42984385635039, 44.297579187115524], [50.440726806071645, 44.29778223383756], [50.45047506663419, 44.297378375526705], [50.46017692199751, 44.29694898087281], [50.469246779409744, 44.29618155358736], [50.47905396989974, 44.29580693446576], [50.487568949789065, 44.2947422321186], [50.50066284106022, 44.293711909595], [50.51231795609601, 44.29466964310151], [50.520301402308874, 44.29350703412999], [50.5293994822788, 44.29298721605398], [50.53781500006443, 44.29207296785385], [50.54806859628902, 44.29221824488686], [50.55703301906988, 44.29161921016351], [50.56553100207888, 44.290750665636565], [50.57303750975548, 44.289310131848225], [50.58206675082459, 44.2887468820833], [50.59179292196709, 44.2885845613516], [50.87155344738016, 44.05792495482557], [50.86996730860185, 44.05125414434802], [50.86939553633064, 44.0451679491737], [50.868900898106325, 44.03912615533894], [50.86872317449743, 44.03326705573835], [50.871443415929825, 44.02907922257102], [50.87325580395496, 44.02436798842327], [50.877727812825995, 44.02119068214066], [50.88249565311327, 44.018184060452036], [50.88736048170629, 44.015233438086256], [50.89327848850529, 44.012890082753444], [50.901162110938195, 44.01167976058815], [50.91183642307977, 44.012077347297975], [50.91848043362691, 44.010151781235265], [50.99472055282123, 43.93328021055055], [50.996219218691415, 43.92839356648376], [50.997000601060826, 43.92309394803719], [50.99801466722394, 43.91792841504454], [50.99826878084567, 43.91232523832975], [50.99894847649592, 43.9069672404856], [51.00001761330958, 43.90183365563566], [51.001911413551134, 43.897175258212776], [51.0032459631591, 43.89219479749697], [51.00463092363403, 43.887243489673196], [51.00596307768295, 43.882261866523095], [51.00480659980718, 43.875846295674975], [51.005511578144436, 43.87050337192297], [51.00835594694658, 43.866393506211296], [51.0117946587654, 43.8626263131168], [51.01090169175003, 43.85636280108334], [51.012107093237105, 43.851308714747596], [51.016570436942445, 43.84813261102699], [51.01786082898871, 43.843127817582], [51.00746108012868, 43.831383226809415], [51.00906802264084, 43.82656084167052], [51.008793431284055, 43.82071171896178], [51.020214761605516, 43.82871843975293], [51.01054023810281, 43.819106715535774], [51.01817412106039, 43.81726571424164], [51.019709798715, 43.81268680756207], [51.024776770306886, 43.809693377088266], [51.02515364899942, 43.8045944423108], [51.02921586493174, 43.80115012896884], [51.03206148449456, 43.7971597173731], [51.03612596970976, 43.793716577206006], [51.039097557000346, 43.7897829010738], [51.042894907928975, 43.78621999973563], [51.04679322575965, 43.782702493358215], [51.05076292219951, 43.77921709514937], [51.054308551603704, 43.775541431731114], [51.05831008452962, 43.77207046552215], [51.062010106611865, 43.768464250762776], [51.06373448409926, 43.763971468781946], [51.0698799012946, 43.76146285537226], [51.06617705663955, 43.754534551684365], [51.07274807158096, 43.75221728494789], [51.077360567996436, 43.74902100979603], [51.078103261150545, 43.74408819492501], [51.05504109910938, 43.728467227935475], [51.05564816164358, 43.72347290355864], [51.028179398764586, 43.70585978709939], [51.02807538550724, 43.70054490675977], [51.04609975349103, 43.70338081125986], [51.05665626800808, 43.702857854362186], [51.05847728898176, 43.69840919344991], [51.05520160760937, 43.69167009356175], [51.04309995788452, 43.68096229888693], [51.05734199068973, 43.682098118654146], [51.04809323305533, 43.67267279662148], [51.0241629021044, 43.65663899590395], [51.04776585311403, 43.66199084463546], [51.04509424017125, 43.655521703920456], [51.584395383975384, 43.20253479991462], [51.59288544848161, 43.200881554323374], [51.59680307116562, 43.19741698970595], [51.5642407458455, 43.17949523690431], [51.58751720403134, 43.1837054563018], [51.60843315478691, 43.18697492203269], [51.67269101136624, 43.132173103190574], [51.67361329091729, 43.127524231193526], [51.67151144682166, 43.12167871921256], [51.66980688496539, 43.11599024069434], [51.65753586231665, 43.106118115151325], [51.661360577372506, 43.10261837996887], [51.66639026824993, 43.099595796009766], [51.670652984876135, 43.09626953855484], [51.67424175847496, 43.09267649812634], [51.68001157516669, 43.089946907462654], [51.684773384249745, 43.08681825358775], [51.69037570836729, 43.084022251693135], [51.6958261850839, 43.08116608991778], [51.70008819154896, 43.07783960075736], [51.70843181656315, 43.07392007893291], [51.71469044701266, 43.07162999693287], [51.719293521866184, 43.06850904375981], [51.72419713859081, 43.065538948867975], [51.72944689635252, 43.062742556895316], [51.73369181032924, 43.05944203366374], [51.73875616210861, 43.05655267631108], [51.743226149624995, 43.05336518220508], [51.7473815088697, 43.05001992613987], [51.752101903151, 43.04695816004766], [51.75604657460873, 43.043507371691454], [51.75995330997629, 43.04003764367273], [51.76367011084189, 43.0364727482991], [51.7667906578662, 43.03260892279025], [51.77005976557421, 43.02881971158599], [51.77237097816329, 43.024550223349976], [51.775059784721, 43.02047021445357], [51.778064333314184, 43.01654866580326], [51.77979202506348, 43.01198687466503], [51.783567795608114, 43.00845233036701], [51.78730362688731, 43.00489785049711], [51.78866261979101, 43.00015151677201], [51.79014396662639, 42.995466630755054], [51.790376309476315, 42.9901553877304], [51.79428788598556, 42.98668957748005], [51.79806129143119, 42.98315455852997], [51.80105347150551, 42.97922783602781], [51.80327971010246, 42.974917087768176], [51.80399892564481, 42.969850601291334], [51.80551283723797, 42.96518277449697], [51.807623864931756, 42.96081455030202], [51.80901580495757, 42.95608573345585], [51.81277740454395, 42.95254566228694], [51.81667220085494, 42.94907249294691], [51.82071536825531, 42.945673827879375], [51.82461940954573, 42.942205468501314], [51.82760255285525, 42.93837445834264], [51.830033446714644, 42.9342973758081], [51.8321684787186, 42.93007201574959], [51.83403805732201, 42.92571362225951], [51.835247541382245, 42.9210242450443], [51.83821158362904, 42.917214997606756], [51.84231673532571, 42.913978181415956], [51.844869172770125, 42.90996270253826], [51.84791911987939, 42.90619685235773], [51.8517022806097, 42.90279882951437], [51.85584321155307, 42.899580310370574], [51.85943733987943, 42.89608765497796], [51.86264861707409, 42.89240310650109], [51.866617301445515, 42.88909845872977], [51.86984397937811, 42.885421828119576], [51.87318054817273, 42.88180040002141], [51.876194016798436, 42.87801706572533], [51.87882069167686, 42.87403989521929], [51.88185569760467, 42.87026757212267], [51.8836795669573, 42.865888082154754], [51.88579245445204, 42.86165361072851], [51.888125540278075, 42.85752965694165], [51.89048056890147, 42.85341681215792], [51.91042620455387, 42.85812205235897], [51.91245203174528, 42.85384451924619], [51.93132593497217, 42.85800825036358], [51.9540762518303, 42.864107991820404], [51.96773500462442, 42.865652750087506], [51.91333225766501, 42.83311482491243], [51.92040894752167, 42.83136962003512], [51.93372595882475, 42.832751256360545], [51.99016411130913, 42.85121451046765], [52.00450547525139, 42.85510248668935], [52.01919608765133, 42.85923335166485]]}, "properties": {"year": 2007, "sensor": "LANDSAT/LT05/C02/T1_L2", "scale_m": 30, "n_scenes": 12, "date_window": ["2007-07-01", "2007-08-01"], "otsu_threshold": 0.1835, "data_quality": "good", "length_km": 316.2}}]}