{
  "type": "FeatureCollection",
  "crs": {
    "type": "name",
    "properties": {
      "name": "EPSG:4326"
    }
  },
  "features": [
    {
      "type": "Feature",
      "geometry": {
        "type": "LineString",
        "coordinates": [
          [
            50.27451085727643,
            44.55706924545647
          ],
          [
            50.268991623600115,
            44.54850374445369
          ],
          [
            50.51204536326797,
            44.29451228998242
          ],
          [
            50.51936144495454,
            44.29296453866342
          ],
          [
            50.52686182246957,
            44.29152288725956
          ],
          [
            50.54663876493604,
            44.29139356594203
          ],
          [
            50.535877168315,
            44.290954992499756
          ],
          [
            50.55550631421786,
            44.2907388444567
          ],
          [
            50.56456036771786,
            44.2901910707379
          ],
          [
            50.57213232085777,
            44.28878835354099
          ],
          [
            50.59155534069664,
            44.28844767633047
          ],
          [
            50.581206459445355,
            44.288251091503085
          ],
          [
            50.74906527051393,
            44.16015631382664
          ],
          [
            50.76245761480778,
            44.15058588977201
          ],
          [
            50.76061298584724,
            44.14376788711731
          ],
          [
            50.770332479907445,
            44.14360041981374
          ],
          [
            50.76823707465312,
            44.13663871012025
          ],
          [
            50.77461618274815,
            44.13455054266974
          ],
          [
            50.782335220804185,
            44.13323267053475
          ],
          [
            50.78185935368026,
            44.12720303679866
          ],
          [
            50.785219450741664,
            44.12337914092959
          ],
          [
            50.78094501547199,
            44.115165089724165
          ],
          [
            50.789324576825166,
            44.11422813331063
          ],
          [
            50.80739776467299,
            44.113108137579786
          ],
          [
            50.79315519735156,
            44.11067526252552
          ],
          [
            50.81143041722192,
            44.109671439476955
          ],
          [
            50.82534059448819,
            44.07159739313926
          ],
          [
            50.82674671161751,
            44.06664683826697
          ],
          [
            50.794849972594896,
            44.06552426168369
          ],
          [
            50.80231682674556,
            44.06407213466918
          ],
          [
            50.83450672979571,
            44.059600767199115
          ],
          [
            50.82262715197322,
            44.05850785384975
          ],
          [
            50.86831302610371,
            44.03878717211681
          ],
          [
            50.86821432093766,
            44.03297360672198
          ],
          [
            50.871071052354054,
            44.02886448530664
          ],
          [
            50.872534518167726,
            44.023952015285836
          ],
          [
            50.87738081805542,
            44.02099057937809
          ],
          [
            50.881988809717924,
            44.01789179615963
          ],
          [
            50.88694818466717,
            44.01499570992869
          ],
          [
            50.89107956921854,
            44.011622295306985
          ],
          [
            50.909881823224076,
            44.01095093151454
          ],
          [
            50.899114151828975,
            44.01049921962598
          ],
          [
            50.917626417328314,
            44.00965969507387
          ],
          [
            50.923124443750666,
            44.00707380039539
          ],
          [
            50.994466241663105,
            43.93313376431426
          ],
          [
            50.99553038683295,
            43.92799687850089
          ],
          [
            50.99642093756277,
            43.922760105648315
          ],
          [
            50.99734834944466,
            43.917544641879125
          ],
          [
            50.997722332672126,
            43.91201047820035
          ],
          [
            50.99763653522201,
            43.90621148220386
          ],
          [
            50.99884308945883,
            43.901157018999555
          ],
          [
            51.00107585418933,
            43.89669388465993
          ],
          [
            51.00222739444731,
            43.89160795871341
          ],
          [
            51.00374776987813,
            43.886734645031815
          ],
          [
            51.005221162978586,
            43.88183437843586
          ],
          [
            51.00691044723976,
            43.87705863023568
          ],
          [
            51.00718010275954,
            43.871464930495556
          ],
          [
            51.00895946614598,
            43.86674131592808
          ],
          [
            51.01128266165384,
            43.86233124853435
          ],
          [
            51.01228278460039,
            43.85715880247136
          ],
          [
            51.013596113890976,
            43.852166966989564
          ],
          [
            51.016293077869825,
            43.84797274909572
          ],
          [
            51.01713585738514,
            43.842709939264964
          ],
          [
            51.06581953664193,
            43.764907212851
          ],
          [
            51.069276787856815,
            43.761192206864024
          ],
          [
            51.071301422517465,
            43.756834393260284
          ],
          [
            51.09891574975023,
            43.71656805116382
          ],
          [
            51.10382933265262,
            43.70824253598385
          ],
          [
            51.110329001817696,
            43.700629133854704
          ],
          [
            51.11193278914586,
            43.696083952329715
          ],
          [
            51.17548536257475,
            43.62941542979909
          ],
          [
            51.18434996809942,
            43.62810713992925
          ],
          [
            51.190567366496325,
            43.62561357623353
          ],
          [
            51.19583176167522,
            43.622692705633405
          ],
          [
            51.20485395718153,
            43.62145607926444
          ],
          [
            51.209775530345894,
            43.61838139338956
          ],
          [
            51.219292294026246,
            43.61208581699831
          ],
          [
            51.218972429790654,
            43.60666262301236
          ],
          [
            51.21780051407061,
            43.60085753496829
          ],
          [
            51.220861622711595,
            43.59694956264621
          ],
          [
            51.226439467095354,
            43.59416953147773
          ],
          [
            51.23114681478811,
            43.5909994061516
          ],
          [
            51.235886357688685,
            43.58784373299728
          ],
          [
            51.24034596839833,
            43.58456266886363
          ],
          [
            51.24619277019013,
            43.58190308717959
          ],
          [
            51.251807072422324,
            43.57913929504485
          ],
          [
            51.255468434036196,
            43.57661613422023
          ],
          [
            51.259149102581574,
            43.57293127655439
          ],
          [
            51.26769012560627,
            43.56600383808351
          ],
          [
            51.27056043283617,
            43.56201540721938
          ],
          [
            51.2729439063421,
            43.55784459335453
          ],
          [
            51.27525551875208,
            43.553646918743574
          ],
          [
            51.281028696530335,
            43.54061894740643
          ],
          [
            51.28290889625282,
            43.53625986296054
          ],
          [
            51.28478442585192,
            43.53189909559052
          ],
          [
            51.28563768498738,
            43.527155228326215
          ],
          [
            51.294296944052014,
            43.52533704890596
          ],
          [
            51.28550362693829,
            43.51697761669199
          ],
          [
            51.28955281140197,
            43.51343195543296
          ],
          [
            51.29229052103165,
            43.509394712695574
          ],
          [
            51.29363667066264,
            43.50483588514659
          ],
          [
            51.303566049363496,
            43.50349441211162
          ],
          [
            51.29523317061766,
            43.49530756834719
          ],
          [
            51.300442576010504,
            43.49219726630163
          ],
          [
            51.33877167085372,
            43.48630824426747
          ],
          [
            51.31149750776419,
            43.48621497190234
          ],
          [
            51.29749323230415,
            43.486028208891106
          ],
          [
            51.33708105725477,
            43.48061300075767
          ],
          [
            51.30686966770717,
            43.479417268440045
          ],
          [
            51.34372970919992,
            43.47804107851402
          ],
          [
            51.31158661610279,
            43.460933822229016
          ],
          [
            51.31314566310212,
            43.45645550662601
          ],
          [
            51.314286888667894,
            43.451820576860214
          ],
          [
            51.314370855078586,
            43.44678921541543
          ],
          [
            51.313993338387455,
            43.441584774599576
          ],
          [
            51.314536556087944,
            43.43672565499549
          ],
          [
            51.31528072763694,
            43.4319419386971
          ],
          [
            51.315758949765915,
            43.42705849322452
          ],
          [
            51.5275626265109,
            43.25527329718979
          ],
          [
            51.606324972341454,
            43.186140027191755
          ],
          [
            51.59249042672376,
            43.18567601976654
          ],
          [
            51.56382316968451,
            43.17932964144355
          ],
          [
            51.66775742270709,
            43.1352349131833
          ],
          [
            51.66920256222897,
            43.13079281250959
          ],
          [
            51.66959727301985,
            43.1259350977483
          ],
          [
            51.67070355562203,
            43.121359005076854
          ],
          [
            51.665160215033424,
            43.114150982178266
          ],
          [
            51.657060158287045,
            43.10592973723923
          ],
          [
            51.661531393435126,
            43.10268601864372
          ],
          [
            51.666009724038126,
            43.099445122993494
          ],
          [
            51.67004002369531,
            43.09602685709963
          ],
          [
            51.67362990039554,
            43.09243426357673
          ],
          [
            51.67887759676132,
            43.08949801468059
          ],
          [
            51.68405776943998,
            43.08653499843262
          ],
          [
            51.68979306071005,
            43.0837916542362
          ],
          [
            51.69477765143925,
            43.08075114755241
          ],
          [
            51.69986227539163,
            43.07775020479332
          ],
          [
            51.70785310368887,
            43.07362961228333
          ],
          [
            51.71393132112285,
            43.07124902284367
          ],
          [
            51.718295221422046,
            43.06800806849913
          ],
          [
            51.72365998492728,
            43.06526941252445
          ],
          [
            51.728652318827,
            43.06234388186356
          ],
          [
            51.73340905058525,
            43.05930016925024
          ],
          [
            51.738257536186225,
            43.05630252824915
          ],
          [
            51.742519775576795,
            43.05301083244594
          ],
          [
            51.74650489531112,
            43.04958019717305
          ],
          [
            51.751515135230086,
            43.04666384599101
          ],
          [
            51.75521154213229,
            43.04308854805735
          ],
          [
            51.76220809955703,
            43.041168462244215
          ],
          [
            51.7631745890059,
            43.03622423209578
          ],
          [
            51.76627691564753,
            43.03235127239807
          ],
          [
            51.771769169433504,
            43.02967695693609
          ],
          [
            51.771213898302236,
            43.02396992626557
          ],
          [
            51.774744690111845,
            43.020312190949824
          ],
          [
            51.77748583995382,
            43.016258546752155
          ],
          [
            51.77817215306775,
            43.01117445523893
          ],
          [
            51.78325578051802,
            43.00829585377269
          ],
          [
            51.78627441728126,
            43.0043817107198
          ],
          [
            51.78705408808114,
            42.99934480780661
          ],
          [
            51.78993734007078,
            42.99536300189291
          ],
          [
            51.792373789139205,
            42.98572953817326
          ],
          [
            51.77550020229317,
            42.98269213474734
          ],
          [
            51.801706664362165,
            42.97955542317517
          ],
          [
            51.78781121349261,
            42.97801296657799
          ],
          [
            51.803024524467325,
            42.974789103959495
          ],
          [
            51.803524034217986,
            42.969612411218826
          ],
          [
            51.80421178756452,
            42.9645301753914
          ],
          [
            51.80648386172389,
            42.96024272172679
          ],
          [
            51.80839623228842,
            42.95577494336277
          ],
          [
            51.81242611986077,
            42.95236945811497
          ],
          [
            51.81652946322333,
            42.949000899051185
          ],
          [
            51.82008774459946,
            42.945359038354205
          ],
          [
            51.824303580353856,
            42.94204706934042
          ],
          [
            51.82730293158095,
            42.9382241898517
          ],
          [
            51.829848216438315,
            42.93420447721966
          ],
          [
            51.83167658242209,
            42.929825309576096
          ],
          [
            52.01795561082559,
            42.85835975035399
          ],
          [
            52.003242303826624,
            42.85421253012627
          ],
          [
            51.98915309089675,
            42.850501918681374
          ],
          [
            52.14192506476711,
            42.753039122151044
          ],
          [
            52.148384533826324,
            42.75137503061471
          ],
          [
            52.14012957103536,
            42.739360106428705
          ],
          [
            52.17037464686181,
            42.735806563506145
          ],
          [
            52.19635088199981,
            42.73545169429343
          ],
          [
            52.15089187494606,
            42.73451681719591
          ],
          [
            52.15899026076486,
            42.734006563715454
          ],
          [
            52.17533332167582,
            42.73308750769002
          ],
          [
            52.192970831870774,
            42.72687202729988
          ],
          [
            52.17309278586749,
            42.72530642486116
          ],
          [
            52.19720205059116,
            42.7236419219992
          ],
          [
            52.20914345066628,
            42.71962701551865
          ],
          [
            52.21837718200005,
            42.713709603784515
          ]
        ]
      },
      "properties": {
        "id": "main_shoreline"
      }
    }
  ]
}