{"type": "FeatureCollection", "crs": {"type": "name", "properties": {"name": "EPSG:4326"}}, "features": [{"type": "Feature", "geometry": {"type": "LineString", "coordinates": [[50.275474267263995, 44.55758366810337], [50.27093421961819, 44.549541292999145], [50.25818015046663, 44.537109346653274], [50.264668979773646, 44.53495806898759], [50.24249243945663, 44.51748504104915], [50.25776472003856, 44.52003126329621], [50.2429934307977, 44.50651405132345], [50.24289473224174, 44.50084180421526], [50.30926214848517, 44.53068560408744], [50.24161045783276, 44.48891576759847], [50.241383982595195, 44.483175055769344], [50.24183735632023, 44.47779813215693], [50.24205398443517, 44.47229454830784], [50.24264313818035, 44.46699036834526], [50.24329561184795, 44.461720132821405], [50.244058708870895, 44.45650917041438], [50.24443005487381, 44.45108855495372], [50.24432721200689, 44.44541409826794], [50.24612168266071, 44.44075550235083], [50.247436780911805, 44.435840356513204], [50.24664227937496, 44.42979565790061], [50.24373384106718, 44.422618669076655], [50.245191584130495, 44.41778006056097], [50.24588748869542, 44.41253347216534], [50.24741118831372, 44.407730392178465], [50.24640579625252, 44.40157249563359], [50.24705410841066, 44.396300554487816], [50.322490695219415, 44.32997294290415], [50.32965700949977, 44.3281939686574], [50.334852268563665, 44.325359814630204], [50.33826045532957, 44.321569221565575], [50.3463723800001, 44.32029607799484], [50.35391687370173, 44.31871894351849], [50.36030766039548, 44.31652432878636], [50.366971473410636, 44.31447564935474], [50.37410240554528, 44.31267665157249], [50.37987337037802, 44.31015018827071], [50.38381574292424, 44.30664589430517], [50.39062645547257, 44.30467540076074], [50.396058059674395, 44.30196745800827], [50.404095680713155, 44.30065255664432], [50.41174375358667, 44.299129090450606], [50.4194558014966, 44.29763950288838], [50.42995449542231, 44.2976382904109], [50.4407097055637, 44.297773101302816], [50.45025073014891, 44.297258596999114], [50.460476733829196, 44.297109017643905], [50.469389652557545, 44.296257801532526], [50.4789946022769, 44.29577525900027], [50.487477377328084, 44.29469338351791], [50.500504581951226, 44.29362052727654], [50.512394165104396, 44.29471363418013], [50.52019392190019, 44.29344500281421], [50.529494268322345, 44.29304190880152], [50.537583394514215, 44.2919393537647], [50.548007023778375, 44.292182732764196], [50.557080912598565, 44.29164682694028], [50.565545664370845, 44.29075911866862], [50.572860576322554, 44.28920814334665], [50.581987564308015, 44.288701247084184], [50.591990418349766, 44.28869835017067], [50.87175532469026, 44.058041316513915], [50.870127229585286, 44.05134633661769], [50.86932533484436, 44.04512747406241], [50.86892429613574, 44.03913964714563], [50.86899807448764, 44.03342558472018], [50.87146778536757, 44.029093276014414], [50.87294194592631, 44.02418698445773], [50.878043619085005, 44.021372797218305], [50.88254438831762, 44.01821216266888], [50.88756224528801, 44.015349772597595], [50.89284474035748, 44.012640012797014], [50.901354141733215, 44.01179045197163], [50.912453526584834, 44.01243296186151], [50.918304949672795, 44.0100506681641], [50.99477901533288, 43.933313876271455], [50.99619193804765, 43.92837785614808], [50.997030802193876, 43.92311134142507], [50.99800395151937, 43.917922243284806], [50.99846943884013, 43.91244081803784], [50.999145221850895, 43.90708057486712], [51.00010136975794, 43.90188190620854], [51.00201658980936, 43.89723585025215], [51.00343293014326, 43.89230251452181], [51.00453842060624, 43.88719019314759], [51.0059182898802, 43.88223606029315], [51.007209334845825, 43.87723085599877], [51.00822855553377, 43.87206911782067], [51.0082663930827, 43.86634189546376], [51.01184722149235, 43.86265660478731], [51.01300984401359, 43.85757783239051], [51.01459271104682, 43.85274136803456], [51.01694609053964, 43.84834912470226], [51.01796398013323, 43.84318727371787], [51.018297644292325, 43.83763109541211], [51.019316208448764, 43.83246978362128], [51.02176079323525, 43.82818893282557], [51.02143459527933, 43.829265937896096], [51.02368908753674, 43.82500959742395], [51.02461997958426, 43.82015926727361], [51.02513221210509, 43.81512106520113], [51.0258535960707, 43.810176785858566], [51.028419840563835, 43.806060757244914], [51.027044538896114, 43.80017529853128], [51.03251581358226, 43.7973636800858], [51.03638059805183, 43.793830882431024], [51.03906269246698, 43.78976725017177], [51.04273009904474, 43.78614601898671], [51.04674991184323, 43.78268305118779], [51.0507069326374, 43.77919196451303], [51.0529881014878, 43.774948761261975], [51.057685789928655, 43.77179027451205], [51.06245586950771, 43.76866430307775], [51.06602445412679, 43.764999173477406], [51.069481697942365, 43.76128416135697], [51.072073491037614, 43.7571808662746], [51.07392247102772, 43.752744324563196], [51.07674487301055, 43.74874471299953], [51.07839788706051, 43.744220416329796], [51.08860010958642, 43.743532429951905], [51.08287414650376, 43.7356972688431], [51.086330775806296, 43.731982677852635], [51.088818799644216, 43.72783349536388], [51.08940087927942, 43.72282904338439], [51.08083220243936, 43.70845078122825], [51.08102747212874, 43.6980064151343], [51.067797630080804, 43.681530514745724]]}, "properties": {"year": 2009, "sensor": "LANDSAT/LT05/C02/T1_L2", "scale_m": 30, "n_scenes": 6, "date_window": ["2009-07-01", "2009-08-01"], "otsu_threshold": 0.0899, "data_quality": "good", "length_km": 152.2}}]}