{"type": "FeatureCollection", "crs": {"type": "name", "properties": {"name": "EPSG:4326"}}, "features": [{"type": "Feature", "geometry": {"type": "LineString", "coordinates": [[50.27437164341895, 44.55699490937069], [50.26914694804631, 44.54858670644631], [50.23968698599876, 44.52722394090088], [50.24000081768555, 44.52177215221099], [50.23989031038673, 44.516093451796664], [50.25730708717381, 44.51978664140465], [50.24167646521776, 44.50580964680932], [50.24178040547822, 44.50024572834814], [50.241628433680866, 44.4945449103562], [50.24080561256191, 44.48848514092683], [50.240649721994195, 44.48278215497412], [50.24087353630372, 44.477282351775514], [50.2411597372339, 44.47181595792965], [50.24159893238348, 44.46643147875633], [50.242207191407424, 44.461137535604884], [50.243096223573744, 44.45599394808767], [50.243053908325706, 44.450351832295986], [50.24126318955877, 44.443773558682665], [50.244546465252256, 44.43991209297976], [50.24629243460132, 44.435227620143195], [50.24437499447811, 44.42858147581235], [50.24283429498158, 44.422136859204336], [50.24221851209797, 44.41618751235843], [50.242656118634905, 44.410802434420255], [50.243057425356845, 44.40539794740528], [50.243829801924726, 44.4001923198456], [50.3157441827022, 44.33197647516748], [50.32136268430248, 44.32936902898022], [50.326978679272706, 44.32676022574021], [50.33219002414864, 44.32393480336739], [50.33559327119614, 44.32014159870054], [50.34338333506584, 44.318696464665], [50.350424997141516, 44.31685052836937], [50.35843144997064, 44.31552056994384], [50.365356638818305, 44.3136118452204], [50.37177259311318, 44.311430565894206], [50.3765822663081, 44.30839011608045], [50.38096411013555, 44.30512092438772], [50.38968022436837, 44.30416947150551], [50.39590018511579, 44.30188305486321], [50.403266047446316, 44.30020909255035], [50.41047260354595, 44.29844973188874], [50.41837366379739, 44.29706126170209], [50.427920783657584, 44.29655184735098], [50.44004882529758, 44.29742015374353], [50.44935641127275, 44.29678108990091], [50.459070248159456, 44.29635823433184], [50.468115881088806, 44.29557800723685], [50.478296282836226, 44.295402667320445], [50.48587639327759, 44.293839326389815], [50.49993993308641, 44.293294482409486], [50.51203070778087, 44.29450383011894], [50.518932509675246, 44.292716973201586], [50.52643970571054, 44.291279296886906], [50.53578042524035, 44.29089917743996], [50.546274227877625, 44.291183306595464], [50.55540857538594, 44.290682482322566], [50.56404817736721, 44.28989577263078], [50.57199546864119, 44.288709466349005], [50.58107252902286, 44.28817390534244], [50.59124247815764, 44.2882674154679], [50.65324588761553, 44.156822678848975], [50.661845141629996, 44.15601723079095], [50.64633133645904, 44.14130838712946], [50.672263781149645, 44.15049767419086], [50.59660588316899, 44.101068694278275], [50.59655781375027, 44.08950814062707], [50.6705105338391, 44.120675980431265], [50.758406634490896, 44.0156395469292], [50.87157587815333, 44.057937883919735], [50.86970695050162, 44.05110405035508], [50.86930095935066, 44.0451134201942], [50.868381269607404, 44.038826523558754], [50.86825623780347, 44.03299777981123], [50.87154576764575, 44.029138246998265], [50.87252379642808, 44.023945831866875], [50.877179055315764, 44.02087422700437], [50.88227439586464, 44.01805647612515], [50.886903348781196, 44.01496985760397], [50.89089633017485, 44.01151664443453], [50.89883147942011, 44.010336267239595], [50.90953867916564, 44.01075317325679], [50.91750163074143, 44.00958779153598], [50.923087397335074, 44.007052455819505], [50.94896218038489, 43.98168843716167], [50.99281335256932, 43.93793172580584], [50.99450813958412, 43.93315789151116], [50.995514798099094, 43.92798790107244], [50.996384891475316, 43.922739345603695], [50.99731912517673, 43.91752780963322], [50.997568432087064, 43.91192182870524], [50.997193385128426, 43.90595619294441], [50.9987914733493, 43.901127282616585], [51.00105540360449, 43.89668210271265], [51.00214851950199, 43.89156251479346], [51.003618267890225, 43.886660028867276], [51.005095564295274, 43.8817620079254], [51.00694452228704, 43.877078265134436], [51.006956201940795, 43.871335901306765], [51.009057782035164, 43.86679797494895], [51.01123691310828, 43.86230488333568], [51.01236356847679, 43.85720536158127], [51.01344331699491, 43.85207889886814], [51.0162123034009, 43.847926192686536], [51.017123206963774, 43.84270264738746], [51.014292775208965, 43.83532234297105], [51.01844346757835, 43.83196665648922], [51.0218172224383, 43.82822146360162], [51.02142191058567, 43.82926024474179], [51.0231140816713, 43.82475151748473], [51.023807211200776, 43.819794450159165], [51.023843939526934, 43.81454276857647], [51.02534846857434, 43.80995002619312], [51.02794960902877, 43.80584966300774], [51.03024819408885, 43.801613573966776], [51.0298469385786, 43.79616549175697], [51.03408263881934, 43.79279926899562], [51.03716735702733, 43.788916394145716], [51.04073340831223, 43.78524969478916], [51.04506914227372, 43.78192858739749], [51.04951954239865, 43.778658998867314], [51.05281908575524, 43.77487289833522], [51.05734037054678, 43.771635243495766], [51.06144709753084, 43.768211575555036], [51.06568644624049, 43.764847485648446], [51.069118352653746, 43.761121107776155], [51.07111976063046, 43.756752869436234], [51.071722601143584, 43.75175706327724], [51.07535509176323, 43.748121018779756], [51.07657735200053, 43.74340338009202], [51.07837383672478, 43.73894353371626], [51.08093660807719, 43.73482770102715], [51.08148562590519, 43.72980813050482], [51.08404357257386, 43.72569032648615], [51.086849253387726, 43.72168381392506], [51.09222507174926, 43.71883092587618], [51.09861699170609, 43.716433987014256], [51.10027908658083, 43.71191456159699], [51.1035654389593, 43.70812411594202], [51.106030178622966, 43.70396506994298], [51.10817266180983, 43.699661508472055], [51.112001391935884, 43.69611473665226], [51.11373896426294, 43.69162967421639], [51.1159311132197, 43.687348691369515], [51.1175139068526, 43.6827865962919], [51.11912847688444, 43.67821820549505], [51.122451035317624, 43.67441641455506], [51.12590400571498, 43.670673236457354], [51.131437142385565, 43.66786357114241], [51.13123881805469, 43.66248210806846], [51.15164997182468, 43.66634680588585], [51.13655530381473, 43.65428314672088], [51.140204558091106, 43.65062852182294], [51.14390611092684, 43.64699744445997], [51.1475850676772, 43.64335630665194], [51.150098095187516, 43.63919210395806], [51.194946100169076, 43.654009962054566], [51.204259007469325, 43.652892323545004], [51.162057051455385, 43.62868315045244], [51.17522589314616, 43.629299065311685], [51.191304637648635, 43.631225042746166], [51.189556868955684, 43.62516054672343], [51.19484869808473, 43.62225201643346], [51.2047664050456, 43.6214168405921], [51.22309618752153, 43.62434951507525], [51.23126028224264, 43.622726590307515], [51.23513821870812, 43.61918397062352], [51.219186533574195, 43.60675856587806], [51.217788913625135, 43.60085233595547], [51.24425224318798, 43.607428215799146], [51.226257032559104, 43.594087778719626], [51.23030742406978, 43.590623280842536], [51.23489619020183, 43.587400077545404], [51.239099588664345, 43.58400424844654], [51.24446239809885, 43.58112790266203], [51.25126613106874, 43.578896990588895], [51.25514259794346, 43.57649399443833], [51.260334627163125, 43.57337563814831], [51.2761644874059, 43.57424330091397], [51.27709275829873, 43.569527162281005], [51.2705560302932, 43.56201375726333], [51.272837150554814, 43.55780458405325], [51.275021109403276, 43.553559067776405], [51.28733723279375, 43.55311026577678], [51.291832239163526, 43.54973070735887], [51.28095717598335, 43.540592141992896], [51.28287808926162, 43.5362483165114], [51.284755821095146, 43.53188837434428], [51.28558598018526, 43.52713584796588], [51.28342730922135, 43.5212629423436], [51.28542223317018, 43.516947102734406], [51.28957700874744, 43.5134410262898], [51.292392804747806, 43.50943305523858], [51.29409636762004, 43.50500821453733], [51.30350446097866, 43.503471330129045], [51.29512651066508, 43.49526757914546], [51.30047006517706, 43.492207571535424], [51.297556999526705, 43.48605211871641], [51.311433734915965, 43.48619106986922], [51.31381253409436, 43.4820197781586], [51.33878926634012, 43.486314833719234], [51.33687543178167, 43.480535983149984], [51.337180750523316, 43.47558824376606], [51.31154155409536, 43.460916925871125], [51.31307093094134, 43.45642748437078], [51.31421435955507, 43.45179337947602], [51.33126391505052, 43.45312246876283], [51.31379776312021, 43.4415114232365], [51.329846648513794, 43.442466555985], [51.33129180426239, 43.43794596710665], [51.336126359157035, 43.434696036262785], [51.33725224601903, 43.43005592423071], [51.33673116387334, 43.42479841882836], [51.338580747631006, 43.420429705911005], [51.340064282889394, 43.41592381926385], [51.34044483684754, 43.411004433902676], [51.33771727052593, 43.4049195171056], [51.33824620116288, 43.400055730496184], [51.3385279853835, 43.39509927042044], [51.336441431383975, 43.389254413516234], [51.329829087408854, 43.38171117002687], [51.33136064341778, 43.37722349207876], [51.31419398674853, 43.36571649954723], [51.32914953467407, 43.36626877268343], [51.32730849929776, 43.36051516615175], [51.32772707303152, 43.35560978005693], [51.312604282020246, 43.344867486310285], [51.31163089651297, 43.33943875195985], [51.310792590098245, 43.33406069568376], [51.309319464848315, 43.32844399771117], [51.3080867587838, 43.322917537112204], [51.309144786307655, 43.31825205687637], [51.30478881274685, 43.31155129632283], [51.303482324189346, 43.3059967384549], [51.301359479105, 43.30013505501831], [51.29968639714895, 43.2944423448852], [51.297715553796365, 43.28863746902207], [51.296328028747965, 43.283051884117704], [51.29426474871608, 43.27721189169928], [51.29251956736855, 43.27149142622432], [51.477880443226034, 43.26065888918981], [51.471946777578985, 43.23822194167571], [51.51426361008538, 43.24999939556169], [51.53538041943219, 43.253354232794045], [51.491305532391955, 43.23084997530523], [51.54740407709667, 43.24306602461278], [51.54722657247419, 43.23797788473694], [51.4138047356434, 43.159858744668135], [51.426107674954146, 43.159737228316644], [51.44532443799864, 43.162366588636864], [51.57517972104894, 43.208916979243085], [51.47588352917097, 43.16448275038256], [51.58467138481265, 43.20264414518393], [51.5922360210801, 43.20062431690638], [51.57465162679801, 43.188639978044], [51.5973110352186, 43.19260198402588], [51.60065538252395, 43.18891051087012], [51.60513238109599, 43.185667702739465], [51.556886154160225, 43.13643773410278], [51.56377444002329, 43.13415420275546], [51.56624966297074, 43.13011920218178], [51.66828098383855, 43.13544207688779], [51.66895810621474, 43.130696081123006], [51.66733355439872, 43.12503924804166], [51.670216878213125, 43.12116640341087], [51.6651266934024, 43.114137712455644], [51.6569109608025, 43.10587065466324], [51.66132598175978, 43.10260468096529], [51.66591242609996, 43.09940659843697], [51.670043266863495, 43.096028141137246], [51.67345369480592, 43.09236450283555], [51.67877814472165, 43.08945864508513], [51.68406533632967, 43.086537993601496], [51.68969253010657, 43.08375186624475], [51.69457335116009, 43.08067029682414], [51.699893622570634, 43.077762609044996], [51.70787844126638, 43.07364232979971], [51.71391206437967, 43.07123935854772], [51.717970903951745, 43.06784531320607], [51.72331235779141, 43.06509497537099], [51.72853678162267, 43.06228591079143], [51.73325297587068, 43.059221863856905], [51.738207876508554, 43.056277615007964], [51.74226236151034, 43.05288169957842], [51.74646030489706, 43.049557829273944], [51.75114625463125, 43.04647881796776], [51.75513351176296, 43.04304941009468], [51.75914059256351, 43.03963002965154], [51.76301650925824, 43.03614495039288], [51.76572669943905, 43.03207532469622], [51.76854495113428, 43.028060008860514], [51.7710153123476, 43.02387032941975], [51.77460588688796, 43.020242579029265], [51.77710997414528, 43.016070043984456], [51.775998207832934, 43.01008407948191], [51.783035952651765, 43.00818560837857], [51.78631392402618, 43.00440152334607], [51.78629035407262, 42.99896176537698], [51.7877617259589, 42.99427182784091], [51.78837202865869, 42.98915007191379], [51.79154335287562, 42.98531300302791], [51.795274300837896, 42.981756739620174], [51.80154260597198, 42.979473145830646], [51.80102358157384, 42.97378552826264], [51.80351795887156, 42.969609363998046], [51.80391614429815, 42.96438187839371], [51.80647171260222, 42.960236627576585], [51.8082504513863, 42.955701815784785], [51.812421058136394, 42.95236691914191], [51.81645252676421, 42.9489623093583], [51.82010292896757, 42.945366654271254], [51.824179071211695, 42.94198462327299], [51.82719867181563, 42.93817190029044], [51.82975509541591, 42.93415777398859], [51.83135472646729, 42.9296638833813], [51.832097931339796, 42.92474052098474], [51.83349476160747, 42.92014507115663], [51.8362736857154, 42.91624297911244], [51.84163063519269, 42.91363406931729], [51.84340900807783, 42.909230348820905], [51.84777138709838, 42.906122758905866], [51.849317410088624, 42.90160273082953], [51.85431739919728, 42.8988151111666], [51.85905589405519, 42.89589636889386], [51.86155997191306, 42.89185718114484], [51.865983956445845, 42.888780870824995], [51.86897088515375, 42.884984026401696], [51.87261502667268, 42.8815168350675], [51.87536650660069, 42.87760213764141], [51.87809336378722, 42.87367520107683], [51.88100195458896, 42.86983949656058], [51.88281474615173, 42.86545444038131], [51.88446444709169, 42.860987699640795], [51.88613717639771, 42.85653259849297], [51.8881717163187, 42.852259029291055], [51.89176534889329, 42.8487674000284], [51.911876475969706, 42.853556076907395], [51.923371082762735, 42.85402333978147], [51.90210598222926, 42.83807230544575], [51.96091339149144, 42.86223920317631], [51.98196332406565, 42.86748041505096], [51.91846541249048, 42.830395417411204], [51.932742934597144, 42.83225869936123], [51.98913011343013, 42.850485723305994], [52.00316716881024, 42.85415959313656], [52.01748436257724, 42.85802786537647], [52.01931324252834, 42.71633600264936], [52.00828708780871, 42.702333455795596], [52.012537215623254, 42.69290051001645], [52.04201991223011, 42.70128318702578], [52.065358449621, 42.711533246656835], [52.08050609894921, 42.71600020070347], [52.097312285742795, 42.72163216967939], [52.07392831802321, 42.69893738927179], [52.06238418796942, 42.684581052999675], [52.081057011541475, 42.69153930506151], [52.08154364571401, 42.685670153636956], [52.05195540330939, 42.658578051897216], [52.06448789560504, 42.66121104330019], [52.06762458385625, 42.65721144450877], [52.06860777773865, 42.65169205462538], [52.08946747762867, 42.66019864408885], [52.10666072405566, 42.66611253737678], [52.109821391246406, 42.66213047517962], [52.10116704735535, 42.64981688320912], [52.11890546293437, 42.656114652061525], [52.12910891562503, 42.65709737565597], [52.1724745784198, 42.68143116808664], [52.146420775268375, 42.65687913492435], [52.16019420658777, 42.660373252994965], [52.18292951731855, 42.67017233273566], [52.14535667605665, 42.637505876262075], [52.153313724709804, 42.636905390788655], [52.168205614733026, 42.641189362143756], [52.17927315144417, 42.642777378563], [52.18093465455347, 42.637741875700506], [52.17067205374156, 42.62430813823701], [52.17731157907367, 42.622779286311676], [52.18047879948584, 42.61880464809431], [52.20608742663131, 42.63063085601937], [52.21909274010477, 42.63357930474843], [52.21144321041035, 42.62199350522237], [52.204636611465375, 42.61099859528162], [52.24324640965069, 42.63196268871954], [52.235275698269774, 42.62015560286372], [52.242096758261624, 42.61875219520411], [52.24589617198815, 42.6152235269744]]}, "properties": {"year": 2025, "sensor": "COPERNICUS/S2_SR_HARMONIZED", "scale_m": 30, "n_scenes": 94, "date_window": ["2025-07-01", "2025-08-01"], "otsu_threshold": -0.0117, "data_quality": "good", "length_km": 518.6}}]}