{
  "type": "FeatureCollection",
  "crs": {
    "type": "name",
    "properties": {
      "name": "EPSG:4326"
    }
  },
  "features": [
    {
      "type": "Feature",
      "geometry": {
        "type": "LineString",
        "coordinates": [
          [
            50.51230916275622,
            44.294664567204556
          ],
          [
            50.52020076155581,
            44.29344895026459
          ],
          [
            50.529359418127804,
            44.29296409847732
          ],
          [
            50.54796206611911,
            44.292156803256894
          ],
          [
            50.53784627178049,
            44.29209100853887
          ],
          [
            50.557009561031414,
            44.29160568357167
          ],
          [
            50.565493857624745,
            44.29072925128027
          ],
          [
            50.572964194722694,
            44.289267871452566
          ],
          [
            50.581855587053234,
            44.28862518863059
          ],
          [
            50.59177727872189,
            44.288575548361266
          ],
          [
            50.86999071164159,
            44.051267635913725
          ],
          [
            50.86837957414404,
            44.044582180147195
          ],
          [
            50.868443663746994,
            44.03886250198416
          ],
          [
            50.86901074721757,
            44.03343289277779
          ],
          [
            50.871468760145326,
            44.02909383815205
          ],
          [
            50.87308912755898,
            44.02427186530713
          ],
          [
            50.87768784982614,
            44.02116763665168
          ],
          [
            50.8824849313745,
            44.01817787796154
          ],
          [
            50.887362431109096,
            44.015234562092914
          ],
          [
            50.89258741733693,
            44.0124916559064
          ],
          [
            50.911783779520356,
            44.01204701035553
          ],
          [
            50.901223521723864,
            44.011715159390725
          ],
          [
            50.91819283523657,
            44.00998606800461
          ],
          [
            50.99455588376797,
            43.93318538527482
          ],
          [
            50.99611789065838,
            43.928335213775334
          ],
          [
            50.99689343589203,
            43.92303222949924
          ],
          [
            50.997852957736015,
            43.917835277471966
          ],
          [
            50.99824540326576,
            43.912311772709614
          ],
          [
            50.99907314673322,
            43.90703905637089
          ],
          [
            50.99991243098465,
            43.90177306180544
          ],
          [
            51.00196887092503,
            43.89720835943156
          ],
          [
            51.00320214286968,
            43.89216955127473
          ],
          [
            51.00465721399836,
            43.88725863709303
          ],
          [
            51.005934841889754,
            43.882245597380184
          ],
          [
            51.00702922321583,
            43.87712707183838
          ],
          [
            51.00821395298199,
            43.87206070302193
          ],
          [
            51.01002732295624,
            43.867356706871185
          ],
          [
            51.011797578915505,
            43.86262799598801
          ],
          [
            51.0130458565919,
            43.85759858743278
          ],
          [
            51.014493439769154,
            43.85268415269791
          ],
          [
            51.016640506837305,
            43.84817299709185
          ],
          [
            51.017854017127895,
            43.84312389123008
          ],
          [
            51.01822077436484,
            43.837586783952574
          ],
          [
            51.06594417709919,
            43.76496314770899
          ],
          [
            51.06921130126074,
            43.76116281926779
          ],
          [
            51.071783040139,
            43.75705052478448
          ],
          [
            51.07395309862708,
            43.75275806913907
          ],
          [
            51.09584506754872,
            43.72045547747845
          ],
          [
            51.09966212283681,
            43.716902971243734
          ],
          [
            51.10235128780074,
            43.712844438159046
          ],
          [
            51.105301878523825,
            43.70890330856807
          ],
          [
            51.10828269402865,
            43.704975835995484
          ],
          [
            51.11036594412506,
            43.7006457105361
          ],
          [
            51.11367321083838,
            43.696864914110655
          ],
          [
            51.11500013488778,
            43.692195606126255
          ],
          [
            51.17665826124886,
            43.62994142772554
          ],
          [
            51.18588894200194,
            43.62879715392254
          ],
          [
            51.192018796583774,
            43.62626425841152
          ],
          [
            51.19854475405886,
            43.62390881234137
          ],
          [
            51.20559446292799,
            43.62178795063479
          ],
          [
            51.21074281661424,
            43.61881486392907
          ],
          [
            51.21886957806775,
            43.61717627878672
          ],
          [
            51.21938089679712,
            43.612125517240464
          ],
          [
            51.221443629582346,
            43.60776995869913
          ],
          [
            51.217722474748605,
            43.60082255976827
          ],
          [
            51.22082365922781,
            43.59693254869221
          ],
          [
            51.227174482910975,
            43.59449890233453
          ],
          [
            51.2341554202899,
            43.59234745249357
          ],
          [
            51.24076886551547,
            43.590031172890335
          ],
          [
            51.24549517350934,
            43.58686943307675
          ],
          [
            51.24850105644763,
            43.58293709782243
          ],
          [
            51.253988807728604,
            43.58011651626032
          ],
          [
            51.257755928462615,
            43.57747356219044
          ],
          [
            51.261176723432015,
            43.5736912635203
          ],
          [
            51.26495263047345,
            43.57004211274535
          ],
          [
            51.27447065456775,
            43.56854473548416
          ],
          [
            51.27797795743261,
            43.56479492834128
          ],
          [
            51.27299233169413,
            43.55786274187046
          ],
          [
            51.28408983472598,
            43.55695726894187
          ],
          [
            51.28725799057088,
            43.55308057811427
          ],
          [
            51.291978613212,
            43.54978554121258
          ],
          [
            51.288692764440015,
            43.54349098956336
          ],
          [
            51.28310694147619,
            43.536334089934094
          ],
          [
            51.28479652786744,
            43.531903631500214
          ],
          [
            51.28592701246807,
            43.52726367544006
          ],
          [
            51.28592320299281,
            43.52219858215851
          ],
          [
            51.287431803232636,
            43.517700450546975
          ],
          [
            51.29012915014058,
            43.51364800534936
          ],
          [
            51.287889144106536,
            43.50774465921529
          ],
          [
            51.28764590976189,
            43.49752619568811
          ],
          [
            51.28927142451399,
            43.493072141957164
          ],
          [
            51.28968073378934,
            43.48816204989525
          ],
          [
            51.28990858895904,
            43.48318392097657
          ],
          [
            51.30039299181015,
            43.48205218138811
          ],
          [
            51.33877006480208,
            43.48124560187635
          ],
          [
            51.34434878684234,
            43.47827291691633
          ],
          [
            51.30487115290912,
            43.47360489337918
          ],
          [
            51.343417632872786,
            43.47286230368267
          ],
          [
            51.34793105956475,
            43.46949081738365
          ],
          [
            51.34460753393366,
            43.46318420092913
          ],
          [
            51.33143536926964,
            43.45318672776862
          ],
          [
            51.33432430011519,
            43.428958271874244
          ],
          [
            51.475941627804886,
            43.27996958595274
          ],
          [
            51.489960937027064,
            43.260434135934354
          ],
          [
            51.50987008774685,
            43.24825654334737
          ],
          [
            51.60715503530185,
            43.18646876101329
          ],
          [
            51.587423066462236,
            43.1836681524035
          ],
          [
            51.56493310505071,
            43.17976979592932
          ],
          [
            51.670321012345845,
            43.13123537325612
          ],
          [
            51.6748139181369,
            43.12799927433255
          ],
          [
            51.671640147798435,
            43.12172965038196
          ],
          [
            51.66790146811183,
            43.115236069375904
          ],
          [
            51.6572363846689,
            43.1059995229266
          ],
          [
            51.66139625411419,
            43.10263250705521
          ],
          [
            51.66630702404507,
            43.09956283639702
          ],
          [
            51.67037407072628,
            43.096159112485
          ],
          [
            51.67374340727424,
            43.092479201331926
          ],
          [
            51.678967319905745,
            43.08953353282742
          ],
          [
            51.68440692811292,
            43.08667320355366
          ],
          [
            51.69011735386079,
            43.08392000198579
          ],
          [
            51.695781865335896,
            43.08114855131385
          ],
          [
            51.70026330404342,
            43.07790889301179
          ],
          [
            51.70841255983,
            43.0739104137158
          ],
          [
            51.71447456646718,
            43.071521656358605
          ],
          [
            51.71927730568894,
            43.06850090616147
          ],
          [
            51.72417889555928,
            43.0655297948456
          ],
          [
            51.729384059491004,
            43.06271102922758
          ],
          [
            51.73368674293888,
            43.059439491297006
          ],
          [
            51.73864265341357,
            43.05649573223141
          ],
          [
            51.74316432890416,
            43.05333417042363
          ],
          [
            51.747427113384646,
            43.05004280202603
          ],
          [
            51.75207150053078,
            43.04694291068999
          ],
          [
            51.75605164158791,
            43.04350991307805
          ],
          [
            51.75991986877408,
            43.04002087164078
          ],
          [
            51.76362552384694,
            43.03645038701246
          ],
          [
            51.76674404596958,
            43.032585546323034
          ],
          [
            51.769931080894516,
            43.02875517576096
          ],
          [
            51.772317277829465,
            43.024523292137985
          ],
          [
            51.775035468681,
            43.02045801974523
          ],
          [
            51.777747225073604,
            43.01638963418824
          ],
          [
            51.779835586936365,
            43.01200872176895
          ],
          [
            51.78317372486345,
            43.00825470231649
          ],
          [
            51.78711014227553,
            43.00480082100347
          ],
          [
            51.788582597386544,
            43.000111385069935
          ],
          [
            51.79001229276103,
            42.99540059279864
          ],
          [
            51.79015552143766,
            42.99004464726752
          ],
          [
            51.793773403331436,
            42.98643153837742
          ],
          [
            51.79816459073767,
            42.98320636589465
          ],
          [
            51.80182312582947,
            42.979613829786516
          ],
          [
            51.80317236998466,
            42.97486325337971
          ],
          [
            51.80395437277586,
            42.9698282551866
          ],
          [
            51.805570549803406,
            42.96521172212338
          ],
          [
            51.80746997339554,
            42.960737359199065
          ],
          [
            51.80898442122536,
            42.95606999090269
          ],
          [
            51.81281891093518,
            42.95256648172738
          ],
          [
            51.816349270087926,
            42.94891051784545
          ],
          [
            51.82031247362823,
            42.9454717537168
          ],
          [
            51.82457183260919,
            42.942181607146146
          ],
          [
            51.82754890434477,
            42.93834755221898
          ],
          [
            51.83003547109231,
            42.93429839109153
          ],
          [
            51.832149248131515,
            42.93006237089855
          ],
          [
            52.15630115283281,
            42.738321885748476
          ]
        ]
      },
      "properties": {
        "id": "main_shoreline"
      }
    }
  ]
}