{
  "type": "FeatureCollection",
  "crs": {
    "type": "name",
    "properties": {
      "name": "EPSG:4326"
    }
  },
  "features": [
    {
      "type": "Feature",
      "geometry": {
        "type": "LineString",
        "coordinates": [
          [
            50.51240393549833,
            44.29471927405833
          ],
          [
            50.52028674587616,
            44.29349857532013
          ],
          [
            50.529377984437765,
            44.29297481150238
          ],
          [
            50.54790342575353,
            44.29212298213389
          ],
          [
            50.53775441116913,
            44.29203801400233
          ],
          [
            50.556961667569695,
            44.29157806676505
          ],
          [
            50.565477240377696,
            44.29071967116961
          ],
          [
            50.57287132916562,
            44.289214341550675
          ],
          [
            50.581952370340055,
            44.28868096484477
          ],
          [
            50.59163551203064,
            44.288493868038834
          ],
          [
            50.86997803499375,
            44.051260327982924
          ],
          [
            50.86955934017054,
            44.045262390931654
          ],
          [
            50.868423190661616,
            44.03885069656708
          ],
          [
            50.86901269686861,
            44.03343401709423
          ],
          [
            50.87142099605729,
            44.029066293398465
          ],
          [
            50.87293317352439,
            44.02418192532825
          ],
          [
            50.877707343968545,
            44.02117887835538
          ],
          [
            50.88203754444335,
            44.01791989859353
          ],
          [
            50.887501813601034,
            44.01531492848197
          ],
          [
            50.89239637531842,
            44.01238151177778
          ],
          [
            50.91162877379606,
            44.01195768477236
          ],
          [
            50.901200127130224,
            44.01170167413651
          ],
          [
            50.91832347295091,
            44.01006134122329
          ],
          [
            50.99455393502491,
            43.93318426308078
          ],
          [
            50.99619486097309,
            43.928379539398634
          ],
          [
            50.996924611191005,
            43.92305018399344
          ],
          [
            50.99795134718364,
            43.91789194554054
          ],
          [
            50.99819767407285,
            43.91228428038692
          ],
          [
            50.998929970783124,
            43.90695658030345
          ],
          [
            50.99978874463478,
            43.901701807824836
          ],
          [
            51.001904596578804,
            43.8971713309476
          ],
          [
            51.00347967199461,
            43.89232944372988
          ],
          [
            51.004613396731884,
            43.88723339138993
          ],
          [
            51.005946525664385,
            43.88225232944016
          ],
          [
            51.00693965442178,
            43.877075460149506
          ],
          [
            51.0081574898204,
            43.872028165782424
          ],
          [
            51.009713875014576,
            43.86717607356129
          ],
          [
            51.011737229180135,
            43.86259321663415
          ],
          [
            51.01281615516956,
            43.857466203723924
          ],
          [
            51.0144661888634,
            43.852668446511885
          ],
          [
            51.01662006977487,
            43.848161217827396
          ],
          [
            51.017818984714914,
            43.84310369855674
          ],
          [
            51.01817114953538,
            43.83755817779282
          ],
          [
            51.06597692166461,
            43.76497784243715
          ],
          [
            51.06922608855102,
            43.761169455179925
          ],
          [
            51.07173234338407,
            43.757027774193794
          ],
          [
            51.076563228230036,
            43.7486631976988
          ],
          [
            51.095866182125086,
            43.72046495250687
          ],
          [
            51.099651565875256,
            43.71689823407735
          ],
          [
            51.10222355474777,
            43.712787121338295
          ],
          [
            51.105280766526626,
            43.70889383526082
          ],
          [
            51.10827424959348,
            43.7049720468903
          ],
          [
            51.1103712215992,
            43.700648078632454
          ],
          [
            51.11378086727091,
            43.69691322014953
          ],
          [
            51.11499063644303,
            43.69219134392988
          ],
          [
            51.17660657733377,
            43.629918250014555
          ],
          [
            51.185857297222135,
            43.62878296604505
          ],
          [
            51.191850024036654,
            43.62618859864676
          ],
          [
            51.19855424761435,
            43.62391306765532
          ],
          [
            51.20560079207199,
            43.621790787121405
          ],
          [
            51.21072488424527,
            43.61880682801807
          ],
          [
            51.21586745629344,
            43.61583114649925
          ],
          [
            51.21941043107995,
            43.61213875063913
          ],
          [
            51.22140987805777,
            43.607754835398865
          ],
          [
            51.218226568177194,
            43.601048479708474
          ],
          [
            51.220707659826374,
            43.596880561531826
          ],
          [
            51.227190301129866,
            43.59450599060765
          ],
          [
            51.234192330057866,
            43.592363989545234
          ],
          [
            51.24078152042213,
            43.59003684200791
          ],
          [
            51.245392881566005,
            43.58682361185715
          ],
          [
            51.24944590536971,
            43.583360324808176
          ],
          [
            51.25402466090298,
            43.58013257464407
          ],
          [
            51.25784069249361,
            43.577505333179225
          ],
          [
            51.276271274469636,
            43.57428330690927
          ],
          [
            51.26114810302263,
            43.573680536485966
          ],
          [
            51.27604588804979,
            43.56913494120986
          ],
          [
            51.27792732355951,
            43.564775957142906
          ],
          [
            51.27301214207377,
            43.557870166257395
          ],
          [
            51.284086532820616,
            43.5569560318645
          ],
          [
            51.28713582562929,
            43.553034809526224
          ],
          [
            51.29059522393999,
            43.54926729191734
          ],
          [
            51.288665253925174,
            43.543480681650685
          ],
          [
            51.2831608538709,
            43.53635429610596
          ],
          [
            51.28473161707808,
            43.531879302514916
          ],
          [
            51.285831303263066,
            43.52722780138133
          ],
          [
            51.28584180198234,
            43.52216806854767
          ],
          [
            51.28746370157217,
            43.51771240816207
          ],
          [
            51.29003236014224,
            43.51361172236165
          ],
          [
            51.29238400614349,
            43.50942975695893
          ],
          [
            51.29403588102928,
            43.50498553972381
          ],
          [
            51.29496392497298,
            43.50027003024684
          ],
          [
            51.29575877532078,
            43.495504627073984
          ],
          [
            51.29617307182173,
            43.49059657660678
          ],
          [
            51.298288127300744,
            43.48632625467154
          ],
          [
            51.31143813304182,
            43.48619271828644
          ],
          [
            51.316031298238215,
            43.48285133782733
          ],
          [
            51.32118688874195,
            43.47972072360227
          ],
          [
            51.34423442756198,
            43.47823009089384
          ],
          [
            51.343185637726016,
            43.47277541410575
          ],
          [
            51.34855116511913,
            43.46972304537791
          ],
          [
            51.34525064851276,
            43.46342509487581
          ],
          [
            51.331456251539,
            43.4531945541683
          ],
          [
            51.587403589738045,
            43.18366043434579
          ],
          [
            51.56426454559072,
            43.179504674941136
          ],
          [
            51.657241790392426,
            43.10600166358753
          ],
          [
            51.66136382071198,
            43.102619664249914
          ],
          [
            51.66623891521621,
            43.09953586939548
          ],
          [
            51.67029947757601,
            43.09612957981472
          ],
          [
            51.67371962486694,
            43.092469785811716
          ],
          [
            51.679002992991805,
            43.08954765448046
          ],
          [
            51.68443287185369,
            43.08668347262172
          ],
          [
            51.69008492448517,
            43.08390716725275
          ],
          [
            51.6957786224285,
            43.081147268000684
          ],
          [
            51.70016277645235,
            43.077869114158176
          ],
          [
            51.70837708691631,
            43.07389260935986
          ],
          [
            51.71445429603234,
            43.071511483513426
          ],
          [
            51.71925602196278,
            43.06849022556009
          ],
          [
            51.724179909060894,
            43.06553030340248
          ],
          [
            51.7293962214592,
            43.06271713135956
          ],
          [
            51.73368370250487,
            43.05943796587687
          ],
          [
            51.7387196771481,
            43.05653437286941
          ],
          [
            51.74312885802678,
            43.05331637676318
          ],
          [
            51.74732577006393,
            43.04999196669828
          ],
          [
            51.75207555421261,
            43.046944943938165
          ],
          [
            51.756033400464815,
            43.04350076408525
          ],
          [
            51.759802318025436,
            43.03996191532822
          ],
          [
            51.76360424370163,
            43.03643971457396
          ],
          [
            51.76674708587481,
            43.03258707087584
          ],
          [
            51.769989850242474,
            43.028784648833216
          ],
          [
            51.772465207163926,
            43.024597479942855
          ],
          [
            51.77509119295354,
            43.02048596594405
          ],
          [
            51.778026847590574,
            43.01652986658555
          ],
          [
            51.779726175779125,
            43.011953849940966
          ],
          [
            51.78384030358449,
            43.008588992656975
          ],
          [
            51.78695413941763,
            43.00472258755627
          ],
          [
            51.78862716681421,
            43.00013373691104
          ],
          [
            51.790029511635154,
            42.99540922854018
          ],
          [
            51.789764586755226,
            42.98984856446497
          ],
          [
            51.79365288537653,
            42.98637109186868
          ],
          [
            51.79796305597645,
            42.98310529065377
          ],
          [
            51.80169147375218,
            42.97954780491261
          ],
          [
            51.80325135609096,
            42.974902867373665
          ],
          [
            51.804037403148385,
            42.96986990018573
          ],
          [
            51.805495624728884,
            42.96517414098859
          ],
          [
            51.80739201532932,
            42.96069825573084
          ],
          [
            51.8089985945218,
            42.95607710044391
          ],
          [
            51.81263061387165,
            42.95247203243532
          ],
          [
            51.81664992971342,
            42.94906132228011
          ],
          [
            51.82025274826615,
            42.94544179787607
          ],
          [
            51.82450299795727,
            42.94214708429869
          ],
          [
            51.82755092881602,
            42.93834856754486
          ],
          [
            51.82998891042271,
            42.934275039563396
          ]
        ]
      },
      "properties": {
        "id": "main_shoreline"
      }
    }
  ]
}