{
  "type": "FeatureCollection",
  "crs": {
    "type": "name",
    "properties": {
      "name": "EPSG:4326"
    }
  },
  "features": [
    {
      "type": "Feature",
      "geometry": {
        "type": "LineString",
        "coordinates": [
          [
            50.656125908318934,
            44.2161131390083
          ],
          [
            50.66153940570187,
            44.21346802074404
          ],
          [
            50.66674135720303,
            44.21070110533893
          ],
          [
            50.66731528910108,
            44.205269231094974
          ],
          [
            50.716513472020885,
            44.17598140341304
          ],
          [
            50.71118098192152,
            44.161392562793125
          ],
          [
            50.67584316540212,
            44.15832244701686
          ],
          [
            50.70613427598958,
            44.14696652313917
          ],
          [
            50.72208997456864,
            44.1446341301804
          ],
          [
            50.72727816108341,
            44.141861590666494
          ],
          [
            50.726656871305714,
            44.1299857327401
          ],
          [
            50.72571222479069,
            44.12368266047723
          ],
          [
            50.87173777011016,
            44.05803119812045
          ],
          [
            50.86163037483128,
            44.05796199441106
          ],
          [
            50.869891248796094,
            44.05121029672629
          ],
          [
            50.868221624048516,
            44.04449110967587
          ],
          [
            50.81980065874974,
            44.03959010114546
          ],
          [
            50.868378344883965,
            44.03882483706923
          ],
          [
            50.868841127859746,
            44.03333507712039
          ],
          [
            50.871093472074406,
            44.02887741454814
          ],
          [
            50.873023821749584,
            44.02423420296698
          ],
          [
            50.87737009634407,
            44.02098439641072
          ],
          [
            50.88188549225234,
            44.017832218930664
          ],
          [
            50.88723766947769,
            44.015162625599814
          ],
          [
            50.89200552114789,
            44.012156164882335
          ],
          [
            50.90112896863978,
            44.0116606564587
          ],
          [
            50.99632639278813,
            43.92845528559614
          ],
          [
            50.9967745802367,
            43.922963777911555
          ],
          [
            50.99787438908493,
            43.91784762101892
          ],
          [
            50.99822592195723,
            43.912300551355834
          ],
          [
            50.99863875017265,
            43.90678882230297
          ],
          [
            50.999535529405705,
            43.90155593311351
          ],
          [
            51.001918230524375,
            43.89717918547755
          ],
          [
            51.003069708442226,
            43.89209325147804
          ],
          [
            51.00434854648703,
            43.887080794779884
          ],
          [
            51.00574108634409,
            43.88213395721012
          ],
          [
            51.006581380791765,
            43.876869012687244
          ],
          [
            51.008110761733136,
            43.87200123839057
          ],
          [
            51.009625292243726,
            43.867125024860314
          ],
          [
            51.01179660553212,
            43.86262743503095
          ],
          [
            51.01253876285754,
            43.85730633294736
          ],
          [
            51.014199520040385,
            43.85251474991752
          ],
          [
            51.016697925293855,
            43.84820609119606
          ],
          [
            51.01741027497628,
            43.84286811656863
          ],
          [
            51.01804562811953,
            43.83748582093893
          ],
          [
            51.066159657759385,
            43.76505984832767
          ],
          [
            51.06956302840797,
            43.76132065865643
          ],
          [
            51.07184218640161,
            43.75707706711173
          ],
          [
            51.095979145221605,
            43.72051564384227
          ],
          [
            51.09983525724354,
            43.71698066063267
          ],
          [
            51.10226155794472,
            43.71280417429171
          ],
          [
            51.10454501757548,
            43.708563688053
          ],
          [
            51.107878417887335,
            43.704794431879805
          ],
          [
            51.10997435670202,
            43.70046999710229
          ],
          [
            51.113352353475705,
            43.696720942566266
          ],
          [
            51.115053959433396,
            43.69221975855743
          ],
          [
            51.60727624471544,
            43.186516763355975
          ],
          [
            51.58835579085796,
            43.18403775768422
          ],
          [
            51.56441275325918,
            43.17956344805774
          ],
          [
            51.67026260159479,
            43.13121226107344
          ],
          [
            51.67056745824767,
            43.126319019448225
          ],
          [
            51.671600131505606,
            43.12171381465592
          ],
          [
            51.668141535097234,
            43.11533109159551
          ],
          [
            51.65721908635613,
            43.10599267280996
          ],
          [
            51.6616600462861,
            43.10273696152576
          ],
          [
            51.66619675263766,
            43.09951917551682
          ],
          [
            51.67025947837985,
            43.096113743435
          ],
          [
            51.67359638887241,
            43.09242099621768
          ],
          [
            51.67904515211451,
            43.089564343692246
          ],
          [
            51.684211269345475,
            43.08659575747328
          ],
          [
            51.68994980223155,
            43.08385368909813
          ],
          [
            51.69517652495175,
            43.08090899790896
          ],
          [
            51.69978552890299,
            43.0777198357266
          ],
          [
            51.707506486676714,
            43.073455636085384
          ],
          [
            51.71447760703299,
            43.07152318228507
          ],
          [
            51.71900973938135,
            43.06836663545101
          ],
          [
            51.72408159948247,
            43.06548097334296
          ],
          [
            51.72917629290562,
            43.06260678426945
          ],
          [
            51.73393808600318,
            43.05956559241168
          ],
          [
            51.73872575797335,
            43.05653742344384
          ],
          [
            51.743124804213515,
            43.05331434320128
          ],
          [
            51.747333877523445,
            43.04999603352787
          ],
          [
            51.75167018734987,
            43.0467416183973
          ],
          [
            51.75567668625406,
            43.043321849852695
          ],
          [
            51.75981650517285,
            43.03996903075176
          ],
          [
            51.76339144265255,
            43.03633298996717
          ],
          [
            51.76674911247838,
            43.03258808724433
          ],
          [
            51.77015703921109,
            43.02886849447391
          ],
          [
            51.775034455512866,
            43.020457511632266
          ],
          [
            51.77776140879394,
            43.01639674744255
          ],
          [
            51.779457714039445,
            43.01181921028147
          ],
          [
            51.78373697328082,
            43.008537172833094
          ],
          [
            51.786836631031775,
            43.004663658323004
          ],
          [
            51.78833949198391,
            42.99998946562505
          ],
          [
            51.79008218116228,
            42.9954356437332
          ],
          [
            51.790400616464595,
            42.99016757931446
          ],
          [
            51.79355667373261,
            42.986322836159566
          ],
          [
            51.79755998842663,
            42.982903139086076
          ],
          [
            51.8019821214045,
            42.979693567312914
          ],
          [
            51.80326958366829,
            42.97491200905668
          ],
          [
            51.80415688607535,
            42.969929828247366
          ],
          [
            51.80533058738512,
            42.96509136074492
          ],
          [
            51.80714599246637,
            42.96057485092394
          ],
          [
            51.80856023621421,
            42.95585721166155
          ],
          [
            51.812461551942924,
            42.95238723091994
          ],
          [
            51.816492007303644,
            42.94898211197045
          ],
          [
            51.82019605984023,
            42.94541336518428
          ],
          [
            51.82450603477853,
            42.942148607366384
          ],
          [
            51.82760761403787,
            42.93837699665489
          ],
          [
            51.830051666116034,
            42.93430651335764
          ]
        ]
      },
      "properties": {
        "id": "main_shoreline"
      }
    }
  ]
}