{
  "type": "FeatureCollection",
  "crs": {
    "type": "name",
    "properties": {
      "name": "EPSG:4326"
    }
  },
  "features": [
    {
      "type": "Feature",
      "geometry": {
        "type": "LineString",
        "coordinates": [
          [
            50.27550251409643,
            44.55759875053053
          ],
          [
            50.268982546211106,
            44.54849889601908
          ],
          [
            50.51245376453651,
            44.294748037424256
          ],
          [
            50.52024668498159,
            44.293475454563634
          ],
          [
            50.52937505291469,
            44.29297311997231
          ],
          [
            50.547733369074464,
            44.29202490070741
          ],
          [
            50.55699001267426,
            44.29159441140813
          ],
          [
            50.53680454305778,
            44.29149002362493
          ],
          [
            50.56559356122063,
            44.290786731893576
          ],
          [
            50.57292411588261,
            44.28924476908309
          ],
          [
            50.58195139273018,
            44.28868040144907
          ],
          [
            50.5917225274014,
            44.28854400287825
          ],
          [
            50.86936336063756,
            44.04514939808642
          ],
          [
            50.86842416557026,
            44.03885125872988
          ],
          [
            50.868901566877256,
            44.03336993100432
          ],
          [
            50.87153504507551,
            44.02913206349117
          ],
          [
            50.87315833231295,
            44.024311776104284
          ],
          [
            50.87769759689642,
            44.02117325750395
          ],
          [
            50.882430348011646,
            44.01814640344876
          ],
          [
            50.88737315282587,
            44.01524074412891
          ],
          [
            50.89245485749386,
            44.01241522940225
          ],
          [
            50.91180620177058,
            44.01205993164881
          ],
          [
            50.9011669848074,
            44.011682570018145
          ],
          [
            50.918266928228014,
            44.01002876029632
          ],
          [
            50.994913479359994,
            43.9333913073153
          ],
          [
            50.9962426021118,
            43.92840703248053
          ],
          [
            50.996935327704364,
            43.92305635584884
          ],
          [
            50.99797862349921,
            43.917907655485045
          ],
          [
            50.99822689602248,
            43.91230111242361
          ],
          [
            50.99897672207029,
            43.9069835112841
          ],
          [
            51.000004952462874,
            43.90182636193903
          ],
          [
            51.00196205394514,
            43.89720443216983
          ],
          [
            51.0032148020606,
            43.89217684462956
          ],
          [
            51.004606580715986,
            43.887229464279045
          ],
          [
            51.00594749931239,
            43.882252890445116
          ],
          [
            51.00690752652246,
            43.87705694724389
          ],
          [
            51.0081740393614,
            43.87203770256242
          ],
          [
            51.00982290017088,
            43.86723890263684
          ],
          [
            51.01179660553212,
            43.86262743503095
          ],
          [
            51.0128794202904,
            43.857502665385034
          ],
          [
            51.01460828302916,
            43.85275034298146
          ],
          [
            51.01666678307225,
            43.848188141855005
          ],
          [
            51.0177907641772,
            43.843087432228685
          ],
          [
            51.018330727587276,
            43.83765016615081
          ],
          [
            51.06629591794677,
            43.765120997037535
          ],
          [
            51.070452388780204,
            43.76171975519996
          ],
          [
            51.07181472563033,
            43.7570647438922
          ],
          [
            51.07475153340235,
            43.75311637310259
          ],
          [
            51.07659913471734,
            43.748679311211475
          ],
          [
            51.0997201861551,
            43.71692902564138
          ],
          [
            51.10243468389222,
            43.71288185980754
          ],
          [
            51.10512242675943,
            43.70882278533138
          ],
          [
            51.108752417409484,
            43.70518660398425
          ],
          [
            51.11081030890177,
            43.70084510339131
          ],
          [
            51.11360882815244,
            43.6968360251563
          ],
          [
            51.19380634380684,
            43.65349928645802
          ],
          [
            51.20433499573909,
            43.65292636198665
          ],
          [
            51.17682702532952,
            43.63001710988323
          ],
          [
            51.186704327622095,
            43.62916272519048
          ],
          [
            51.193483971026446,
            43.626921069198396
          ],
          [
            51.20050889369176,
            43.62478917260494
          ],
          [
            51.20629805640936,
            43.622103271234934
          ],
          [
            51.20890635583184,
            43.6179918773871
          ],
          [
            51.212231544685395,
            43.614201851454
          ],
          [
            51.219448403748295,
            43.61215576499756
          ],
          [
            51.27990744876563,
            43.51994330420981
          ],
          [
            51.286387964502424,
            43.517309142957615
          ],
          [
            51.28909636282999,
            43.51326084512213
          ],
          [
            51.29252368409983,
            43.50948211706785
          ],
          [
            51.29417005134617,
            43.50503583653936
          ],
          [
            51.29510688301598,
            43.50032362412222
          ],
          [
            51.296083156493346,
            43.495626241601414
          ],
          [
            51.29617417133029,
            43.49059698885759
          ],
          [
            51.298026459760806,
            43.48622814339689
          ],
          [
            51.30096467233552,
            43.48226652979132
          ],
          [
            51.30272731886899,
            43.477864214821004
          ],
          [
            51.30489863437596,
            43.47361519760473
          ],
          [
            51.33943532470286,
            43.47137070211386
          ],
          [
            51.32279160996732,
            43.47019693978578
          ],
          [
            51.34715703374016,
            43.469200939388166
          ],
          [
            51.34217473799526,
            43.46227288880885
          ],
          [
            51.331534285329916,
            43.45322380015415
          ],
          [
            51.315509612062684,
            43.44215344227624
          ],
          [
            51.31502545873297,
            43.436909029878464
          ],
          [
            51.31622220981549,
            43.4322950823844
          ],
          [
            51.31566997234275,
            43.42702511550158
          ],
          [
            51.60718533763754,
            43.18648076161114
          ],
          [
            51.58829194973614,
            43.18401246012028
          ],
          [
            51.564265627397496,
            43.17950510394269
          ],
          [
            51.67090295888328,
            43.13146563742654
          ],
          [
            51.67089734560499,
            43.1264495594878
          ],
          [
            51.67171477283176,
            43.121759181833184
          ],
          [
            51.66754677589941,
            43.115095675252725
          ],
          [
            51.65729044192102,
            43.10602092952408
          ],
          [
            51.66148274325263,
            43.10266675449048
          ],
          [
            51.6661956715462,
            43.09951874746844
          ],
          [
            51.67039893512555,
            43.09616895669748
          ],
          [
            51.673772594784,
            43.09249075673625
          ],
          [
            51.67929918833558,
            43.08966490655836
          ],
          [
            51.684365850541,
            43.086656944183666
          ],
          [
            51.69008492448517,
            43.08390716725275
          ],
          [
            51.69576889370709,
            43.08114341806063
          ],
          [
            51.70010224377169,
            43.077845161256924
          ],
          [
            51.7082939790272,
            43.07385089625349
          ],
          [
            51.7145151073569,
            43.07154200203799
          ],
          [
            51.71925602196278,
            43.06849022556009
          ],
          [
            51.72403599199941,
            43.065458088234585
          ],
          [
            51.729336425138726,
            43.062687129197954
          ],
          [
            51.73364113644447,
            43.05941660998608
          ],
          [
            51.73879264709074,
            43.05657097974088
          ],
          [
            51.74313189838689,
            43.05331790193451
          ],
          [
            51.7471960508567,
            43.049926897345316
          ],
          [
            51.751633704463046,
            43.046723319026846
          ],
          [
            51.75529159936715,
            43.04312870253413
          ],
          [
            51.75989656128023,
            43.040009182036854
          ],
          [
            51.76361235042278,
            43.036443780265294
          ],
          [
            51.76680687070806,
            43.032617053730824
          ],
          [
            51.770004035955544,
            43.02879176301846
          ],
          [
            51.77234058174217,
            43.02453497927086
          ],
          [
            51.77496454695237,
            43.020422451815804
          ],
          [
            51.77802279508128,
            43.016527834236946
          ],
          [
            51.77982646933252,
            43.0120041491207
          ],
          [
            51.78374001240493,
            43.008538696946914
          ],
          [
            51.787023023747835,
            43.00475713222204
          ],
          [
            51.78861703739601,
            43.00012865694871
          ],
          [
            51.79001735713527,
            42.9954031327229
          ],
          [
            51.790021833651195,
            42.98997759319811
          ],
          [
            51.79373593133707,
            42.98641274409865
          ],
          [
            51.7979002663862,
            42.98307379980123
          ],
          [
            51.80171679143757,
            42.97956050201575
          ],
          [
            51.80317945847726,
            42.97486680848399
          ],
          [
            51.80403031518539,
            42.96986634512722
          ],
          [
            51.805277937527684,
            42.96506495227255
          ],
          [
            51.80736974161418,
            42.9606870833014
          ],
          [
            51.80890950528384,
            42.95603241186932
          ],
          [
            51.81265288553743,
            42.95248320387343
          ],
          [
            51.81659020260077,
            42.94903136456092
          ],
          [
            51.82011406417323,
            42.945372239275805
          ],
          [
            51.82447060520638,
            42.94213083823823
          ],
          [
            51.82754485540247,
            42.93834552156709
          ],
          [
            51.830019276072825,
            42.93429026882306
          ],
          [
            51.83209661708165,
            42.93003597444728
          ],
          [
            51.83395810309382,
            42.92567352120079
          ],
          [
            52.01923852796163,
            42.85926323941752
          ],
          [
            52.005249782179426,
            42.85562686300909
          ],
          [
            51.990240999301676,
            42.85126870194703
          ],
          [
            52.23386327650587,
            42.71218473021499
          ],
          [
            52.24133279600067,
            42.71122963504982
          ],
          [
            52.238143349905265,
            42.702788560672495
          ],
          [
            52.23513687971843,
            42.69447530334501
          ],
          [
            52.23151525231637,
            42.68572907843479
          ],
          [
            52.22847430996278,
            42.67739013731509
          ]
        ]
      },
      "properties": {
        "id": "main_shoreline"
      }
    }
  ]
}