{"type": "FeatureCollection", "crs": {"type": "name", "properties": {"name": "EPSG:4326"}}, "features": [{"type": "Feature", "geometry": {"type": "LineString", "coordinates": [[50.274681344296276, 44.55716027999887], [50.268930099104175, 44.54847088282727], [50.240107307144974, 44.527448691176374], [50.24015703777323, 44.5218556922129], [50.24001728978975, 44.51616136185386], [50.24126615604394, 44.51120971709697], [50.241892094741466, 44.505924982626524], [50.24203430071215, 44.500381544050775], [50.24195685344087, 44.494720608729175], [50.24111485708682, 44.48865060140195], [50.24108584541155, 44.48301552459783], [50.241258256566894, 44.477488233730554], [50.24163304192196, 44.47206926676471], [50.242222231221405, 44.46676508901304], [50.242692497376815, 44.4613973073269], [50.24366606114519, 44.456298986545], [50.24382200925256, 44.45076304089772], [50.24221237391854, 44.44428178974258], [50.24511112262381, 44.44021442942243], [50.246861082144434, 44.435532103577216], [50.24465676466371, 44.42873237525971], [50.24328909719055, 44.42238045970436], [50.242650125709744, 44.41641871954811], [50.24294785963682, 44.41095872735309], [50.24332701058102, 44.40554238268234], [50.244014875170976, 44.40029148316571], [50.31565671825805, 44.331929642877896], [50.321621059085224, 44.32950735961661], [50.328004150615364, 44.327309188728364], [50.33372421719881, 44.3247560220633], [50.33723900801257, 44.32102250258913], [50.34430023970899, 44.319187171666165], [50.35041594851305, 44.316845686384134], [50.359456017812136, 44.31606871428535], [50.36581916442087, 44.313859263417555], [50.37182689059481, 44.3114596077034], [50.37773961039973, 44.309009082855006], [50.38092187973257, 44.3050983396753], [50.390042223716705, 44.30436302665732], [50.39575739450428, 44.30180671552605], [50.403929753058264, 44.30056386430485], [50.410782343095214, 44.29861527308775], [50.418777954387316, 44.29727729724175], [50.42785842573088, 44.29651853349315], [50.440146397683854, 44.29747226343993], [50.44939262637809, 44.29680042665669], [50.45948675733963, 44.29658057110065], [50.468206432590435, 44.295626334312445], [50.47854683158879, 44.29553634983864], [50.48596896934125, 44.293888713080136], [50.49999170858679, 44.29332437937296], [50.512101054157355, 44.29454443744655], [50.519531456747295, 44.29306266211519], [50.526863776721946, 44.29152401498916], [50.535895735188696, 44.2909657044716], [50.54667297095991, 44.291413295311784], [50.55590118100452, 44.290966546629306], [50.56467375406276, 44.29025644176484], [50.5720883326053, 44.28876299696141], [50.581276846377534, 44.28829165642982], [50.59169221865994, 44.28852654018889], [50.49544357480925, 44.175259302589694], [50.793801734464274, 44.041864497798656], [50.81087603042309, 44.04596227342036], [50.83449924514987, 44.053835105214496], [50.83250528289574, 44.04692314461436], [50.83627277689718, 44.04333584845084], [50.87167145286151, 44.05799297305403], [50.86980933836161, 44.0511630761537], [50.86942186191265, 44.045183127329274], [50.86833447405228, 44.038799539717274], [50.8687173255774, 44.03326368277407], [50.871610103114065, 44.02917534801971], [50.87269339511644, 44.024043642193824], [50.877387640963796, 44.02099451399318], [50.881929353415266, 44.01785751116197], [50.88698814712012, 44.0150187522032], [50.89132518853198, 44.011763911970895], [50.89954206231804, 44.01074589448802], [50.909989056210115, 44.01101273075774], [50.91763421650001, 44.009664189040436], [50.923298952223625, 44.007174344419525], [50.80246135426555, 43.931647120707716], [50.80084542554115, 43.92495158837887], [50.805133918693514, 43.92167295284904], [50.881580040519445, 43.8967806219856], [50.873219477040074, 43.886192455214875], [50.99452860137182, 43.93316967455518], [50.99569504312054, 43.928091702458254], [50.996698590698266, 43.922920013716514], [50.99763864473416, 43.91771184177992], [50.99797169155195, 43.91215411238248], [50.99801930307689, 43.906431983402626], [50.99891613121106, 43.901199098746716], [51.001266726703285, 43.89680384932356], [51.002571134806985, 43.89180600379884], [51.003918167723214, 43.886832823970586], [51.00541102203057, 43.88194377545532], [51.00723172714622, 43.87724375887443], [51.00752082325038, 43.87166127841369], [51.009184327513196, 43.866870902276226], [51.01145105558374, 43.86242829474508], [51.01232755637178, 43.857184606322505], [51.01388613726171, 43.852334127571496], [51.0164040213211, 43.848036693949574], [51.01719035154318, 43.84274135041355], [51.017228286783855, 43.83701465663454], [51.018793729711355, 43.832168581228125], [51.02208964014274, 43.82837850833272], [51.021300349060404, 43.82920568527464], [51.02349459970433, 43.82492230600501], [51.02441493695206, 43.82006723333458], [51.02445795313492, 43.814818398237364], [51.02546365421519, 43.81000173518451], [51.02806056223857, 43.805899471935525], [51.03036759449885, 43.801667175496284], [51.03120777680014, 43.79677645229841], [51.03508633542875, 43.793249864481304], [51.03787202674593, 43.78923274174049], [51.04137677992326, 43.78553851419094], [51.0455656568559, 43.78215146740605], [51.05017767513077, 43.77895440751354], [51.05337683929385, 43.77512324504035], [51.057748113493325, 43.771818246357405], [51.06178722627775, 43.768364223950066], [51.0658850256668, 43.7649366023697], [51.06954190360221, 43.76131117884398], [51.071673197218516, 43.757001231809426], [51.07277975474886, 43.75223150380175], [51.07584193434302, 43.74833950326253], [51.07755308505428, 43.74384128480969], [51.07955647328112, 43.73947430811849], [51.08136212261305, 43.735018677061035], [51.08210220429806, 43.73008487669629], [51.088274007481424, 43.72758900513775], [51.090352089462414, 43.723255942979634], [51.09526441930491, 43.72019491266004], [51.09921134205817, 43.716700693365794], [51.130595766116755, 43.72551219332058], [51.104223063973414, 43.70841921754712], [51.10723875878728, 43.70450740310873], [51.10957327222302, 43.70029001967963], [51.11239084602702, 43.69628949609853], [51.11480805548864, 43.69210941488957], [51.1159184495601, 43.6873430085381], [51.11769857365817, 43.682869468278945], [51.13308877143582, 43.68448181679909], [51.122570265038824, 43.67446992115818], [51.126700603970136, 43.6710307101599], [51.15513958380224, 43.67849476422136], [51.150953123594704, 43.6713259706108], [51.15161726011738, 43.66633213539947], [51.136877045094224, 43.65442752781211], [51.14038704764031, 43.650710411018274], [51.14421411814202, 43.647135652019614], [51.14781079136576, 43.64345758864643], [51.151044193347495, 43.639616613010276], [51.19357206294486, 43.65339431283388], [51.20423051189026, 43.65287955911627], [51.16222368447289, 43.628757907920914], [51.17606969982773, 43.6296774842375], [51.19278785892602, 43.631889900610545], [51.19093865958857, 43.6257800315806], [51.215888545679356, 43.631680527989815], [51.205102901225565, 43.6215676490962], [51.222619311740864, 43.62413590533581], [51.23192603712244, 43.62302474242344], [51.23989662586387, 43.62131473300256], [51.23970251524245, 43.61594877432109], [51.24483074956835, 43.612966123088135], [51.24976330261779, 43.609895858575186], [51.2269235010007, 43.59438643477251], [51.2320515968751, 43.59140482069731], [51.237694848036206, 43.58865400791794], [51.24212700271251, 43.58536059102038], [51.24736852057882, 43.58242978188844], [51.26599541207509, 43.58549307955394], [51.265708722871025, 43.580453983193834], [51.260573495409396, 43.57346516911681], [51.26495483196185, 43.57004293782957], [51.267902558876024, 43.56608345351092], [51.27060225700624, 43.562031081793364], [51.273056165157, 43.55788666488265], [51.27528083060033, 43.553656404969296], [51.288393803179034, 43.55350609599328], [51.279589482236496, 43.545143373180075], [51.289698555281774, 43.54386784227497], [51.28297271077188, 43.536283780578614], [51.284840535211856, 43.53192012570642], [51.28574219479459, 43.527194401323094], [51.2851432966752, 43.52190622638061], [51.28586220045828, 43.51711204235107], [51.289816782834336, 43.51353090995618], [51.292357610336275, 43.509419862115884], [51.294145856682434, 43.50502676663351], [51.30397627319204, 43.50364815375061], [51.29525736155427, 43.495316638049104], [51.30049535521852, 43.492217052344635], [51.29769223018188, 43.48610282391706], [51.311628352213205, 43.4862640121685], [51.319783984416375, 43.48425763812083], [51.338829955917035, 43.486330071815985], [51.3386348109506, 43.48119494529069], [51.33768103011323, 43.47577563785791], [51.334606680631204, 43.46956181393797], [51.313222593339496, 43.45648435301382], [51.314433046016354, 43.45187538356941], [51.331414487005645, 43.453178901365085], [51.314335046867086, 43.44171293263334], [51.330276304477934, 43.44262762081005], [51.332581792994105, 43.4384295529777], [51.33703394224898, 43.43503623982955], [51.33761371457295, 43.430191426544845], [51.33743646001771, 43.425062836276865], [51.33976606000835, 43.42087408734497], [51.34056298023138, 43.416110792473816], [51.3406590177903, 43.41108474146029], [51.33894071223194, 43.4053783244757], [51.335377885683236, 43.398979923046504], [51.338797010898645, 43.395200174630716], [51.337249520518796, 43.38955755142893], [51.315702131693406, 43.37640861446494], [51.3151625470128, 43.371143124655504], [51.3147119455549, 43.36591100632548], [51.314280077850285, 43.360685886764585], [51.32709231948648, 43.36043400831029], [51.32728706690022, 43.355444581516956], [51.31314948278164, 43.34507230420953], [51.31207842285232, 43.33960689649942], [51.31123239711317, 43.33422595891108], [51.30996101433819, 43.328685100573736], [51.308731534842885, 43.32315988376777], [51.30741456464926, 43.31760167459964], [51.305390698310454, 43.311777587262775], [51.303714722708456, 43.30608412539279], [51.30169159750655, 43.30025995864212], [51.299968065633195, 43.2945482906178], [51.29832266625098, 43.288865860111464], [51.29697343218116, 43.283294712395055], [51.29484215207738, 43.27742917009901], [51.29289204625962, 43.27163161210964], [51.43994575764226, 43.28073800659221], [51.48325923237796, 43.262794049499526], [51.471406756976094, 43.238007436113605], [51.51421272261784, 43.24997921071879], [51.53532302477303, 43.2533314818258], [51.49079040077234, 43.23064544375211], [51.51512708873389, 43.23528535789067], [51.547135538500385, 43.24295959490715], [51.54714753343628, 43.23794655651761], [51.414357911189924, 43.16007912430529], [51.430256907946, 43.161389562313744], [51.44574698513964, 43.162534769700095], [51.57514616653198, 43.208903683563335], [51.47639589147611, 43.16468649462555], [51.585960484063904, 43.20315484299089], [51.59283024694139, 43.20085968928798], [51.57596848120588, 43.18916194328276], [51.597327269226284, 43.19260841430501], [51.60067269811956, 43.188917369336664], [51.60647648252061, 43.18620003121235], [51.558028772395176, 43.136891264899546], [51.669500020801436, 43.13091051591685], [51.66997366451893, 43.126084044949025], [51.67104423161414, 43.12149382499531], [51.665179679212876, 43.11415868717394], [51.65714340628285, 43.10596270351843], [51.661582205880336, 43.102706138959164], [51.666130806086095, 43.099493064546834], [51.67018272322299, 43.096083354666675], [51.673502340481114, 43.09238376196334], [51.67896731990574, 43.08953353282741], [51.684055607471635, 43.08653414267], [51.68984602849939, 43.08381261776561], [51.6948511564322, 43.08078023661292], [51.699973611980894, 43.077794261234], [51.707771010009424, 43.07358840749095], [51.71428807871861, 43.07142806604505], [51.71847663725265, 43.06809910933293], [51.723679241298335, 43.06527907519247], [51.72877191019675, 43.06240388688325], [51.73362796124126, 43.05940999982613], [51.73843286557262, 43.05639048706797], [51.742741720064785, 43.05312217094075], [51.746569754152816, 43.04961273226743], [51.751590127709875, 43.04670146142993], [51.75549528976278, 43.04323086746454], [51.759661460096055, 43.03989126923984], [51.76331037577947, 43.03629233286802], [51.766201931934184, 43.0323136664243], [51.76971626927159, 43.02864744633859], [51.77121896427884, 43.02397246699684], [51.77493009928503, 43.02040517594819], [51.777385541306515, 43.01620824559764], [51.779130496215494, 43.01165510145086], [51.7832659108533, 43.00830093419522], [51.786465873280754, 43.00447772562523], [51.788261495870074, 42.99995034969158], [51.7898238983343, 42.99530610745388], [51.78978382959618, 42.98985821624102], [51.793081694234395, 42.9860846041341], [51.79730680663723, 42.98277615871776], [51.801835278343056, 42.979619924382476], [51.80311768735483, 42.97483582827437], [51.803520996544705, 42.969610887608475], [51.80340585924773, 42.964125911880096], [51.806316811510214, 42.960158927045995], [51.80848937026697, 42.95582166366064], [51.812443329726705, 42.95237809062164], [51.81647783479941, 42.94897500334205], [51.82015759272365, 42.945394071555654], [51.824458457929175, 42.942124745963135], [51.82735151871607, 42.93824855776948], [51.829902874494984, 42.9342318899497], [51.83183143824198, 42.92990297656711], [51.83336097984502, 42.925374030478736], [51.83405236688114, 42.920424765128], [51.83715812872806, 42.91668660946202], [51.84163670684195, 42.91363711457552], [51.84494708966354, 42.910001781169655], [51.84799602201439, 42.90623542147481], [51.85111339017338, 42.902503488692446], [51.854937635364934, 42.89912616613323], [51.85923093389001, 42.89598414754983], [51.86171578055018, 42.89193531609134], [51.8661023287418, 42.88884022858071], [51.86921773789442, 42.88510780880531], [51.872815336024, 42.88161727521655], [51.875623458463444, 42.87773097904527], [51.878568806644374, 42.87391359694767], [51.8812791163184, 42.86997846967176], [51.883350832482925, 42.86572324834887], [51.88476382783954, 42.86113782263104], [51.886564982781806, 42.8567471262553], [51.88916785988225, 42.85275856036678], [51.89286158237385, 42.84931710348381], [51.912394374775296, 42.85381562445277], [51.92667409951529, 42.85567808638642], [51.91955033766153, 42.84681656761203], [51.92375076467793, 42.84362908157251], [51.91235949834528, 42.832627160702806], [51.918860788524206, 42.830593606005664], [51.932956326396386, 42.8323656234762], [51.98929802596274, 42.85060407401595], [52.003878746758254, 42.85466093551855], [52.01805728793863, 42.85843135754314], [51.981026180359244, 42.70794866504402], [51.990911718925524, 42.70871436432653], [51.99574222124328, 42.70590832992092], [52.097078665140586, 42.74631192107326], [52.095966371864776, 42.73931741597893], [52.09784016641364, 42.734426177672354], [52.09690905058625, 42.72755919241361], [52.09661916882914, 42.72114382973057], [52.099451226227266, 42.71692814531504], [52.11028780944523, 42.71835160517651], [52.11001956921121, 42.71195245314514], [52.107828593793265, 42.70419857457817], [52.09737002845052, 42.69061716960405], [52.10149442513916, 42.68731341239988], [52.10936740013284, 42.68665183551294], [52.108395246210485, 42.67975628139486], [52.10962574022282, 42.674413249083265], [52.10861495612882, 42.66749031225448], [52.10876537908116, 42.661385930796726], [52.109617957463726, 42.65577666347328], [52.10977004219994, 42.649673513867285], [52.11116922009109, 42.64444987116888], [52.115045568200664, 42.64097334902279], [52.116970628790945, 42.63612095013753], [52.12360661109265, 42.63459083090938], [52.11689594094176, 42.62364840354172], [52.116380774030546, 42.617075015901044], [52.142970958671775, 42.62961643139444], [52.13460198340707, 42.611299110348575], [52.141071759265515, 42.60965297114838], [52.190917927362875, 42.638565621602744], [52.20731627069095, 42.643902658846876], [52.21177429436383, 42.64083605734291], [52.213318345464565, 42.63571935857643], [52.19713903064841, 42.618127688402375], [52.205120393771104, 42.61754289992566], [52.211576507899906, 42.615884097543045], [52.211758329029266, 42.60980885083337], [52.189348810833366, 42.587822408525504], [52.216232741902985, 42.600552535598666], [52.21266007883166, 42.59183404695991]]}, "properties": {"year": 2022, "sensor": "COPERNICUS/S2_SR_HARMONIZED", "scale_m": 30, "n_scenes": 60, "date_window": ["2022-07-01", "2022-08-01"], "otsu_threshold": 0.0195, "data_quality": "good", "length_km": 512.4}}]}