{
  "type": "FeatureCollection",
  "crs": {
    "type": "name",
    "properties": {
      "name": "EPSG:4326"
    }
  },
  "features": [
    {
      "type": "Feature",
      "geometry": {
        "type": "LineString",
        "coordinates": [
          [
            51.65725584527535,
            43.10600722930467
          ],
          [
            51.66136490182517,
            43.102620092343564
          ],
          [
            51.666296213115885,
            43.09955855592332
          ],
          [
            51.67015029148926,
            43.096070514326364
          ],
          [
            51.6734104542312,
            43.09234738359326
          ],
          [
            51.67917162961918,
            43.08961441123317
          ],
          [
            51.684228565128386,
            43.08660260354929
          ],
          [
            51.690024389686656,
            43.08388320905948
          ],
          [
            51.695326778645445,
            43.08096845878902
          ],
          [
            51.70008386778862,
            43.07783788983404
          ],
          [
            51.70792404893222,
            43.073665221314855
          ],
          [
            51.71449686395323,
            43.071532846484075
          ],
          [
            51.719207373473495,
            43.06846581274183
          ],
          [
            51.72386775135428,
            43.06537366745246
          ],
          [
            51.729067849161574,
            43.06255237333378
          ],
          [
            51.73369282380736,
            43.05944254213706
          ],
          [
            51.738600087706885,
            43.05647437817197
          ],
          [
            51.74293022149098,
            43.05321673205763
          ],
          [
            51.747157540519645,
            43.04990757985232
          ],
          [
            51.75197927934121,
            43.04689665425471
          ],
          [
            51.75558953480054,
            43.04327813768043
          ],
          [
            51.759840826004606,
            43.03998122861657
          ],
          [
            51.7635687768091,
            43.0364219271675
          ],
          [
            51.76672783314423,
            43.032577415373396
          ],
          [
            51.76992601457404,
            43.02875263497744
          ],
          [
            51.772486484700124,
            43.024608150775464
          ],
          [
            51.775064850563886,
            43.020472755017146
          ],
          [
            51.777824222451834,
            43.016428248975835
          ],
          [
            51.77975251548443,
            43.01196705983523
          ],
          [
            51.7836235127545,
            43.00848027252473
          ],
          [
            51.78695312641335,
            43.00472207954617
          ],
          [
            51.78853195034872,
            43.00008598522902
          ],
          [
            51.78997582927873,
            42.995382305337245
          ],
          [
            51.79019400736924,
            42.990063950682206
          ],
          [
            51.79346957700526,
            42.98627915197279
          ],
          [
            51.79746580467975,
            42.982855902455796
          ],
          [
            51.80178363017683,
            42.979594022340564
          ],
          [
            51.803136927533885,
            42.97484547785151
          ],
          [
            51.8040201895254,
            42.96986126647144
          ],
          [
            51.80515340054342,
            42.96500248597996
          ],
          [
            51.80718345267449,
            42.96059364099108
          ],
          [
            51.80912615433602,
            42.956141086234396
          ],
          [
            51.812728811731084,
            42.95252128828837
          ],
          [
            51.81639077520178,
            42.948931336014
          ],
          [
            51.82030639985996,
            42.94546870736157
          ],
          [
            51.82444732292716,
            42.94211916137648
          ],
          [
            51.82751246387362,
            42.93832927634674
          ],
          [
            51.82992008167096,
            42.934240519877726
          ]
        ]
      },
      "properties": {
        "id": "main_shoreline"
      }
    }
  ]
}