{"type": "FeatureCollection", "crs": {"type": "name", "properties": {"name": "EPSG:4326"}}, "features": [{"type": "Feature", "geometry": {"type": "LineString", "coordinates": [[50.27549847883376, 44.557596595898495], [50.269140896436234, 44.54858347416481], [50.25813679347418, 44.53708617783767], [50.263905682128225, 44.534550230784866], [50.240643121169356, 44.51649605937681], [50.24201992171431, 44.51161285453327], [50.24287251449845, 44.50644937823901], [50.24288465685252, 44.500836414789156], [50.30925710514033, 44.53068291228059], [50.24162657500581, 44.48892439085362], [50.24145348102427, 44.483212243668035], [50.241386161548625, 44.4775566811117], [50.24189587885195, 44.47220993317174], [50.24271966706721, 44.46703132805863], [50.243359044976096, 44.46175408590362], [50.24420972797922, 44.4565900100078], [50.24460522159112, 44.45118232827512], [50.24403127066552, 44.44525565286173], [50.245831798983616, 44.44060029508679], [50.24753843464642, 44.43589478549152], [50.246195456793195, 44.429556381871414], [50.24391596573631, 44.42271621585808], [50.244631165279614, 44.41747988052374], [50.24404341131373, 44.41154562766753], [50.2468941105051, 44.40745339602506], [50.246348461203056, 44.40154177778316], [50.36881263313271, 44.28178149701806], [50.418657270318015, 44.29721280916996], [50.426957261003096, 44.29603709073443], [50.44070769373958, 44.29777202688679], [50.450662182069955, 44.29747828015155], [50.460219177257535, 44.2969715364383], [50.46927595769855, 44.29619712536527], [50.478880898364245, 44.29571459234502], [50.487487440228435, 44.29469875149958], [50.50046550570369, 44.2935979637075], [50.51324615049421, 44.29520542842985], [50.520240822414294, 44.29347207103714], [50.52949719985228, 44.29304360032854], [50.53668336773965, 44.291420114821044], [50.547649318281465, 44.291976423587286], [50.55679452951455, 44.29148168958914], [50.56598260260421, 44.29101101816219], [50.57370517016513, 44.2896949810238], [50.567122226670506, 44.280132164663755], [50.584567230315564, 44.28442089549289], [50.47901067876057, 44.21770382542829], [50.48497160563023, 44.21537915580085], [50.53618259691187, 44.239204215423534], [50.58053618749036, 44.25902891853235], [50.58555051633446, 44.25615307065335], [50.59393158365292, 44.255218162856735], [50.589841423157715, 44.24709353833913], [50.59517962541405, 44.24440484470366], [50.594307821577665, 44.23813578153789], [50.57218483491605, 44.21960676332804], [50.54270556893492, 44.196815822790114], [50.55772146441347, 44.199720667612056], [50.572571936169204, 44.20252718835582], [50.63499119708409, 44.23275714119153], [50.56435505952296, 44.18624685471121], [50.603967147184, 44.203343295276376], [50.609544850993146, 44.20079469549062], [50.63243822165806, 44.20822912914746], [50.64965970427256, 44.21238856744549], [50.672538218310955, 44.219800910363574], [50.67139176441084, 44.21337878704168], [50.67382873996644, 44.209019814532645], [50.63036670953182, 44.17821295894909], [50.63538443905155, 44.175342169789104], [50.64616094045989, 44.17579157330772], [50.64737001380693, 44.1707250612247], [50.636527263059016, 44.15294470063767], [50.6849909625837, 44.16935417768453], [50.685086605322255, 44.117556509099956], [50.69302104557251, 44.11636898462219], [50.70866530805212, 44.11962352520598], [50.71576305379867, 44.11795250652704], [50.71893264336769, 44.114018673216414], [50.66992729648949, 44.08000359904299], [50.734956089830476, 44.11172886200604], [50.73808795755536, 44.10777369126444], [50.74154151765994, 44.10400390604163], [50.7545551320541, 44.10573798985713], [50.74934137845634, 44.09697878756479], [50.75438844568862, 44.09412686581928], [50.76137742008125, 44.09239286865064], [50.7394620238421, 44.07401433131974], [50.73392553311937, 44.06506553488974], [50.751967340881116, 44.06970197608147], [50.7854595528902, 44.083226191314246], [50.77611887081148, 44.07209447088712], [50.8074263617282, 44.08431029861309], [50.81880371126872, 44.08511225420733], [50.82343164538475, 44.08201991774485], [50.81766860425545, 44.07293287798187], [50.821159808558754, 44.06918519896408], [50.834585081008676, 44.071168632836276], [50.833534327096714, 44.06480115718693], [50.8470107099871, 44.06681294189901], [50.84808825142201, 44.061673731904484], [50.84298145211396, 44.052967508069045], [50.838208522308925, 44.04445283056069], [50.87178848335789, 44.05806042902751], [50.870047269031524, 44.051300240510955], [50.869436487241806, 44.04519155963529], [50.868421240844384, 44.03884957224146], [50.86906533747447, 44.03346437362526], [50.85649932244805, 44.020458981879315], [50.861550777594346, 44.01761629196449], [50.873899303146224, 44.01898274814755], [50.875128394635446, 44.01393532721924], [50.88191511248505, 44.012093395139324], [50.8849219242858, 44.008071589934254], [50.901037340043175, 44.01160783910938], [50.888632642068785, 43.998700326194616], [50.89305122988053, 43.9954931792497], [50.89287612206267, 43.98963687981076], [50.891978168255214, 43.98336359718975], [50.91639503956013, 43.99168815058788], [50.914775416978955, 43.985000467376395], [50.899392492945786, 43.97037499909585], [50.901330421226234, 43.96573800051779], [50.906370226075985, 43.962890486018], [50.94399517111518, 43.978827020518416], [50.952175413426104, 43.977787240456706], [50.919674117121026, 43.9533012269629], [50.92983059610011, 43.95340446469378], [50.93143735604151, 43.948577664151], [50.93358148692502, 43.94406084985067], [50.95554839410861, 43.950970777361675], [50.95327376452237, 43.94390799304281], [50.96239210705963, 43.9434109508099], [50.97402311367999, 43.94436072655794], [50.97824503100365, 43.94104192672809], [50.95332461735789, 43.9209292587054], [50.96747747925076, 43.923336074499645], [50.9859967367083, 43.92825582537431], [50.99518743577151, 43.92779937458039], [50.9969109719954, 43.92304232890328], [50.997849061128065, 43.917833033190284], [50.998651590216376, 43.91254573717449], [50.998851078081614, 43.90691113422995], [50.999972813404355, 43.90180784716432], [51.001843243868066, 43.89713598554261], [51.003169034231114, 43.89215047634006], [51.004504340584944, 43.88717055756651], [51.0059182898802, 43.88223606029315], [51.00746928084117, 43.87738064128312], [51.00809810621674, 43.87199394555196], [51.00977033444193, 43.867208610059926], [51.011807312750356, 43.86263360555822], [51.0127645698204, 43.85743647342031], [51.01454112888866, 43.85271163850773], [51.01670084487809, 43.848207773946356], [51.01749785536378, 43.84291859854716], [51.017447216237585, 43.83714086193613], [51.01993501687959, 43.8328265118356], [51.02241848913168, 43.828568082886896], [51.02144516585921, 43.829270682190284], [51.023573874567596, 43.82495788678656], [51.024878926076404, 43.8202754951738], [51.02511107535687, 43.81511157726921], [51.025726785461295, 43.810119858956725], [51.02847901600281, 43.8060873217753], [51.030686701066955, 43.80181042852657], [51.0323604960814, 43.79729395350207], [51.0300891322006, 43.791006285566965], [51.03803789461173, 43.789307203733124], [51.03997172349217, 43.784907754471604], [51.046870345729076, 43.78273710986473], [51.05069531216812, 43.77918674871713], [51.05422826749223, 43.7755053978043], [51.0550502957275, 43.77060736606419], [51.06222136827755, 43.76855906250429], [51.06387813305164, 43.764035938697816], [51.06958732194284, 43.76133156043588], [51.072073491037614, 43.7571808662746], [51.06168440407658, 43.736717658928434], [50.998285664117645, 43.68187185560861], [50.99751492482938, 43.676255516399216], [50.998732344042146, 43.67153437854393], [51.59570124765918, 43.196980578615126], [51.60726866912156, 43.18651376321336], [51.671023026459956, 43.13151314508855], [51.67084434721421, 43.12642858754641], [51.671646636928934, 43.12173221833619], [51.66760733299228, 43.11511964505992], [51.65735422952669, 43.106046189275816], [51.66158653034528, 43.102707851325384], [51.666257293783225, 43.09954314620946], [51.67045731244189, 43.09619206917484], [51.6738785347259, 43.09253269851081], [51.67930999840586, 43.089669185816575], [51.68443395284307, 43.08668390049943], [51.690147621290194, 43.083931981061575], [51.69574727433052, 43.08113486263529], [51.700325998735536, 43.07793370128378], [51.70810749344089, 43.073757295888676], [51.714494836908706, 43.07153182920012], [51.71929960293376, 43.068512095358585], [51.724100855985455, 43.065490635938716], [51.729282709849535, 43.062660178076484], [51.733777956029066, 43.059485253863315], [51.738763256409, 43.05655623531223], [51.74304879526435, 43.05327621388843], [51.74723253435613, 43.04994519811599], [51.75195090361834, 43.046882421490146], [51.755644257791836, 43.04330558486627], [51.760022219177465, 43.040072204192015], [51.7636974710593, 43.03648646998893], [51.76683118997886, 43.032629250137305], [51.7701043493054, 43.02884207042009], [51.772318291042886, 43.02452380027431], [51.77501621848944, 43.020448365597375], [51.7779974669042, 43.01651513205483], [51.77957421616038, 43.01187763889181], [51.78383017315491, 43.0085839122863], [51.7870605049598, 43.00477592856653], [51.78864539977116, 43.00014288084093], [51.790059897895325, 42.995424468077644], [51.790106907663635, 42.99002026398799], [51.79353641866877, 42.98631267705239], [51.797790891123334, 42.9830189446839], [51.80187983757999, 42.97964227122307], [51.80317439526817, 42.97486426912383], [51.80424700470699, 42.96997502814188], [51.8052668000636, 42.96505936586178], [51.80735455499481, 42.96067946573335], [51.80896518604253, 42.956060342236725], [51.812817898583845, 42.952565973936345], [51.81672585409243, 42.9490994040806], [51.82025983432304, 42.94544535196054], [51.824615360443325, 42.94220343774847], [51.82764101785365, 42.93839374950986], [51.830060775818744, 42.93431108213131], [51.832192769995025, 42.93008419871458], [51.83408056467524, 42.9257349417865], [51.83505222339636, 42.92092627840964], [51.83762565405143, 42.916921111473904], [51.84195243342371, 42.913795467550024], [51.84494708966354, 42.910001781169655], [51.84808101922204, 42.90627805043759], [51.851388609749435, 42.90264151777773], [51.85554472408502, 42.89943062117875], [51.85944644604185, 42.89609222147339], [51.86219433809822, 42.89217530064436], [51.866408883686795, 42.88899394936703], [51.86966490806597, 42.88533203620115], [51.87306926446473, 42.881744600345456], [51.87563053982906, 42.877734529784284], [51.8787842745005, 42.87402163526323], [51.881428824628735, 42.870053535154675], [51.88364416469948, 42.865870330868155], [51.88530494197604, 42.86140915776308], [51.88778369088688, 42.857358242487045], [51.890366287275434, 42.85335950733582], [51.91569170374175, 42.860760566748674], [51.930891856243115, 42.86308274034603], [51.94315943400553, 42.86393414468507], [51.953719006517055, 42.86392917827332], [51.96991929340743, 42.86674560494941], [51.99613522969885, 42.87456674238089], [51.9198841264037, 42.831106558238815], [51.93330018202067, 42.83253791740292], [51.98994582084424, 42.851060656205924], [52.00447276846612, 42.85507944390943], [52.01915364738194, 42.85920346389586], [51.946052595747574, 42.75166033198405], [51.953685949674686, 42.75083298634734], [51.96178127554904, 42.750331658898396], [51.95048758366135, 42.73612976287637], [51.95711815898404, 42.73459483616945], [51.97467004859758, 42.74077578978968], [51.98130578690478, 42.739243203080804], [51.99002567239704, 42.73918221467994], [51.98146496874832, 42.72691691604239], [51.98638372746557, 42.724172319643365], [51.99582119748691, 42.724619237273416], [51.9967217545181, 42.719036918285006], [52.004955430715256, 42.71863348699097], [52.01487291458537, 42.71941827145155], [52.01027778543288, 42.70995672191056], [52.05567514635535, 42.73577379940153], [52.040280953295806, 42.71870156583217], [52.05133810845192, 42.7202868700127], [52.04870498667961, 42.71221496818892], [52.06843324926742, 42.71991465573495], [52.04865502036946, 42.69975048504936], [52.078674509243626, 42.71470908050903], [52.075531536368715, 42.70628065948723], [52.07254385063031, 42.69796103080267], [52.072746344686486, 42.69189091452236], [52.124652371614346, 42.722257847618295], [52.130836215023926, 42.72040261001368], [52.13149761072836, 42.714659557733576], [52.13465907277986, 42.710676833118974], [52.111197013560876, 42.68794122923851], [52.10964748212389, 42.68063890769081], [52.120576803730984, 42.682131136089005], [52.119664386436945, 42.6752785980047], [52.11618622849966, 42.66661743143247], [52.11931454324311, 42.6626127239512], [52.12553943919786, 42.66079078199084], [52.12339523038703, 42.65307009441134], [52.137569851837895, 42.65685116702581], [52.13378945098348, 42.647978493311335], [52.142622356126665, 42.64799495496043], [52.14694007875036, 42.644829492328626], [52.15021709852273, 42.64093089769738], [52.167933038921696, 42.647203647209146], [52.164752536046386, 42.63875716895047], [52.1722965202804, 42.6378644647699], [52.18150038721639, 42.638140226826316], [52.17588398469943, 42.6279794452387], [52.17618839678919, 42.621988127108324], [52.19342485779772, 42.62792138073731], [52.190451975871646, 42.619623502611766], [52.19344966256854, 42.615529830950194], [52.23523067468854, 42.638728474385104], [52.19761221779568, 42.606052385715344], [52.213815420994344, 42.61125689879885], [52.20526448588256, 42.599033231445645], [52.21197456174716, 42.597554594732735], [52.217306995113034, 42.595105911811046]]}, "properties": {"year": 2014, "sensor": "LANDSAT/LC08/C02/T1_L2", "scale_m": 30, "n_scenes": 9, "date_window": ["2014-07-01", "2014-08-01"], "otsu_threshold": -0.004, "data_quality": "good", "length_km": 507.6}}]}