{
  "type": "FeatureCollection",
  "crs": {
    "type": "name",
    "properties": {
      "name": "EPSG:4326"
    }
  },
  "features": [
    {
      "type": "Feature",
      "geometry": {
        "type": "LineString",
        "coordinates": [
          [
            50.274915386517215,
            44.55728525008377
          ],
          [
            50.26852767009709,
            44.548255934656716
          ],
          [
            50.512237839056205,
            44.29462339601549
          ],
          [
            50.51984314650654,
            44.29324255445501
          ],
          [
            50.547137197837046,
            44.29168105003418
          ],
          [
            50.52703672835426,
            44.29162381892591
          ],
          [
            50.55641040728697,
            44.29126019024276
          ],
          [
            50.53589768959685,
            44.2909668320474
          ],
          [
            50.564871203299006,
            44.29037027725062
          ],
          [
            50.57217630914814,
            44.288813710103675
          ],
          [
            50.591711772684626,
            44.288537806441
          ],
          [
            50.58138927015096,
            44.28835644754243
          ],
          [
            50.60357788004758,
            44.27807554029397
          ],
          [
            50.61838042933693,
            44.269305807635924
          ],
          [
            50.62116873945692,
            44.265146792095784
          ],
          [
            50.62750335245366,
            44.263030353647224
          ],
          [
            50.63110016583663,
            44.259337256206386
          ],
          [
            50.63569072783337,
            44.25621655479023
          ],
          [
            50.637490859051816,
            44.25148911519142
          ],
          [
            50.643971034168665,
            44.24945675303356
          ],
          [
            50.647987305473904,
            44.246005704671056
          ],
          [
            50.65183204084058,
            44.242456021296505
          ],
          [
            50.65587181297079,
            44.23901875852358
          ],
          [
            50.660288423846296,
            44.23579856377274
          ],
          [
            50.66408679033137,
            44.232222571560854
          ],
          [
            50.66797559865899,
            44.22869877726163
          ],
          [
            50.671598083626144,
            44.225021810803774
          ],
          [
            50.674012072360796,
            44.220649341476985
          ],
          [
            50.67806274245551,
            44.21721914897893
          ],
          [
            50.682295703951446,
            44.213894005177316
          ],
          [
            50.68457846372298,
            44.20944648195516
          ],
          [
            50.69167887715389,
            44.207771956758705
          ],
          [
            50.693029357245656,
            44.20278822511466
          ],
          [
            50.69978961183312,
            44.200918019249585
          ],
          [
            50.703132822626614,
            44.197081428800814
          ],
          [
            50.70881416259514,
            44.1945903885024
          ],
          [
            50.71311022726886,
            44.1913023182678
          ],
          [
            50.718570935848255,
            44.18292488545869
          ],
          [
            50.73311272765202,
            44.17401352809905
          ],
          [
            50.739228535914876,
            44.16601449572281
          ],
          [
            50.7448809481238,
            44.163507585709105
          ],
          [
            50.750280786286865,
            44.160855406716564
          ],
          [
            50.75445386770498,
            44.15749775312544
          ],
          [
            50.75806074759755,
            44.153814604994494
          ],
          [
            50.76795544205112,
            44.14223354398007
          ],
          [
            50.756699547109875,
            44.14151693079575
          ],
          [
            50.76409621805657,
            44.13425710163349
          ],
          [
            50.774027781231055,
            44.1284557150076
          ],
          [
            50.78866289262936,
            44.12535897873477
          ],
          [
            50.774417185701346,
            44.12292320704515
          ],
          [
            50.79869118550179,
            44.11961328041461
          ],
          [
            50.78791587126625,
            44.119173785654276
          ],
          [
            50.80054053177317,
            44.114921311188326
          ],
          [
            50.80969262324721,
            44.10867260995683
          ],
          [
            50.79579089904965,
            44.10643545191946
          ],
          [
            50.810281725479264,
            44.10325673857119
          ],
          [
            50.819627311275745,
            44.09712007678813
          ],
          [
            50.80707460304259,
            44.09565842483
          ],
          [
            50.812384854486176,
            44.087171413872
          ],
          [
            50.83838341338114,
            44.084881587633255
          ],
          [
            50.81603520500637,
            44.083515049950734
          ],
          [
            50.818632963949014,
            44.0792515430342
          ],
          [
            50.82874933604208,
            44.06780222805287
          ],
          [
            50.81826036786337,
            44.067512099183574
          ],
          [
            50.82778895642736,
            44.06148644677775
          ],
          [
            50.8712764768988,
            44.057765308254986
          ],
          [
            50.83034077848001,
            44.05143561474295
          ],
          [
            50.86982884083421,
            44.05117431915254
          ],
          [
            50.81657315128565,
            44.049251396780896
          ],
          [
            50.834656491244935,
            44.048164491518264
          ],
          [
            50.84028470477068,
            44.04565076573915
          ],
          [
            50.86803149957566,
            44.044381487521484
          ],
          [
            50.86834032349435,
            44.03880291269849
          ],
          [
            50.86875729321085,
            44.03328673135729
          ],
          [
            50.87107982528695,
            44.02886954457559
          ],
          [
            50.87277721996154,
            44.02409198513566
          ],
          [
            50.87736132403646,
            44.02097933761848
          ],
          [
            50.881904986097936,
            44.01784345992444
          ],
          [
            50.88709731300304,
            44.015081696881566
          ],
          [
            50.89147334042924,
            44.01184933128956
          ],
          [
            50.9003511055126,
            44.01121226852954
          ],
          [
            50.91010018881253,
            44.01107677713943
          ],
          [
            50.91786429259495,
            44.0097967608136
          ],
          [
            50.92343348988466,
            44.00725185862396
          ],
          [
            50.994584140550565,
            43.933201657084666
          ],
          [
            50.99584021389092,
            43.92817530444741
          ],
          [
            50.99671710096018,
            43.922930674230244
          ],
          [
            50.997739956224606,
            43.91777019324841
          ],
          [
            50.99808176050158,
            43.912217513233934
          ],
          [
            50.998305650342814,
            43.906596937654015
          ],
          [
            50.9993962615568,
            43.90147570178153
          ],
          [
            51.00157153987875,
            43.89697945549335
          ],
          [
            51.002993753555536,
            43.892049491230786
          ],
          [
            51.0043125191685,
            43.887060037105044
          ],
          [
            51.00558725079805,
            43.8820453180456
          ],
          [
            51.007415733806795,
            43.877349786685215
          ],
          [
            51.007896591871564,
            43.87187782093167
          ],
          [
            51.009359544838325,
            43.86697187834257
          ],
          [
            51.01163405076283,
            43.86253375508385
          ],
          [
            51.01246771173186,
            43.85726538348149
          ],
          [
            51.01419173410993,
            43.85251026241629
          ],
          [
            51.016479930134864,
            43.84808044562919
          ],
          [
            51.01734799567946,
            43.842832218231685
          ],
          [
            51.01788410488346,
            43.837392710364526
          ],
          [
            51.06609628102259,
            43.76503140701161
          ],
          [
            51.069569365851,
            43.76132350259941
          ],
          [
            51.07181895036364,
            43.757066639772546
          ],
          [
            51.09595275195771,
            43.72050380008237
          ],
          [
            51.09930107569521,
            43.71674095959643
          ],
          [
            51.10085017588912,
            43.712170838022445
          ],
          [
            51.10449857171454,
            43.70854284646254
          ],
          [
            51.10758497615678,
            43.70466275906216
          ],
          [
            51.10972315087931,
            43.70035727456638
          ],
          [
            51.11298189178436,
            43.696554711136514
          ],
          [
            51.11504446098104,
            43.69221549636554
          ],
          [
            51.176437813805684,
            43.62984256752917
          ],
          [
            51.18488475490661,
            43.62834692097501
          ],
          [
            51.191231898192974,
            43.62591149261562
          ],
          [
            51.19812492927575,
            43.623720632107656
          ],
          [
            51.20553117152059,
            43.62175958574925
          ],
          [
            51.21021750566482,
            43.61857945783253
          ],
          [
            51.219307061146644,
            43.61209243371013
          ],
          [
            51.21904625860476,
            43.60669570680479
          ],
          [
            51.21778047693878,
            43.600848554854494
          ],
          [
            51.220835259178926,
            43.59693774740172
          ],
          [
            51.22724302855295,
            43.5945296181688
          ],
          [
            51.23222137668337,
            43.59148089418438
          ],
          [
            51.238086078851936,
            43.58882928808674
          ],
          [
            51.24343776430582,
            43.58594779473026
          ],
          [
            51.24806870811165,
            43.58274343106312
          ],
          [
            51.25246822884745,
            43.57943544143123
          ],
          [
            51.257771340097996,
            43.57747933873856
          ],
          [
            51.27596082174748,
            43.57416700054149
          ],
          [
            51.26072980588819,
            43.57352375593029
          ],
          [
            51.267908062336026,
            43.56608551608147
          ],
          [
            51.2705923512798,
            43.56202736939566
          ],
          [
            51.273044058806725,
            43.55788212776241
          ],
          [
            51.27528083060033,
            43.553656404969296
          ],
          [
            51.28727229818872,
            43.553085938390765
          ],
          [
            51.29056771047108,
            43.54925698448119
          ],
          [
            51.28970405745423,
            43.54386990380798
          ],
          [
            51.283075034157456,
            43.53632213116724
          ],
          [
            51.28484163539578,
            43.531920538061364
          ],
          [
            51.285801600429345,
            43.52721666803636
          ],
          [
            51.285157596723444,
            43.52191158697198
          ],
          [
            51.28642866186156,
            43.51732439959765
          ],
          [
            51.28989817419949,
            43.513561420810404
          ],
          [
            51.29240820230766,
            43.50943882722631
          ],
          [
            51.294305321644664,
            43.505086545463406
          ],
          [
            51.30403676213596,
            43.50367082330389
          ],
          [
            51.29538161511519,
            43.495363223255026
          ],
          [
            51.295361638563655,
            43.490292332598514
          ],
          [
            51.33883985338477,
            43.48633377837784
          ],
          [
            51.31168003033104,
            43.486283380971564
          ],
          [
            51.29773840655482,
            43.486120137851124
          ],
          [
            51.343699836551004,
            43.483091780277114
          ],
          [
            51.31417646002901,
            43.48215617669651
          ],
          [
            51.33873217705024,
            43.47616936419425
          ],
          [
            51.31175697269845,
            43.46099769854243
          ],
          [
            51.313465473567476,
            43.45657542483901
          ],
          [
            51.314674810629114,
            43.45196604087084
          ],
          [
            51.314497221285,
            43.446836604667276
          ],
          [
            51.31458226450946,
            43.44180565082689
          ],
          [
            51.31492877662807,
            43.43687276714725
          ],
          [
            51.31565094744811,
            43.43208080709943
          ],
          [
            51.316087398135025,
            43.42718170174619
          ],
          [
            51.54682152277359,
            43.24283514000735
          ],
          [
            51.607169104241954,
            43.186474332720444
          ],
          [
            51.59254561440066,
            43.18569788510523
          ],
          [
            51.56387834153557,
            43.17935152072494
          ],
          [
            51.66797704487158,
            43.13030786620941
          ],
          [
            51.6704928281865,
            43.12628948730565
          ],
          [
            51.671360034179536,
            43.12161880000198
          ],
          [
            51.66527051211453,
            43.11419464377604
          ],
          [
            51.6571920577501,
            43.10598196949738
          ],
          [
            51.66163626170943,
            43.102727543525
          ],
          [
            51.666145941355296,
            43.09949905723187
          ],
          [
            51.67026272155715,
            43.09611502746631
          ],
          [
            51.673546662122675,
            43.09240130915043
          ],
          [
            51.67896948191049,
            43.08953438868551
          ],
          [
            51.68395615699237,
            43.08649477754445
          ],
          [
            51.68982657093996,
            43.083804916880155
          ],
          [
            51.69514301517456,
            43.0808957368221
          ],
          [
            51.699731482125216,
            43.07769844902858
          ],
          [
            51.7075713505304,
            43.073488193116034
          ],
          [
            51.71435801155807,
            43.07146316244891
          ],
          [
            51.71894588850265,
            43.06833459348274
          ],
          [
            51.723845454435825,
            43.065362479137136
          ],
          [
            51.72921885966111,
            43.06262814180436
          ],
          [
            51.733925924218376,
            43.05955949075779
          ],
          [
            51.738598060769206,
            43.05647336131158
          ],
          [
            51.742779217614356,
            43.053140981510715
          ],
          [
            51.74739873723804,
            43.05002856814347
          ],
          [
            51.751609382550505,
            43.04671111943996
          ],
          [
            51.75560676240367,
            43.04328677846403
          ],
          [
            51.759880347376665,
            43.04000105013562
          ],
          [
            51.7633843492969,
            43.03632943247333
          ],
          [
            51.76645221576566,
            43.032439188871074
          ],
          [
            51.769857112656865,
            43.028718080298724
          ],
          [
            51.77152089723539,
            43.024123894167545
          ],
          [
            51.77500304730922,
            43.020441760125905
          ],
          [
            51.7775901912448,
            43.01631088018142
          ],
          [
            51.77934121213849,
            43.011760781550215
          ],
          [
            51.78351815673827,
            43.00842743642139
          ],
          [
            51.78670494086518,
            43.004597616794655
          ],
          [
            51.78825744412659,
            42.99994831769355
          ],
          [
            51.78986643896105,
            42.99532744288195
          ],
          [
            51.789937772539744,
            42.9899354303305
          ],
          [
            51.79322854251644,
            42.9861582581733
          ],
          [
            51.79749719924609,
            42.982871648008015
          ],
          [
            51.80190515534256,
            42.97965496828368
          ],
          [
            51.803143003381145,
            42.97484852508571
          ],
          [
            51.80409309431441,
            42.96989783277266
          ],
          [
            51.8046299429553,
            42.96473992289704
          ],
          [
            51.80706398506299,
            42.96053371586842
          ],
          [
            51.80852277848912,
            42.955838422009506
          ],
          [
            51.81252532974197,
            42.9524192219407
          ],
          [
            51.81651326606609,
            42.9489927749097
          ],
          [
            51.820133297714996,
            42.94538188609921
          ],
          [
            51.8245323539024,
            42.94216180728293
          ],
          [
            51.82755801446591,
            42.93835212118518
          ],
          [
            51.82994943509985,
            42.93425524151354
          ]
        ]
      },
      "properties": {
        "id": "main_shoreline"
      }
    }
  ]
}