{"type": "FeatureCollection", "features": [{"type": "Feature", "geometry": {"type": "Point", "coordinates": [51.185, 43.638]}, "properties": {"object_id": 1, "name_ru": "Водозаборный канал МАЭК", "name_kk": "МАЭК су қабылдау арнасы", "name_en": "MAEK Water Intake Channel", "category": "water_supply", "criticality": 10, "nearest_transect_id": 251, "distance_to_shore_m": 1701.3, "speed_m_per_year": 0.0, "risk_score": 50, "risk_level": "medium", "risk_components": {"speed": {"raw": 0.0, "normalized": 0, "weight": 0.3}, "distance": {"raw": 1701.3, "normalized": 100, "weight": 0.25}, "criticality": {"raw": 10, "normalized": 100, "weight": 0.25}, "years_to_threshold": {"raw": 99.0, "normalized": 0, "weight": 0.2}}, "forecast": {"optimistic": {"2030": 1701.0, "2035": 1701.0, "2040": 1701.0}, "baseline": {"2030": 1701.0, "2035": 1701.0, "2040": 1701.0}, "pessimistic": {"2030": 1701.0, "2035": 1701.0, "2040": 1701.0}}, "description_ru": "Обеспечивает забор морской воды для опреснения. Питьевая вода Актау.", "description_kk": "Тұщыландыруға теңіз суын алуды қамтамасыз етеді.", "description_en": "Supplies seawater for desalination — Aktau's drinking water.", "recommendation_ru": "Требуется план поэтапного удлинения канала. Дноуглубление даёт временный эффект.", "recommendation_en": "Phased channel extension plan required; dredging is a temporary measure.", "source": "реальные спутниковые данные; координаты объекта — временные, см. README.md"}}, {"type": "Feature", "geometry": {"type": "Point", "coordinates": [51.19, 43.645]}, "properties": {"object_id": 2, "name_ru": "Энергоблоки МАЭК", "name_kk": "МАЭК энергоблоктары", "name_en": "MAEK Power Units", "category": "energy", "criticality": 9, "nearest_transect_id": 251, "distance_to_shore_m": 1701.3, "speed_m_per_year": 0.0, "risk_score": 48, "risk_level": "medium", "risk_components": {"speed": {"raw": 0.0, "normalized": 0, "weight": 0.3}, "distance": {"raw": 1701.3, "normalized": 100, "weight": 0.25}, "criticality": {"raw": 9, "normalized": 90, "weight": 0.25}, "years_to_threshold": {"raw": 99.0, "normalized": 0, "weight": 0.2}}, "forecast": {"optimistic": {"2030": 1701.0, "2035": 1701.0, "2040": 1701.0}, "baseline": {"2030": 1701.0, "2035": 1701.0, "2040": 1701.0}, "pessimistic": {"2030": 1701.0, "2035": 1701.0, "2040": 1701.0}}, "description_ru": "Тепловая и электрическая генерация, зависит от водозабора.", "description_kk": "Су қабылдауға тәуелді жылу және электр генерациясы.", "description_en": "Thermal and electric generation, dependent on the water intake.", "recommendation_ru": "Мониторинг совместно с водозаборным каналом.", "recommendation_en": "Monitor jointly with the intake channel.", "source": "реальные спутниковые данные; координаты объекта — временные, см. README.md"}}, {"type": "Feature", "geometry": {"type": "Point", "coordinates": [51.152, 43.65]}, "properties": {"object_id": 3, "name_ru": "Порт Актау", "name_kk": "Ақтау порты", "name_en": "Port of Aktau", "category": "port", "criticality": 8, "nearest_transect_id": 245, "distance_to_shore_m": 3826.6, "speed_m_per_year": -95.48, "risk_score": 95, "risk_level": "high", "risk_components": {"speed": {"raw": -95.48, "normalized": 100, "weight": 0.3}, "distance": {"raw": 3826.6, "normalized": 100, "weight": 0.25}, "criticality": {"raw": 8, "normalized": 80, "weight": 0.25}, "years_to_threshold": {"raw": 0, "normalized": 100, "weight": 0.2}}, "forecast": {"optimistic": {"2030": 4113.0, "2035": 4471.0, "2040": 4829.0}, "baseline": {"2030": 4209.0, "2035": 4686.0, "2040": 5163.0}, "pessimistic": {"2030": 4333.0, "2035": 5046.0, "2040": 5848.0}}, "description_ru": "Основной морской порт региона, грузовые и паромные перевозки.", "description_kk": "Аймақтың негізгі теңіз порты.", "description_en": "The region's main seaport, cargo and ferry traffic.", "recommendation_ru": "Периодический промер глубин на подходных каналах.", "recommendation_en": "Periodic depth surveys on approach channels.", "source": "реальные спутниковые данные; координаты объекта — временные, см. README.md"}}, {"type": "Feature", "geometry": {"type": "Point", "coordinates": [50.305, 44.548]}, "properties": {"object_id": 4, "name_ru": "Порт Баутино", "name_kk": "Баутино порты", "name_en": "Port of Bautino", "category": "port", "criticality": 8, "nearest_transect_id": 5, "distance_to_shore_m": 7485.5, "speed_m_per_year": 13.8, "risk_score": 53, "risk_level": "medium", "risk_components": {"speed": {"raw": 13.8, "normalized": 28, "weight": 0.3}, "distance": {"raw": 7485.5, "normalized": 100, "weight": 0.25}, "criticality": {"raw": 8, "normalized": 80, "weight": 0.25}, "years_to_threshold": {"raw": 99.0, "normalized": 0, "weight": 0.2}}, "forecast": {"optimistic": {"2030": 7444.0, "2035": 7392.0, "2040": 7341.0}, "baseline": {"2030": 7430.0, "2035": 7361.0, "2040": 7292.0}, "pessimistic": {"2030": 7412.0, "2035": 7309.0, "2040": 7193.0}}, "description_ru": "Вспомогательный порт на полуострове Тюб-Караган.", "description_kk": "Түпқараған түбегіндегі қосалқы порт.", "description_en": "Auxiliary port on the Tyub-Karagan peninsula.", "recommendation_ru": "Отслеживать обмеление подходного канала.", "recommendation_en": "Track shoaling of the approach channel.", "source": "реальные спутниковые данные; координаты объекта — временные, см. README.md"}}, {"type": "Feature", "geometry": {"type": "Point", "coordinates": [51.235, 43.633]}, "properties": {"object_id": 5, "name_ru": "Набережная Актау", "name_kk": "Ақтау жағалауы", "name_en": "Aktau Waterfront", "category": "recreation", "criticality": 3, "nearest_transect_id": 258, "distance_to_shore_m": 2658.3, "speed_m_per_year": 0.0, "risk_score": 32, "risk_level": "low", "risk_components": {"speed": {"raw": 0.0, "normalized": 0, "weight": 0.3}, "distance": {"raw": 2658.3, "normalized": 100, "weight": 0.25}, "criticality": {"raw": 3, "normalized": 30, "weight": 0.25}, "years_to_threshold": {"raw": 99.0, "normalized": 0, "weight": 0.2}}, "forecast": {"optimistic": {"2030": 2658.0, "2035": 2658.0, "2040": 2658.0}, "baseline": {"2030": 2658.0, "2035": 2658.0, "2040": 2658.0}, "pessimistic": {"2030": 2658.0, "2035": 2658.0, "2040": 2658.0}}, "description_ru": "Городская рекреационная зона вдоль моря.", "description_kk": "Теңіз жағалауындағы қалалық демалыс аймағы.", "description_en": "Urban recreational zone along the sea.", "recommendation_ru": "Учитывать отступление берега при благоустройстве.", "recommendation_en": "Account for shoreline retreat in landscaping plans.", "source": "реальные спутниковые данные; координаты объекта — временные, см. README.md"}}, {"type": "Feature", "geometry": {"type": "Point", "coordinates": [51.24, 43.628]}, "properties": {"object_id": 6, "name_ru": "Городской пляж", "name_kk": "Қалалық жағажай", "name_en": "City Beach", "category": "recreation", "criticality": 3, "nearest_transect_id": 260, "distance_to_shore_m": 958.6, "speed_m_per_year": 0.0, "risk_score": 31, "risk_level": "low", "risk_components": {"speed": {"raw": 0.0, "normalized": 0, "weight": 0.3}, "distance": {"raw": 958.6, "normalized": 96, "weight": 0.25}, "criticality": {"raw": 3, "normalized": 30, "weight": 0.25}, "years_to_threshold": {"raw": 99.0, "normalized": 0, "weight": 0.2}}, "forecast": {"optimistic": {"2030": 959.0, "2035": 959.0, "2040": 959.0}, "baseline": {"2030": 959.0, "2035": 959.0, "2040": 959.0}, "pessimistic": {"2030": 959.0, "2035": 959.0, "2040": 959.0}}, "description_ru": "Основной пляж города, сезонная нагрузка.", "description_kk": "Қаланың негізгі жағажайы.", "description_en": "The city's main beach, seasonal use.", "recommendation_ru": "Мониторинг ширины пляжной полосы.", "recommendation_en": "Monitor beach-strip width.", "source": "реальные спутниковые данные; координаты объекта — временные, см. README.md"}}, {"type": "Feature", "geometry": {"type": "Point", "coordinates": [51.203, 43.612]}, "properties": {"object_id": 7, "name_ru": "Rixos Water World Aktau", "name_kk": "Rixos Water World Aktau", "name_en": "Rixos Water World Aktau", "category": "tourism", "criticality": 4, "nearest_transect_id": 258, "distance_to_shore_m": 2658.3, "speed_m_per_year": 0.0, "risk_score": 35, "risk_level": "medium", "risk_components": {"speed": {"raw": 0.0, "normalized": 0, "weight": 0.3}, "distance": {"raw": 2658.3, "normalized": 100, "weight": 0.25}, "criticality": {"raw": 4, "normalized": 40, "weight": 0.25}, "years_to_threshold": {"raw": 99.0, "normalized": 0, "weight": 0.2}}, "forecast": {"optimistic": {"2030": 2658.0, "2035": 2658.0, "2040": 2658.0}, "baseline": {"2030": 2658.0, "2035": 2658.0, "2040": 2658.0}, "pessimistic": {"2030": 2658.0, "2035": 2658.0, "2040": 2658.0}}, "description_ru": "Курортный комплекс, площадка финала хакатона.", "description_kk": "Курорттық кешен, хакатон финалының алаңы.", "description_en": "Resort complex, hackathon final venue.", "recommendation_ru": "Долгосрочное планирование береговой инфраструктуры курорта.", "recommendation_en": "Long-term planning for the resort's shore infrastructure.", "source": "реальные спутниковые данные; координаты объекта — временные, см. README.md"}}, {"type": "Feature", "geometry": {"type": "Point", "coordinates": [51.198, 43.601]}, "properties": {"object_id": 8, "name_ru": "Прибрежная автодорога", "name_kk": "Жағалаудағы автожол", "name_en": "Coastal Highway", "category": "transport", "criticality": 5, "nearest_transect_id": 259, "distance_to_shore_m": 1223.4, "speed_m_per_year": 0.0, "risk_score": 38, "risk_level": "medium", "risk_components": {"speed": {"raw": 0.0, "normalized": 0, "weight": 0.3}, "distance": {"raw": 1223.4, "normalized": 100, "weight": 0.25}, "criticality": {"raw": 5, "normalized": 50, "weight": 0.25}, "years_to_threshold": {"raw": 99.0, "normalized": 0, "weight": 0.2}}, "forecast": {"optimistic": {"2030": 1223.0, "2035": 1223.0, "2040": 1223.0}, "baseline": {"2030": 1223.0, "2035": 1223.0, "2040": 1223.0}, "pessimistic": {"2030": 1223.0, "2035": 1223.0, "2040": 1223.0}}, "description_ru": "Участок дороги, идущий вдоль береговой линии.", "description_kk": "Жағалау бойымен өтетін жол учаскесі.", "description_en": "Road segment running along the shoreline.", "recommendation_ru": "Оценить риск подмыва полотна на участках высокой скорости отступления.", "recommendation_en": "Assess embankment-erosion risk on high-retreat segments.", "source": "реальные спутниковые данные; координаты объекта — временные, см. README.md"}}]}